{"type":"FeatureCollection","features":[{"type":"Feature","properties":{"name":"Sumerian City-States","color":"#b8c8a8","area":12568,"polity_id":"polity_sumeriancitystates"},"geometry":{"type":"MultiPolygon","coordinates":[[[[46.598,30.3722],[46.6965,30.565],[47.2358,30.6292],[47.2513,30.7578],[47.9511,30.8863],[48.0271,30.8863],[47.739,31.0148],[47.6951,31.2719],[47.3906,31.2719],[47.2145,31.0791],[46.9102,31.0791],[46.6976,31.2076],[46.3622,30.9506],[45.4497,30.9506],[45.4423,30.8863],[45.7705,30.4364],[46.5906,30.3079],[46.598,30.3722]]],[[[48.0951,30.822],[48.0191,30.822],[48.0271,30.8863],[48.1031,30.8863],[48.0951,30.822]]]]}},{"type":"Feature","properties":{"name":"Elam","color":"#b0a8d8","area":25324,"polity_id":"polity_elam"},"geometry":{"type":"Polygon","coordinates":[[[52.0489,29.0867],[52.208,29.1509],[52.2402,29.4081],[51.7083,29.9865],[51.7251,30.1151],[51.5143,30.2436],[51.4724,30.5007],[51.2531,30.565],[51.1772,30.565],[51.0508,30.1794],[50.5199,30.1794],[50.3846,30.3079],[50.0648,30.1794],[50.0567,30.1151],[50.2363,29.7294],[50.6513,29.4081],[50.6203,29.1509],[50.915,29.0867],[50.809,28.8295],[51.0281,28.7652],[51.0662,28.4438],[51.5567,28.7652],[51.8588,28.7652],[51.882,28.9581],[52.041,29.0224],[52.0489,29.0867]]]}},{"type":"Feature","properties":{"name":"Indus Valley Civilization","color":"#c8a8a8","area":755176,"polity_id":"polity_indusvalleycivilization"},"geometry":{"type":"MultiPolygon","coordinates":[[[[75.7349,33.6502],[75.8724,33.5859],[76.0365,33.0073],[76.1741,32.943],[76.0663,32.8145],[76.1429,32.8145],[76.0965,32.6216],[75.5319,32.1717],[75.5021,32.0431],[75.7163,31.9789],[75.5089,31.4005],[75.8662,30.9506],[75.8382,30.822],[76.0384,30.6935],[76.0107,30.565],[76.211,30.4364],[76.1838,30.3079],[76.4737,30.2436],[76.3708,30.1151],[76.7987,29.9865],[76.772,29.858],[76.9463,29.6009],[76.8177,28.9581],[76.2393,28.701],[75.7863,28.701],[75.7621,28.5724],[74.1771,28.5724],[72.6333,28.3795],[72.0719,28.1867],[71.7813,28.251],[70.8548,28.1224],[70.6072,27.9938],[70.2411,28.0581],[69.7368,27.7367],[69.4206,27.158],[69.2973,26.3222],[69.3723,26.3222],[69.5395,25.3579],[70.5199,24.8435],[70.5783,24.7149],[70.7277,24.7149],[70.7862,24.5864],[71.0851,24.5864],[71.2022,24.3292],[71.3516,24.3292],[71.4103,24.2006],[71.9759,23.9435],[72.1017,23.7506],[72.8758,23.3649],[72.8679,22.6577],[72.6899,22.4005],[72.7427,22.2077],[72.378,22.272],[72.3425,21.9505],[72.1125,21.8863],[72.1728,21.7577],[72.3214,21.7577],[72.2797,21.372],[72.1037,21.1148],[71.0915,20.6648],[70.7206,20.6648],[70.2955,20.8577],[69.8899,21.2434],[69.9032,21.372],[69.4974,21.7577],[69.3487,21.7577],[68.9495,22.2077],[68.9765,22.4648],[69.1998,22.4648],[69.2605,22.3363],[69.4093,22.3363],[69.4974,22.4648],[69.8695,22.4648],[70.2625,22.6577],[70.3653,22.9148],[69.4506,22.722],[68.8083,22.9791],[68.5525,23.3649],[68.3359,23.4291],[68.3502,23.5577],[68.1265,23.5577],[68.1554,23.8149],[67.6331,23.8149],[67.4911,23.8792],[67.4384,24.072],[67.2891,24.072],[67.3261,24.3935],[67.2514,24.3935],[67.2147,24.7149],[66.632,24.8435],[66.6791,25.2293],[66.3451,25.5507],[66.0215,25.3579],[64.8161,25.2936],[64.8006,25.165],[64.2845,25.2293],[64.225,25.3579],[63.6262,25.3579],[63.5362,25.2293],[62.5634,25.2293],[62.4739,25.1007],[62.0251,25.1007],[62.1366,25.4221],[62.3013,25.5507],[64.2801,25.8079],[65.0881,25.6793],[65.6956,25.7436],[66.0202,25.9365],[65.8462,26.3222],[65.8723,26.5151],[65.7972,26.5151],[65.7737,27.4152],[65.6985,27.4152],[66.0565,28.7652],[66.5542,29.9223],[67.1135,30.5007],[67.8727,30.5007],[67.9728,30.6292],[68.9339,30.8863],[69.0731,31.2076],[69.251,31.3362],[69.3161,31.6575],[69.5713,31.7861],[69.6113,31.9789],[69.7639,31.9789],[70.4083,32.4931],[70.3598,32.6216],[70.7848,32.8145],[70.9334,33.1359],[71.3134,33.4574],[71.727,33.5859],[71.7571,33.7146],[71.8956,33.6502],[72.1716,33.8432],[72.5712,33.9075],[72.6791,34.0361],[73.31,34.1004],[73.3869,34.1004],[73.3555,33.9718],[74.3549,33.9718],[74.6306,33.8432],[75.5366,33.7789],[75.6581,33.6502],[75.7349,33.6502]]],[[[70.2199,27.9295],[70.2305,27.9938],[70.3058,27.9938],[70.2953,27.9295],[70.2199,27.9295]]],[[[76.5224,30.1151],[76.5359,30.1794],[76.6118,30.1794],[76.5982,30.1151],[76.5224,30.1151]]]]}},{"type":"Feature","properties":{"name":"Lower Egypt","color":"#b8a8c8","area":74134,"polity_id":"polity_loweregypt"},"geometry":{"type":"Polygon","coordinates":[[[31.1007,31.6014],[30.9778,31.5835],[31.1265,31.4967],[30.9025,31.4203],[30.5442,31.3932],[30.9561,31.5757],[30.3554,31.5028],[30.2897,31.2374],[30.0644,31.3203],[29.4972,30.9456],[29.5026,30.5028],[30.1157,30.0669],[30.3751,29.7202],[30.3853,29.4221],[30.0292,29.186],[29.946,28.915],[30.0521,28.7733],[30.4484,28.7109],[30.6127,27.5607],[30.748,27.2327],[30.8893,27.163],[30.8982,27.1826],[31.0633,27.3587],[30.9625,27.5171],[30.9598,28.2778],[31.3702,29.3058],[32.5728,29.3697],[32.3683,29.5445],[32.3608,29.6831],[32.4776,29.9368],[32.848,30.1618],[32.6854,31.0449],[32.2539,31.2818],[32.2798,31.1243],[32.078,31.0825],[32.0279,31.2157],[31.7775,31.2774],[31.9097,31.5276],[32.0172,31.3806],[32.2025,31.2909],[31.9215,31.5299],[31.8717,31.5349],[31.5569,31.4422],[31.1031,31.6011],[31.1007,31.6014]]]}},{"type":"Feature","properties":{"name":"Upper Egypt","color":"#c8a8a8","area":19656,"polity_id":"polity_upperegypt"},"geometry":{"type":"Polygon","coordinates":[[[31.493,27.142],[31.5243,26.9988],[32.1718,26.4111],[32.9014,26.1949],[32.9478,25.8909],[32.6942,25.494],[32.8952,25.1663],[33.1081,25.0447],[33.1323,23.9958],[32.7482,24.0007],[32.765,24.7124],[32.6371,25.0053],[32.2418,25.3062],[32.3477,25.7258],[32.5433,25.8929],[31.8476,25.9444],[31.7702,26.2456],[30.8907,27.1661],[30.8982,27.1826],[31.0417,27.3285],[31.0861,27.3906],[31.1777,27.3658],[31.3832,27.2663],[31.493,27.142]]]}},{"type":"Feature","properties":{"name":"Sumerian City-States","label":1,"area":12568},"geometry":{"type":"Point","coordinates":[47.10792857142857,30.85569523809524]}},{"type":"Feature","properties":{"name":"Elam","label":1,"area":25324},"geometry":{"type":"Point","coordinates":[51.203559999999996,29.580292000000004]}},{"type":"Feature","properties":{"name":"Indus Valley Civilization","label":1,"area":755176},"geometry":{"type":"Point","coordinates":[70.67946953642381,27.369341059602622]}},{"type":"Feature","properties":{"name":"Lower Egypt","label":1,"area":74134},"geometry":{"type":"Point","coordinates":[31.192852272727272,30.1591409090909]}},{"type":"Feature","properties":{"name":"Upper Egypt","label":1,"area":19656},"geometry":{"type":"Point","coordinates":[32.097678260869564,26.037899999999997]}}]}