{"type":"FeatureCollection","features":[{"type":"Feature","properties":{"name":"Elam","color":"#b0a8d8","area":59564,"polity_id":"polity_elam"},"geometry":{"type":"Polygon","coordinates":[[[49.9588,32.236],[49.7169,32.6859],[49.2488,32.6216],[49.2761,32.8145],[49.0464,32.8145],[48.9881,32.943],[48.087,33.0716],[47.7868,32.5574],[47.7437,32.236],[47.5909,32.236],[47.6419,32.0431],[47.9134,31.7861],[47.7113,31.4005],[47.6549,30.9506],[48.3992,30.822],[48.671,30.565],[48.8988,30.565],[48.8828,30.4364],[49.0347,30.4364],[49.0187,30.3079],[49.2226,30.1151],[49.4501,30.1151],[49.5859,29.9865],[50.3846,30.3079],[50.4937,30.565],[50.0714,30.822],[50.1053,31.0791],[49.9788,31.2719],[50.2864,31.8503],[50.0171,32.1074],[50.0352,32.236],[49.9588,32.236]]]}},{"type":"Feature","properties":{"name":"Phoenicia","color":"#7fb8c8","area":28407,"polity_id":"polity_phoenicia"},"geometry":{"type":"MultiPolygon","coordinates":[[[[14.7475,32.3002],[14.5166,32.1717],[14.3688,32.5574],[14.6747,32.5574],[14.7493,32.4288],[14.9022,32.4288],[14.8239,32.3002],[14.7475,32.3002]]],[[[35.6838,33.9718],[35.6445,34.3577],[35.7921,34.2933],[36.0488,34.5506],[36.0682,34.7436],[35.927,34.8723],[35.9597,35.194],[35.8825,35.194],[35.9863,35.4514],[35.9929,35.5158],[36.2318,35.5802],[36.373,35.4514],[36.165,34.9366],[36.3128,34.8723],[36.2029,34.5506],[36.2799,34.5506],[36.2347,34.1004],[36.1578,34.1004],[36.0244,33.5217],[35.4452,33.0716],[35.2213,33.1359],[35.2272,33.2002],[35.3984,33.3931],[35.3458,33.6502],[35.4993,33.6502],[35.447,33.9075],[35.6069,33.9718],[35.6838,33.9718]]],[[[33.3692,34.7436],[33.5234,34.7436],[33.8557,35.001],[34.0873,35.001],[34.0995,35.1297],[33.9511,35.194],[33.9571,35.2584],[33.8086,35.3227],[33.4698,35.001],[33.2382,35.001],[33.292,34.7436],[33.3692,34.7436]]],[[[10.8511,35.4514],[10.7738,35.3227],[10.5418,35.3871],[10.7735,35.7733],[10.9284,35.5802],[11.0832,35.5802],[11.083,35.3871],[10.9284,35.4514],[10.8511,35.4514]]],[[[-5.2372,36.6105],[-4.853,36.6749],[-4.5551,36.8682],[-3.8507,36.8037],[-4.4686,36.7393],[-4.6888,36.546],[-5.2282,36.4816],[-5.2879,36.224],[-5.5162,36.1596],[-5.5848,36.0308],[-5.8311,36.224],[-6.0638,36.224],[-6.2475,36.6105],[-5.9179,36.3528],[-5.4521,36.3528],[-5.2327,36.546],[-5.2372,36.6105]]],[[[9.995,36.8037],[10.2282,36.8682],[10.5396,36.7393],[10.8506,36.9971],[11.0063,36.9971],[11.0062,36.8037],[10.4625,36.4172],[10.5405,36.224],[10.2299,36.2884],[10.2295,36.4172],[9.84,36.6749],[9.9172,36.8037],[9.995,36.8037]]],[[[7.7383,36.8682],[7.9709,36.9326],[7.8188,36.6749],[7.5874,36.546],[7.3513,36.7393],[7.2694,36.9971],[7.502,37.0615],[7.7374,36.9326],[7.7383,36.8682]]],[[[10.3058,36.9326],[10.306,36.8682],[10.2282,36.8682],[10.228,36.9326],[10.3058,36.9326]]],[[[8.8265,36.9971],[8.9032,37.126],[9.0595,37.0615],[9.6031,37.3193],[9.9934,37.1904],[10.227,37.2549],[10.2276,37.0615],[10.0716,37.126],[9.9945,36.9326],[9.6828,36.9971],[9.2954,36.7393],[9.0616,36.8037],[8.9043,36.9971],[8.8265,36.9971]]]]}},{"type":"Feature","properties":{"name":"Philistia","color":"#c88ca0","area":3139,"polity_id":"polity_philistia"},"geometry":{"type":"Polygon","coordinates":[[[34.6334,31.6575],[34.5733,31.8503],[34.813,31.9789],[34.7587,32.236],[34.8463,32.3645],[34.8519,32.4288],[35.0047,32.4288],[35.1406,32.236],[35.0365,31.9146],[34.6122,31.4005],[34.5361,31.4005],[34.2972,31.2719],[34.5572,31.6575],[34.6334,31.6575]]]}},{"type":"Feature","properties":{"name":"Kingdom of Israel","color":"#a0a85a","area":13390,"polity_id":"polity_kingdomofisrael"},"geometry":{"type":"Polygon","coordinates":[[[35.8814,31.9789],[36.0456,32.1074],[35.8987,32.1717],[35.9103,32.3002],[36.3101,32.4931],[36.1751,32.6859],[35.9515,32.7502],[36.0704,33.2002],[35.7698,33.2645],[35.7759,33.3288],[35.4452,33.0716],[35.2213,33.1359],[35.2154,33.0716],[35.0563,33.0073],[35.0218,32.6216],[34.8575,32.4931],[34.8519,32.4288],[35.0047,32.4288],[35.1406,32.236],[35.0365,31.9146],[35.5705,31.9146],[35.63,31.7218],[35.7062,31.7218],[35.8643,31.7861],[35.8051,31.9789],[35.8814,31.9789]]]}},{"type":"Feature","properties":{"name":"Kingdom of Kush","color":"#a08ad8","area":336731,"polity_id":"polity_kingdomofkush"},"geometry":{"type":"Polygon","coordinates":[[[33.8378,22.0791],[33.7635,22.0791],[33.8352,22.0148],[33.7453,21.6291],[33.8196,21.6291],[34.2575,19.6362],[34.4687,19.3791],[34.5974,18.9291],[34.8792,18.6076],[34.939,18.2862],[35.2998,18.0933],[35.5013,17.6433],[36.0033,17.3219],[36.0539,16.8076],[35.6713,16.4861],[34.7137,16.4861],[34.5556,16.229],[34.6843,15.779],[34.0981,15.8433],[33.8621,15.4575],[32.5286,15.2004],[32.5334,15.329],[32.0944,15.3933],[31.7337,15.5861],[31.527,15.9718],[31.5364,16.229],[31.3939,16.3576],[31.4771,16.6147],[31.337,16.8076],[31.2208,17.6433],[31.147,17.6433],[30.8768,20.3434],[30.8026,20.3434],[30.8184,20.7934],[30.7442,20.7934],[30.7621,21.3077],[30.6879,21.3077],[30.6358,21.9505],[30.5615,21.9505],[30.7214,22.272],[30.742,22.8506],[30.5349,23.3006],[30.5372,23.3649],[31.6705,23.7506],[32.491,23.7506],[33.389,23.8149],[33.7535,23.622],[33.8087,23.172],[33.8832,23.172],[33.8404,22.1434],[33.8378,22.0791]]]}},{"type":"Feature","properties":{"name":"Kingdom of Judah","color":"#c9a227","area":4404,"polity_id":"polity_kingdomofjudah"},"geometry":{"type":"Polygon","coordinates":[[[34.607,31.3362],[35.2161,31.3362],[35.5316,31.4647],[35.5537,31.7218],[35.63,31.7218],[35.5705,31.9146],[35.0365,31.9146],[34.6122,31.4005],[34.607,31.3362]]]}},{"type":"Feature","properties":{"name":"Neo-Assyrian Empire","color":"#c8a06a","area":516130,"polity_id":"polity_neoassyrianempire"},"geometry":{"type":"MultiPolygon","coordinates":[[[[44.842,37.3193],[44.6276,37.4483],[44.5889,37.7062],[44.306,37.8998],[44.4545,38.3515],[43.2807,38.868],[43.2224,38.9972],[42.8981,38.9326],[42.6823,39.0618],[42.005,38.7389],[41.7696,38.7389],[41.7198,38.9326],[41.4842,38.9326],[41.3867,38.8034],[40.8465,38.868],[40.7494,38.7389],[40.1126,38.6743],[40.0162,38.5451],[39.4762,38.6097],[39.1807,38.1578],[38.8677,38.1578],[38.658,38.3515],[38.423,38.3515],[38.3116,38.0933],[38.147,38.0288],[37.8422,38.0933],[37.5776,38.4806],[37.2802,38.6097],[37.3047,38.8034],[37.2262,38.8034],[36.7472,38.7389],[36.5508,38.416],[36.4175,38.6097],[36.2607,38.6097],[36.0579,38.2224],[35.6442,38.0288],[35.6221,37.8352],[35.3168,37.8998],[35.2242,37.7707],[34.9899,37.7707],[34.9617,37.5128],[34.7276,37.5128],[34.778,37.2549],[34.5816,36.8682],[34.8929,36.8682],[34.9504,36.6749],[35.1127,36.7393],[35.4877,36.6105],[35.8336,36.9326],[36.1449,36.9326],[36.2862,36.8037],[36.2649,36.6105],[35.8486,36.3528],[35.9901,36.224],[35.9559,35.902],[35.8784,35.902],[35.9156,35.5158],[35.9929,35.5158],[36.2318,35.5802],[36.373,35.4514],[36.165,34.9366],[36.3128,34.8723],[36.2029,34.5506],[36.2799,34.5506],[36.2347,34.1004],[36.1578,34.1004],[36.0244,33.5217],[35.7759,33.3288],[35.7698,33.2645],[36.7665,33.2645],[36.7279,33.6502],[37.0546,33.8432],[37.2347,34.1004],[37.3885,34.1004],[37.325,34.229],[37.744,34.5506],[37.7579,34.6793],[38.1787,35.001],[38.8036,35.0653],[40.0557,34.5506],[40.1178,34.422],[40.4183,34.3577],[40.4728,34.1647],[40.8499,34.1004],[40.9117,33.9718],[41.2116,33.9075],[41.4886,33.6502],[42.5783,33.1359],[42.7085,32.943],[43.1526,32.8145],[44.459,31.5933],[44.5814,31.3362],[44.8098,31.3362],[45.0158,31.1434],[45.9365,31.2076],[46.0437,31.4647],[45.9227,31.7218],[46.617,31.7861],[46.3771,32.3002],[46.529,32.8788],[46.6056,32.8788],[46.5547,33.0716],[46.8194,33.3288],[46.6835,33.4574],[46.7868,33.6502],[46.2845,33.9075],[46.3792,34.0361],[46.1485,34.0361],[46.1752,34.229],[45.862,34.7436],[45.8984,35.001],[46.2257,35.1297],[46.2443,35.2584],[46.0403,35.4514],[46.0685,35.6445],[46.3293,35.8377],[45.3502,36.0308],[45.4466,36.1596],[45.1059,36.4816],[45.0663,36.7393],[44.9203,36.8037],[44.8322,37.2549],[44.842,37.3193]]],[[[34.4972,36.8037],[34.5038,36.8682],[34.5816,36.8682],[34.575,36.8037],[34.4972,36.8037]]]]}},{"type":"Feature","properties":{"name":"Phrygia","color":"#a8a8c8","area":78628,"polity_id":"polity_phrygia"},"geometry":{"type":"Polygon","coordinates":[[[34.3727,41.1977],[34.54,41.2625],[34.5652,41.4571],[34.7329,41.522],[34.75,41.6518],[34.3517,41.6518],[34.474,41.9764],[33.2771,41.9764],[32.8621,41.8465],[32.6308,41.9114],[32.6947,41.7816],[32.1934,41.5869],[32.0417,41.6518],[32.0265,41.522],[31.5342,41.3922],[31.3461,41.1328],[30.8695,41.1328],[30.9278,40.9384],[30.7552,40.8088],[30.7934,40.4201],[30.4703,40.3554],[30.4504,40.1612],[30.5295,40.1612],[30.5098,39.967],[30.7401,39.9023],[30.727,39.7729],[31.6735,39.7729],[31.6599,39.6436],[31.8108,39.5789],[31.7052,39.3203],[31.7838,39.3203],[31.7573,39.0618],[31.8359,39.0618],[31.6592,38.868],[31.7968,38.6743],[32.1956,38.7389],[32.2609,38.6097],[32.4178,38.6097],[33.001,38.9326],[33.1442,38.8034],[33.1952,38.5451],[33.5872,38.5451],[33.7581,38.6743],[33.7008,38.868],[33.7865,38.9326],[33.4794,38.9972],[33.3578,39.3203],[33.1288,39.385],[33.1648,39.7083],[33.4161,39.8376],[33.5174,40.0317],[34.0703,40.0317],[33.9904,40.6792],[34.3947,40.744],[34.348,41.0032],[34.2686,41.0032],[34.3644,41.1328],[34.3727,41.1977]]]}},{"type":"Feature","properties":{"name":"Kingdom of Urartu","color":"#c8a8a8","area":161552,"polity_id":"polity_kingdomofurartu"},"geometry":{"type":"Polygon","coordinates":[[[44.9584,40.4201],[44.9256,40.6792],[44.0653,40.744],[44.1907,41.0032],[44.0435,41.068],[44.0667,41.1977],[43.204,41.2625],[43.1019,41.1328],[42.8636,41.1328],[42.7508,40.9384],[42.5921,40.9384],[42.4664,41.1328],[41.9104,41.1328],[41.7879,40.8736],[41.5606,40.9384],[40.9328,40.4849],[40.7846,40.5496],[40.586,40.2906],[40.1214,40.3554],[39.7662,40.0964],[38.9253,40.2906],[38.2834,40.2259],[37.5989,39.2557],[37.4331,39.1911],[37.4163,39.0618],[37.4949,39.0618],[37.3832,38.8034],[37.3047,38.8034],[37.2802,38.6097],[37.5776,38.4806],[37.8422,38.0933],[38.147,38.0288],[38.3116,38.0933],[38.423,38.3515],[38.658,38.3515],[38.8677,38.1578],[39.1807,38.1578],[39.4762,38.6097],[40.0162,38.5451],[40.1126,38.6743],[40.7494,38.7389],[40.8465,38.868],[41.3867,38.8034],[41.4842,38.9326],[41.7198,38.9326],[41.7696,38.7389],[42.005,38.7389],[42.6823,39.0618],[42.8981,38.9326],[43.2224,38.9972],[43.2807,38.868],[44.4545,38.3515],[44.306,37.8998],[44.5889,37.7062],[44.6276,37.4483],[44.842,37.3193],[44.92,37.3193],[45.2417,37.3838],[45.2616,37.5128],[45.1255,37.6417],[45.1965,38.0933],[44.9822,38.2224],[45.0236,38.4806],[45.301,38.7389],[45.6364,38.868],[46.1075,38.868],[46.1406,39.0618],[46.062,39.0618],[46.0954,39.2557],[45.8816,39.385],[45.9041,39.5143],[45.7578,39.5789],[45.961,39.8376],[45.5333,40.0964],[45.1156,39.967],[45.0936,40.2906],[44.9469,40.3554],[44.9584,40.4201]]]}},{"type":"Feature","properties":{"name":"Sabaeans","color":"#a8a8c8","area":14931,"polity_id":"polity_sabaeans"},"geometry":{"type":"MultiPolygon","coordinates":[[[[45.8444,15.329],[45.8479,15.3933],[45.9215,15.3933],[45.9179,15.329],[45.8444,15.329]]],[[[43.8656,15.4575],[43.869,15.5218],[43.9426,15.5218],[43.9391,15.4575],[43.8656,15.4575]]],[[[43.9426,15.5218],[43.946,15.5861],[44.0196,15.5861],[44.0161,15.5218],[43.9426,15.5218]]],[[[45.0284,15.2004],[43.9957,15.1361],[43.9391,15.4575],[44.4787,15.9076],[44.9275,16.0361],[45.0675,15.9076],[45.3656,15.9718],[45.9433,15.779],[45.8479,15.3933],[45.102,15.2004],[45.0284,15.2004]]]]}},{"type":"Feature","properties":{"name":"Greek City-States","color":"#b8c8a8","area":61397,"polity_id":"polity_greekcitystates"},"geometry":{"type":"MultiPolygon","coordinates":[[[[23.1168,36.3528],[23.1068,36.1596],[22.874,36.1596],[22.8872,36.4172],[23.0392,36.3528],[23.1168,36.3528]]],[[[24.4316,37.5773],[24.1974,37.5773],[24.2833,37.7062],[24.4355,37.6417],[24.4316,37.5773]]],[[[20.934,37.8998],[20.9221,37.6417],[20.6127,37.7062],[20.6213,37.8998],[20.8558,37.8998],[20.934,37.8998]]],[[[20.7171,38.2869],[20.7954,38.2869],[20.7865,38.0933],[20.3199,38.1578],[20.3285,38.3515],[20.7201,38.3515],[20.7171,38.2869]]],[[[22.9431,38.868],[22.9356,38.7389],[23.1672,38.6743],[23.3126,38.4806],[23.6261,38.4806],[23.5634,38.7389],[24.0302,38.6743],[24.1789,38.5451],[24.1587,38.2224],[24.0021,38.2224],[23.9786,37.8352],[23.4428,38.0288],[23.2082,38.0288],[23.2008,37.8998],[23.0445,37.8998],[23.1083,37.6417],[23.3425,37.6417],[23.4024,37.3193],[23.1685,37.3193],[23.1756,37.4483],[22.9486,37.5773],[22.7144,37.5773],[22.7007,37.3193],[22.8532,37.2549],[23.056,36.6749],[22.8328,36.8682],[22.5994,36.8682],[22.5118,36.6749],[22.3563,36.6749],[22.22,37.0615],[21.9085,37.0615],[21.8992,36.8682],[21.7435,36.8682],[21.681,37.1904],[21.6031,37.1904],[21.6966,37.5128],[21.2436,37.8352],[21.4156,38.1578],[21.7286,38.1578],[21.7384,38.3515],[21.2716,38.416],[21.278,38.5451],[21.6015,38.7389],[21.912,38.6743],[22.3863,38.7389],[22.5505,38.868],[22.5615,39.0618],[22.344,39.385],[22.5877,39.5143],[22.5319,39.9023],[22.6227,40.0964],[22.7017,40.0964],[22.6109,39.9023],[22.7648,39.8376],[22.7569,39.7083],[23.1352,39.4496],[22.8163,39.385],[22.7973,39.0618],[23.1155,39.1265],[23.1078,38.9972],[23.3435,38.9972],[23.4888,38.8034],[23.1825,38.9326],[23.0216,38.868],[22.9431,38.868]],[[22.4399,38.2869],[22.4329,38.1578],[22.5895,38.1578],[22.6572,37.9643],[22.9699,37.9643],[22.9061,38.2224],[22.746,38.1578],[22.8351,38.3515],[22.5147,38.2224],[22.6036,38.416],[22.2902,38.416],[22.3616,38.2869],[22.4399,38.2869]]],[[[20.7383,38.7389],[20.7322,38.6097],[20.4969,38.6097],[20.5059,38.8034],[20.7414,38.8034],[20.7383,38.7389]]],[[[23.4888,38.8034],[23.5673,38.8034],[23.5634,38.7389],[23.4849,38.7389],[23.4888,38.8034]]],[[[23.4959,40.1612],[23.6369,39.9023],[23.3253,39.967],[23.263,40.2259],[23.4169,40.1612],[23.4959,40.1612]]],[[[23.5045,40.2906],[23.5002,40.2259],[23.4212,40.2259],[23.4254,40.2906],[23.5045,40.2906]]],[[[23.6583,40.2259],[23.667,40.3554],[23.7461,40.3554],[23.7374,40.2259],[23.6583,40.2259]]],[[[34.5357,35.6445],[34.0344,35.2584],[33.9571,35.2584],[33.8086,35.3227],[33.4698,35.001],[33.2382,35.001],[33.292,34.7436],[33.2863,34.6793],[32.8894,34.5506],[32.7466,34.6793],[32.3667,34.7436],[32.229,34.9366],[32.2458,35.1297],[32.5547,35.1297],[32.8752,35.2584],[32.8869,35.3871],[33.7374,35.3871],[34.1487,35.6445],[34.5421,35.7089],[34.5357,35.6445]]],[[[24.2974,35.2584],[23.6792,35.2584],[23.6154,35.5158],[24.1569,35.5158],[24.1499,35.3871],[24.301,35.3227],[25.6923,35.3227],[25.6806,35.1297],[26.2253,35.194],[26.1401,35.0653],[24.8237,35.001],[24.7574,35.194],[24.3747,35.2584],[24.2974,35.2584]]],[[[28.2454,36.4172],[28.1393,36.0308],[27.9843,36.0308],[27.8975,35.902],[27.6696,35.9664],[27.6925,36.2884],[28.0171,36.4816],[28.2502,36.4816],[28.2454,36.4172]]],[[[27.1076,36.8037],[27.0208,36.6749],[26.8653,36.6749],[27.0389,36.9326],[27.1946,36.9326],[27.1854,36.8037],[27.1076,36.8037]]],[[[25.5644,36.9971],[25.3308,36.9971],[25.339,37.126],[25.5685,37.0615],[25.5644,36.9971]]],[[[27.7538,37.126],[27.6663,36.9971],[27.1946,36.9326],[27.2085,37.126],[27.6759,37.126],[27.7538,37.126]]],[[[25.2163,37.6417],[25.286,37.5128],[24.978,37.5773],[24.9862,37.7062],[25.2205,37.7062],[25.2163,37.6417]]],[[[24.9247,37.9643],[25.0727,37.8352],[24.9862,37.7062],[24.6819,37.8352],[24.6942,38.0288],[24.8465,37.9643],[24.9247,37.9643]]],[[[26.1389,38.5451],[26.2173,38.5451],[26.1941,38.2224],[25.8764,38.1578],[25.8299,38.6097],[26.1436,38.6097],[26.1389,38.5451]]],[[[24.6749,38.9326],[24.662,38.7389],[24.3565,38.868],[24.365,38.9972],[24.5964,38.9326],[24.6749,38.9326]]]]}},{"type":"Feature","properties":{"name":"Twenty-third Dynasty of Egypt","color":"#c8b8a8","area":61633,"polity_id":"polity_twentythirddynastyofegypt"},"geometry":{"type":"Polygon","coordinates":[[[32.2372,31.2076],[32.3039,31.0791],[31.9996,31.0791],[31.9374,31.2719],[31.7806,31.2076],[31.8752,31.4647],[31.2658,31.4647],[31.118,31.529],[31.2033,31.6575],[30.9746,31.6575],[30.9656,31.529],[30.8088,31.4647],[30.3517,31.4647],[30.2712,31.4005],[30.3388,31.2719],[29.882,31.2719],[29.8018,31.2076],[29.8696,31.0791],[29.6332,30.9506],[29.4851,31.0148],[29.3971,30.822],[29.0931,30.822],[29.3054,30.565],[29.2938,30.3722],[29.8774,29.9865],[29.7902,29.7937],[30.0855,29.6652],[30.0022,29.5366],[30.3011,29.4723],[30.0629,29.2795],[30.0591,29.2152],[30.2785,29.0867],[30.5885,29.2152],[30.6603,29.1509],[30.5697,28.8938],[30.9399,28.7652],[30.9744,29.3438],[31.1376,29.5366],[31.5918,29.5366],[31.6,29.6652],[31.9786,29.6652],[32.2143,29.7937],[32.4373,29.7294],[32.6019,29.9223],[32.5573,30.3722],[32.7896,30.4364],[32.7321,30.6935],[32.8222,30.8863],[32.7462,30.8863],[32.8364,31.0791],[32.5322,31.0791],[32.3133,31.2076],[32.2372,31.2076]]]}},{"type":"Feature","properties":{"name":"Twenty-second Dynasty of Egypt","color":"#b8a8c8","area":166128,"polity_id":"polity_twentyseconddynastyofegypt"},"geometry":{"type":"Polygon","coordinates":[[[30.9104,28.251],[30.8496,28.5081],[30.9361,28.701],[30.9399,28.7652],[30.5697,28.8938],[30.6603,29.1509],[30.5885,29.2152],[30.2785,29.0867],[30.0591,29.2152],[29.9835,29.2152],[29.6847,29.2795],[29.5667,28.5081],[30.0844,28.3153],[30.0775,28.1867],[30.2933,27.9938],[30.2831,27.8009],[30.1225,27.6081],[29.8967,27.6081],[29.9687,27.5438],[29.887,27.4152],[29.1225,27.158],[28.3481,26.6437],[28.231,25.615],[28.3059,25.615],[28.2886,25.165],[28.5688,24.6506],[29.6728,24.2006],[29.9595,23.8792],[30.1087,23.8792],[30.104,23.7506],[30.3952,23.5577],[30.4627,23.3649],[30.5372,23.3649],[31.6705,23.7506],[32.4165,23.7506],[32.3693,26.0008],[32.6074,26.258],[32.6313,26.708],[32.488,26.8366],[31.7368,26.8366],[31.166,27.4152],[31.0155,27.4152],[30.9859,28.251],[30.9104,28.251]]]}},{"type":"Feature","properties":{"name":"Jin","color":"#c8b8a8","area":136495,"polity_id":"polity_jin"},"geometry":{"type":"Polygon","coordinates":[[[114.2534,35.4514],[114.226,35.3871],[113.5301,35.3871],[112.3199,35.4514],[112.1066,34.9366],[112.1837,34.9366],[112.1548,34.4863],[110.8973,34.229],[110.8203,34.229],[110.8196,34.422],[110.6911,34.4863],[110.7168,34.7436],[110.5884,34.8079],[110.6662,35.001],[111.0029,35.2584],[111.1628,35.6445],[111.0618,35.7733],[111.2303,36.3528],[111.4133,36.4172],[112.1722,37.2549],[112.2013,37.3193],[113.2674,37.7707],[114.1069,38.5451],[114.0917,38.6743],[114.359,38.7389],[115.4479,39.6436],[115.8312,39.7729],[115.8997,39.9023],[116.0232,39.8376],[116.1021,39.8376],[115.8648,39.385],[116.1009,39.385],[116.0919,39.0618],[116.2618,38.9326],[116.1639,38.7389],[116.3993,38.7389],[116.1454,38.5451],[117.1971,38.6097],[116.5955,38.0288],[116.4394,37.7062],[116.2215,37.5773],[115.9611,37.1904],[115.4417,36.7393],[114.6098,36.0952],[114.3144,35.7733],[114.2809,35.5158],[114.2534,35.4514]]]}},{"type":"Feature","properties":{"name":"Chu","color":"#a8b8c8","area":353292,"polity_id":"polity_chu"},"geometry":{"type":"Polygon","coordinates":[[[113.9266,34.4863],[113.5908,34.229],[113.3874,34.4863],[113.0284,34.5506],[113.0303,34.7436],[112.617,34.4863],[112.1548,34.4863],[110.8973,34.229],[110.872,34.1647],[110.489,33.9718],[110.4912,33.7789],[110.2115,33.6502],[110.2149,33.4574],[109.7829,33.3288],[109.7109,33.1359],[109.8165,33.0073],[109.5524,32.4931],[109.6288,32.4931],[109.3125,31.5933],[109.4752,31.4005],[109.3555,31.2719],[109.4861,31.2076],[109.4763,30.9506],[109.9158,30.4364],[110.4056,30.3079],[110.2273,29.9865],[110.6618,29.9223],[111.2987,29.5366],[111.8086,29.4723],[111.9959,29.3438],[112.9037,29.3438],[113.2668,29.5366],[113.5836,30.0508],[113.9506,30.2436],[114.1127,30.5007],[116.1186,30.3722],[116.8374,30.6935],[117.0208,31.2076],[117.1096,31.6575],[118.3194,32.4288],[118.9058,32.943],[118.5746,33.0716],[118.449,33.3288],[118.118,33.4574],[118.0436,33.6502],[117.7629,33.7146],[117.7392,33.8432],[117.2311,34.1004],[116.6157,34.1004],[116.107,34.3577],[115.5947,34.422],[114.952,34.3577],[114.875,34.3577],[114.1557,34.2933],[113.9266,34.4863]]]}},{"type":"Feature","properties":{"name":"Qin","color":"#a8a8c8","area":56478,"polity_id":"polity_qin"},"geometry":{"type":"Polygon","coordinates":[[[112.0942,37.2549],[109.6546,36.4816],[108.7896,35.7089],[108.2215,35.6445],[108.1695,35.5158],[108.3497,35.3871],[108.2982,35.2584],[108.4528,35.2584],[107.9426,34.5506],[109.6896,34.4863],[110.3586,34.229],[110.8203,34.229],[110.8196,34.422],[110.6911,34.4863],[110.7168,34.7436],[110.5884,34.8079],[110.6662,35.001],[111.0029,35.2584],[111.1628,35.6445],[111.0618,35.7733],[111.2303,36.3528],[111.4133,36.4172],[112.1722,37.2549],[112.0942,37.2549]]]}},{"type":"Feature","properties":{"name":"Etruscans","color":"#b8a8c8","area":43431,"polity_id":"polity_etruscans"},"geometry":{"type":"MultiPolygon","coordinates":[[[[12.8691,43.4723],[13.0291,43.4072],[13.1811,42.8213],[13.4996,42.6912],[13.4173,42.5612],[13.2572,42.5612],[13.3311,42.1712],[13.0924,42.2362],[13.0106,42.1063],[13.329,42.0413],[13.327,41.9114],[13.5652,41.8465],[13.8056,41.9114],[14.0411,41.7167],[14.0349,41.3922],[13.8712,41.1328],[13.7145,41.2625],[13,41.3274],[12.9222,41.4571],[12.6046,41.522],[12.1305,41.9114],[12.1317,42.0413],[11.7334,42.1712],[11.6548,42.3662],[11.4945,42.3012],[11.4152,42.4312],[11.2552,42.4312],[11.176,42.6262],[11.0158,42.6262],[11.0163,42.8213],[10.5353,43.0816],[10.2934,43.7982],[11.9866,43.7982],[12.5464,43.4072],[12.8682,43.4072],[12.8691,43.4723]]],[[[10.2145,42.8864],[10.4551,42.8864],[10.4552,42.6912],[10.2148,42.6912],[10.1343,42.8864],[10.2145,42.8864]]]]}},{"type":"Feature","properties":{"name":"Spring and Autumn States","color":"#a8b8c8","area":1008534,"polity_id":"polity_springandautumnstates"},"geometry":{"type":"MultiPolygon","coordinates":[[[[119.3191,39.5143],[119.3804,39.7729],[120.5003,40.2259],[120.6473,40.4849],[121.227,40.9384],[119.3442,40.4201],[117.5675,40.3554],[116.4522,39.9023],[116.1365,39.9023],[115.8648,39.385],[116.1009,39.385],[116.0919,39.0618],[116.2618,38.9326],[116.1639,38.7389],[116.3993,38.7389],[116.1454,38.5451],[117.1971,38.6097],[117.2298,38.6743],[117.622,38.6743],[117.6757,38.9326],[117.8884,39.1911],[118.0457,39.1911],[118.0569,39.0618],[118.4498,39.0618],[118.9894,39.1911],[119.2844,39.4496],[119.3191,39.5143]]],[[[119.1307,38.0933],[118.7718,38.1578],[118.8042,38.2224],[118.6476,38.2224],[118.583,38.0933],[118.0674,38.1578],[118.0536,38.2869],[117.6025,38.4806],[117.622,38.6743],[117.2298,38.6743],[117.1971,38.6097],[116.5955,38.0288],[116.4394,37.7062],[116.2215,37.5773],[115.9611,37.1904],[115.4417,36.7393],[115.6357,36.4816],[115.5201,36.224],[115.5977,36.224],[115.8017,36.1596],[115.765,35.902],[116.0465,35.8377],[117.3531,36.1596],[119.8951,36.2884],[120.5293,36.4816],[120.7318,36.4172],[120.9648,36.4172],[120.9789,36.6105],[121.2121,36.6105],[121.9121,36.9326],[122.3939,36.8037],[122.5664,36.9971],[122.4742,37.126],[122.7129,37.4483],[122.1211,37.5128],[122.1535,37.5773],[121.4969,37.5128],[121.4833,37.6417],[121.171,37.6417],[121.112,37.8352],[120.7538,37.8998],[120.1881,37.7062],[120.2022,37.5773],[119.8266,37.4483],[119.7011,37.1904],[119.1557,37.1904],[119.14,37.3193],[118.984,37.3193],[119.2366,37.8352],[119.3928,37.8352],[119.4571,37.9643],[119.1766,38.0288],[119.2089,38.0933],[119.1307,38.0933]]],[[[115.0394,35.8377],[114.9554,35.6445],[115.2311,35.3871],[115.9898,35.7089],[116.0465,35.8377],[115.765,35.902],[115.8017,36.1596],[115.5977,36.224],[115.1169,35.8377],[115.0394,35.8377]]],[[[119.2557,34.8723],[119.6187,35.5158],[119.9865,35.6445],[120.3185,36.0308],[120.6585,36.0952],[120.7015,36.3528],[120.7318,36.4172],[120.5293,36.4816],[119.8951,36.2884],[117.3531,36.1596],[116.0465,35.8377],[115.9898,35.7089],[116.2856,35.3227],[116.6721,35.3227],[116.9603,35.4514],[117.5871,35.6445],[118.2549,35.5802],[118.3036,35.5158],[118.056,35.1297],[117.7683,35.001],[117.6355,34.8723],[117.9657,34.7436],[118.1199,34.7436],[118.2807,34.9366],[118.435,34.9366],[118.4284,34.7436],[119.2276,34.8079],[119.2557,34.8723]]],[[[114.2534,35.4514],[114.226,35.3871],[114.3033,35.3871],[114.3307,35.4514],[114.4081,35.4514],[114.8565,35.7733],[115.0114,35.7733],[115.0394,35.8377],[115.1169,35.8377],[115.5977,36.224],[115.5201,36.224],[115.6357,36.4816],[115.4417,36.7393],[114.6098,36.0952],[114.3144,35.7733],[114.2809,35.5158],[114.2534,35.4514]]],[[[116.9813,35.3227],[116.9253,35.194],[117.1785,35.0653],[117.7683,35.001],[118.056,35.1297],[118.3036,35.5158],[118.2549,35.5802],[117.5871,35.6445],[116.9603,35.4514],[116.904,35.3227],[116.9813,35.3227]]],[[[114.9554,35.6445],[115.2311,35.3871],[114.499,34.9366],[114.3759,35.194],[114.4081,35.4514],[114.8565,35.7733],[115.0114,35.7733],[114.9554,35.6445]]],[[[113.6847,35.3871],[113.5301,35.3871],[113.3414,34.9366],[113.6738,34.8079],[113.7509,34.8079],[114.4721,34.8723],[114.499,34.9366],[114.3759,35.194],[114.4081,35.4514],[114.3307,35.4514],[114.3033,35.3871],[113.762,35.3871],[113.6847,35.3871]]],[[[116.1805,35.2584],[116.0975,35.0653],[116.1969,34.9366],[116.5056,34.9366],[116.7045,34.6793],[117.1785,35.0653],[116.9253,35.194],[116.9813,35.3227],[116.904,35.3227],[116.9603,35.4514],[116.6721,35.3227],[116.2856,35.3227],[116.2578,35.2584],[116.1805,35.2584]]],[[[112.3859,34.4863],[112.617,34.4863],[113.0303,34.7436],[113.0567,34.8079],[113.1339,34.8079],[113.1604,34.8723],[113.2376,34.8723],[113.2642,34.9366],[113.3414,34.9366],[113.5301,35.3871],[112.3199,35.4514],[112.1066,34.9366],[112.1837,34.9366],[112.1548,34.4863],[112.3089,34.4863],[112.3859,34.4863]]],[[[113.5435,34.6793],[113.6206,34.6793],[113.6738,34.8079],[113.3414,34.9366],[113.2642,34.9366],[113.2376,34.8723],[113.1604,34.8723],[113.1339,34.8079],[113.0567,34.8079],[113.0303,34.7436],[113.0284,34.5506],[113.3874,34.4863],[113.44,34.615],[113.5171,34.615],[113.5435,34.6793]]],[[[113.9531,34.5506],[113.7509,34.8079],[113.6738,34.8079],[113.6206,34.6793],[113.5435,34.6793],[113.5171,34.615],[113.44,34.615],[113.3874,34.4863],[113.5908,34.229],[113.9266,34.4863],[113.9531,34.5506]]],[[[116.7271,34.5506],[117.5747,34.5506],[117.6741,34.422],[117.9657,34.7436],[117.6355,34.8723],[117.7683,35.001],[117.1785,35.0653],[116.7045,34.6793],[116.65,34.5506],[116.7271,34.5506]]],[[[114.875,34.3577],[114.1557,34.2933],[113.9266,34.4863],[113.9531,34.5506],[113.7509,34.8079],[114.4721,34.8723],[114.3412,34.7436],[114.6466,34.5506],[115.4942,34.5506],[115.5947,34.422],[114.952,34.3577],[114.875,34.3577]]],[[[114.2534,35.4514],[114.226,35.3871],[113.5301,35.3871],[112.3199,35.4514],[112.1066,34.9366],[112.1837,34.9366],[112.1548,34.4863],[110.8973,34.229],[110.8203,34.229],[110.8196,34.422],[110.6911,34.4863],[110.7168,34.7436],[110.5884,34.8079],[110.6662,35.001],[111.0029,35.2584],[111.1628,35.6445],[111.0618,35.7733],[111.2303,36.3528],[111.4133,36.4172],[112.1722,37.2549],[112.2013,37.3193],[113.2674,37.7707],[114.1069,38.5451],[114.0917,38.6743],[114.359,38.7389],[115.4479,39.6436],[115.8312,39.7729],[115.8997,39.9023],[116.0232,39.8376],[116.1021,39.8376],[115.8648,39.385],[116.1009,39.385],[116.0919,39.0618],[116.2618,38.9326],[116.1639,38.7389],[116.3993,38.7389],[116.1454,38.5451],[117.1971,38.6097],[116.5955,38.0288],[116.4394,37.7062],[116.2215,37.5773],[115.9611,37.1904],[115.4417,36.7393],[114.6098,36.0952],[114.3144,35.7733],[114.2809,35.5158],[114.2534,35.4514]]],[[[112.0942,37.2549],[109.6546,36.4816],[108.7896,35.7089],[108.2215,35.6445],[108.1695,35.5158],[108.3497,35.3871],[108.2982,35.2584],[108.4528,35.2584],[107.9426,34.5506],[109.6896,34.4863],[110.3586,34.229],[110.8203,34.229],[110.8196,34.422],[110.6911,34.4863],[110.7168,34.7436],[110.5884,34.8079],[110.6662,35.001],[111.0029,35.2584],[111.1628,35.6445],[111.0618,35.7733],[111.2303,36.3528],[111.4133,36.4172],[112.1722,37.2549],[112.0942,37.2549]]],[[[117.5747,34.5506],[116.65,34.5506],[116.7045,34.6793],[116.5056,34.9366],[116.1969,34.9366],[116.0975,35.0653],[116.1805,35.2584],[116.2578,35.2584],[116.2856,35.3227],[115.9898,35.7089],[115.2311,35.3871],[114.499,34.9366],[114.4721,34.8723],[114.3412,34.7436],[114.6466,34.5506],[115.4942,34.5506],[115.5947,34.422],[116.107,34.3577],[116.6157,34.1004],[117.2311,34.1004],[117.6198,34.2933],[117.6741,34.422],[117.5747,34.5506]]],[[[120.3418,34.3577],[119.9847,34.422],[119.7323,34.5506],[119.7113,34.6793],[119.3047,34.8079],[119.2276,34.8079],[118.4284,34.7436],[118.435,34.9366],[118.2807,34.9366],[118.1199,34.7436],[117.9657,34.7436],[117.6741,34.422],[117.6198,34.2933],[117.2311,34.1004],[117.7392,33.8432],[117.7629,33.7146],[118.0436,33.6502],[118.118,33.4574],[118.449,33.3288],[118.5746,33.0716],[118.9058,32.943],[118.3194,32.4288],[117.1096,31.6575],[117.0208,31.2076],[117.6296,31.2076],[118.1246,31.7218],[118.8555,32.236],[119.8485,32.236],[120.1049,31.9146],[120.7655,32.0431],[120.9191,31.8503],[120.9954,31.8503],[121.5806,31.7861],[121.6831,31.6575],[121.8356,31.6575],[121.987,31.8503],[121.7832,32.1074],[121.5033,32.1717],[121.4026,32.4931],[120.9192,32.6216],[120.9263,33.2002],[120.5505,33.5859],[120.4894,34.1647],[120.314,34.2933],[120.3418,34.3577]]],[[[117.9599,29.5366],[117.8842,29.5366],[117.9054,29.6009],[117.9811,29.6009],[117.9599,29.5366]]],[[[121.0467,31.7861],[121.6335,31.529],[121.5843,31.4005],[121.7366,31.4005],[121.9953,31.0791],[121.8993,30.822],[121.5192,30.822],[121.1972,30.565],[121.0453,30.565],[120.6798,30.1794],[120.8088,30.1151],[121.1047,30.3079],[121.4841,30.3079],[121.6202,30.0508],[122.0298,29.9223],[121.8203,29.5366],[121.42,29.4723],[121.3124,29.6009],[120.2424,29.7937],[119.7784,29.9865],[119.2257,29.9223],[118.3597,29.6009],[117.5269,29.6009],[117.1908,29.7294],[116.7364,29.7294],[116.27,29.9223],[116.0966,30.3079],[116.1186,30.3722],[116.8374,30.6935],[117.0208,31.2076],[117.6296,31.2076],[118.1246,31.7218],[118.8555,32.236],[119.8485,32.236],[120.1049,31.9146],[120.7655,32.0431],[120.9191,31.8503],[120.8942,31.7861],[120.9705,31.7861],[121.0467,31.7861]]],[[[113.9266,34.4863],[113.5908,34.229],[113.3874,34.4863],[113.0284,34.5506],[113.0303,34.7436],[112.617,34.4863],[112.1548,34.4863],[110.8973,34.229],[110.872,34.1647],[110.489,33.9718],[110.4912,33.7789],[110.2115,33.6502],[110.2149,33.4574],[109.7829,33.3288],[109.7109,33.1359],[109.8165,33.0073],[109.5524,32.4931],[109.6288,32.4931],[109.3125,31.5933],[109.4752,31.4005],[109.3555,31.2719],[109.4861,31.2076],[109.4763,30.9506],[109.9158,30.4364],[110.4056,30.3079],[110.2273,29.9865],[110.6618,29.9223],[111.2987,29.5366],[111.8086,29.4723],[111.9959,29.3438],[112.9037,29.3438],[113.2668,29.5366],[113.5836,30.0508],[113.9506,30.2436],[114.1127,30.5007],[116.1186,30.3722],[116.8374,30.6935],[117.0208,31.2076],[117.1096,31.6575],[118.3194,32.4288],[118.9058,32.943],[118.5746,33.0716],[118.449,33.3288],[118.118,33.4574],[118.0436,33.6502],[117.7629,33.7146],[117.7392,33.8432],[117.2311,34.1004],[116.6157,34.1004],[116.107,34.3577],[115.5947,34.422],[114.952,34.3577],[114.875,34.3577],[114.1557,34.2933],[113.9266,34.4863]]]]}},{"type":"Feature","properties":{"name":"Qi","color":"#a8a8c8","area":102632,"polity_id":"polity_qi"},"geometry":{"type":"Polygon","coordinates":[[[119.1307,38.0933],[118.7718,38.1578],[118.8042,38.2224],[118.6476,38.2224],[118.583,38.0933],[118.0674,38.1578],[118.0536,38.2869],[117.6025,38.4806],[117.622,38.6743],[117.2298,38.6743],[117.1971,38.6097],[116.5955,38.0288],[116.4394,37.7062],[116.2215,37.5773],[115.9611,37.1904],[115.4417,36.7393],[115.6357,36.4816],[115.5201,36.224],[115.5977,36.224],[115.8017,36.1596],[115.765,35.902],[116.0465,35.8377],[117.3531,36.1596],[119.8951,36.2884],[120.5293,36.4816],[120.7318,36.4172],[120.9648,36.4172],[120.9789,36.6105],[121.2121,36.6105],[121.9121,36.9326],[122.3939,36.8037],[122.5664,36.9971],[122.4742,37.126],[122.7129,37.4483],[122.1211,37.5128],[122.1535,37.5773],[121.4969,37.5128],[121.4833,37.6417],[121.171,37.6417],[121.112,37.8352],[120.7538,37.8998],[120.1881,37.7062],[120.2022,37.5773],[119.8266,37.4483],[119.7011,37.1904],[119.1557,37.1904],[119.14,37.3193],[118.984,37.3193],[119.2366,37.8352],[119.3928,37.8352],[119.4571,37.9643],[119.1766,38.0288],[119.2089,38.0933],[119.1307,38.0933]]]}},{"type":"Feature","properties":{"name":"Song","color":"#c8c8b8","area":22944,"polity_id":"polity_song"},"geometry":{"type":"Polygon","coordinates":[[[117.5747,34.5506],[116.65,34.5506],[116.7045,34.6793],[116.5056,34.9366],[116.1969,34.9366],[116.0975,35.0653],[116.1805,35.2584],[116.2578,35.2584],[116.2856,35.3227],[115.9898,35.7089],[115.2311,35.3871],[114.499,34.9366],[114.4721,34.8723],[114.3412,34.7436],[114.6466,34.5506],[115.4942,34.5506],[115.5947,34.422],[116.107,34.3577],[116.6157,34.1004],[117.2311,34.1004],[117.6198,34.2933],[117.6741,34.422],[117.5747,34.5506]]]}},{"type":"Feature","properties":{"name":"Teng","color":"#a8b8c8","area":4225,"polity_id":"polity_teng"},"geometry":{"type":"Polygon","coordinates":[[[116.1805,35.2584],[116.0975,35.0653],[116.1969,34.9366],[116.5056,34.9366],[116.7045,34.6793],[117.1785,35.0653],[116.9253,35.194],[116.9813,35.3227],[116.904,35.3227],[116.9603,35.4514],[116.6721,35.3227],[116.2856,35.3227],[116.2578,35.2584],[116.1805,35.2584]]]}},{"type":"Feature","properties":{"name":"Chen","color":"#a8c8c8","area":4972,"polity_id":"polity_chen"},"geometry":{"type":"Polygon","coordinates":[[[114.875,34.3577],[114.1557,34.2933],[113.9266,34.4863],[113.9531,34.5506],[113.7509,34.8079],[114.4721,34.8723],[114.3412,34.7436],[114.6466,34.5506],[115.4942,34.5506],[115.5947,34.422],[114.952,34.3577],[114.875,34.3577]]]}},{"type":"Feature","properties":{"name":"Wey","color":"#c8b8a8","area":6979,"polity_id":"polity_wey"},"geometry":{"type":"Polygon","coordinates":[[[114.2534,35.4514],[114.226,35.3871],[114.3033,35.3871],[114.3307,35.4514],[114.4081,35.4514],[114.8565,35.7733],[115.0114,35.7733],[115.0394,35.8377],[115.1169,35.8377],[115.5977,36.224],[115.5201,36.224],[115.6357,36.4816],[115.4417,36.7393],[114.6098,36.0952],[114.3144,35.7733],[114.2809,35.5158],[114.2534,35.4514]]]}},{"type":"Feature","properties":{"name":"Cao","color":"#c8a8a8","area":3840,"polity_id":"polity_cao"},"geometry":{"type":"Polygon","coordinates":[[[114.9554,35.6445],[115.2311,35.3871],[114.499,34.9366],[114.3759,35.194],[114.4081,35.4514],[114.8565,35.7733],[115.0114,35.7733],[114.9554,35.6445]]]}},{"type":"Feature","properties":{"name":"Lu","color":"#c8c8a8","area":43470,"polity_id":"polity_lu"},"geometry":{"type":"MultiPolygon","coordinates":[[[[115.0394,35.8377],[114.9554,35.6445],[115.2311,35.3871],[115.9898,35.7089],[116.0465,35.8377],[115.765,35.902],[115.8017,36.1596],[115.5977,36.224],[115.1169,35.8377],[115.0394,35.8377]]],[[[119.2557,34.8723],[119.6187,35.5158],[119.9865,35.6445],[120.3185,36.0308],[120.6585,36.0952],[120.7015,36.3528],[120.7318,36.4172],[120.5293,36.4816],[119.8951,36.2884],[117.3531,36.1596],[116.0465,35.8377],[115.9898,35.7089],[116.2856,35.3227],[116.6721,35.3227],[116.9603,35.4514],[117.5871,35.6445],[118.2549,35.5802],[118.3036,35.5158],[118.056,35.1297],[117.7683,35.001],[117.6355,34.8723],[117.9657,34.7436],[118.1199,34.7436],[118.2807,34.9366],[118.435,34.9366],[118.4284,34.7436],[119.2276,34.8079],[119.2557,34.8723]]]]}},{"type":"Feature","properties":{"name":"Zheng","color":"#a8b8c8","area":5553,"polity_id":"polity_zheng"},"geometry":{"type":"Polygon","coordinates":[[[113.6847,35.3871],[113.5301,35.3871],[113.3414,34.9366],[113.6738,34.8079],[113.7509,34.8079],[114.4721,34.8723],[114.499,34.9366],[114.3759,35.194],[114.4081,35.4514],[114.3307,35.4514],[114.3033,35.3871],[113.762,35.3871],[113.6847,35.3871]]]}},{"type":"Feature","properties":{"name":"Cai","color":"#c8b8a8","area":3733,"polity_id":"polity_cai"},"geometry":{"type":"MultiPolygon","coordinates":[[[[113.5435,34.6793],[113.6206,34.6793],[113.6738,34.8079],[113.3414,34.9366],[113.2642,34.9366],[113.2376,34.8723],[113.1604,34.8723],[113.1339,34.8079],[113.0567,34.8079],[113.0303,34.7436],[113.0284,34.5506],[113.3874,34.4863],[113.44,34.615],[113.5171,34.615],[113.5435,34.6793]]],[[[113.9531,34.5506],[113.7509,34.8079],[113.6738,34.8079],[113.6206,34.6793],[113.5435,34.6793],[113.5171,34.615],[113.44,34.615],[113.3874,34.4863],[113.5908,34.229],[113.9266,34.4863],[113.9531,34.5506]]]]}},{"type":"Feature","properties":{"name":"Zhu","color":"#c8a8b8","area":6449,"polity_id":"polity_zhu"},"geometry":{"type":"Polygon","coordinates":[[[116.9813,35.3227],[116.9253,35.194],[117.1785,35.0653],[117.7683,35.001],[118.056,35.1297],[118.3036,35.5158],[118.2549,35.5802],[117.5871,35.6445],[116.9603,35.4514],[116.904,35.3227],[116.9813,35.3227]]]}},{"type":"Feature","properties":{"name":"Yan","color":"#a8a8c8","area":49599,"polity_id":"polity_yan"},"geometry":{"type":"Polygon","coordinates":[[[119.3191,39.5143],[119.3804,39.7729],[120.5003,40.2259],[120.6473,40.4849],[121.227,40.9384],[119.3442,40.4201],[117.5675,40.3554],[116.4522,39.9023],[116.1365,39.9023],[115.8648,39.385],[116.1009,39.385],[116.0919,39.0618],[116.2618,38.9326],[116.1639,38.7389],[116.3993,38.7389],[116.1454,38.5451],[117.1971,38.6097],[117.2298,38.6743],[117.622,38.6743],[117.6757,38.9326],[117.8884,39.1911],[118.0457,39.1911],[118.0569,39.0618],[118.4498,39.0618],[118.9894,39.1911],[119.2844,39.4496],[119.3191,39.5143]]]}},{"type":"Feature","properties":{"name":"Later Zhou","color":"#a8a8c8","area":9656,"polity_id":"polity_laterzhou"},"geometry":{"type":"Polygon","coordinates":[[[112.3859,34.4863],[112.617,34.4863],[113.0303,34.7436],[113.0567,34.8079],[113.1339,34.8079],[113.1604,34.8723],[113.2376,34.8723],[113.2642,34.9366],[113.3414,34.9366],[113.5301,35.3871],[112.3199,35.4514],[112.1066,34.9366],[112.1837,34.9366],[112.1548,34.4863],[112.3089,34.4863],[112.3859,34.4863]]]}},{"type":"Feature","properties":{"name":"Xu","color":"#c8a8a8","area":4786,"polity_id":"polity_xu"},"geometry":{"type":"Polygon","coordinates":[[[116.7271,34.5506],[117.5747,34.5506],[117.6741,34.422],[117.9657,34.7436],[117.6355,34.8723],[117.7683,35.001],[117.1785,35.0653],[116.7045,34.6793],[116.65,34.5506],[116.7271,34.5506]]]}},{"type":"Feature","properties":{"name":"Wu","color":"#b8a8c8","area":193430,"polity_id":"polity_wu"},"geometry":{"type":"MultiPolygon","coordinates":[[[[120.3418,34.3577],[119.9847,34.422],[119.7323,34.5506],[119.7113,34.6793],[119.3047,34.8079],[119.2276,34.8079],[118.4284,34.7436],[118.435,34.9366],[118.2807,34.9366],[118.1199,34.7436],[117.9657,34.7436],[117.6741,34.422],[117.6198,34.2933],[117.2311,34.1004],[117.7392,33.8432],[117.7629,33.7146],[118.0436,33.6502],[118.118,33.4574],[118.449,33.3288],[118.5746,33.0716],[118.9058,32.943],[118.3194,32.4288],[117.1096,31.6575],[117.0208,31.2076],[117.6296,31.2076],[118.1246,31.7218],[118.8555,32.236],[119.8485,32.236],[120.1049,31.9146],[120.7655,32.0431],[120.9191,31.8503],[120.9954,31.8503],[121.5806,31.7861],[121.6831,31.6575],[121.8356,31.6575],[121.987,31.8503],[121.7832,32.1074],[121.5033,32.1717],[121.4026,32.4931],[120.9192,32.6216],[120.9263,33.2002],[120.5505,33.5859],[120.4894,34.1647],[120.314,34.2933],[120.3418,34.3577]]],[[[117.9599,29.5366],[117.8842,29.5366],[117.9054,29.6009],[117.9811,29.6009],[117.9599,29.5366]]],[[[121.0467,31.7861],[121.6335,31.529],[121.5843,31.4005],[121.7366,31.4005],[121.9953,31.0791],[121.8993,30.822],[121.5192,30.822],[121.1972,30.565],[121.0453,30.565],[120.6798,30.1794],[120.8088,30.1151],[121.1047,30.3079],[121.4841,30.3079],[121.6202,30.0508],[122.0298,29.9223],[121.8203,29.5366],[121.42,29.4723],[121.3124,29.6009],[120.2424,29.7937],[119.7784,29.9865],[119.2257,29.9223],[118.3597,29.6009],[117.5269,29.6009],[117.1908,29.7294],[116.7364,29.7294],[116.27,29.9223],[116.0966,30.3079],[116.1186,30.3722],[116.8374,30.6935],[117.0208,31.2076],[117.6296,31.2076],[118.1246,31.7218],[118.8555,32.236],[119.8485,32.236],[120.1049,31.9146],[120.7655,32.0431],[120.9191,31.8503],[120.8942,31.7861],[120.9705,31.7861],[121.0467,31.7861]]]]}},{"type":"Feature","properties":{"name":"Elam","label":1,"area":59564,"color":"#b0a8d8"},"geometry":{"type":"Point","coordinates":[49.061332258064525,31.483412903225812]}},{"type":"Feature","properties":{"name":"Phoenicia","label":1,"area":28407,"color":"#7fb8c8"},"geometry":{"type":"Point","coordinates":[16.93661509433963,35.575945283018875]}},{"type":"Feature","properties":{"name":"Philistia","label":1,"area":3139,"color":"#c88ca0"},"geometry":{"type":"Point","coordinates":[34.74316153846154,31.90967692307693]}},{"type":"Feature","properties":{"name":"Kingdom of Israel","label":1,"area":13390,"color":"#a0a85a"},"geometry":{"type":"Point","coordinates":[35.56864399999999,32.472536]}},{"type":"Feature","properties":{"name":"Kingdom of Kush","label":1,"area":336731,"color":"#a08ad8"},"geometry":{"type":"Point","coordinates":[32.84754,19.463924]}},{"type":"Feature","properties":{"name":"Kingdom of Judah","label":1,"area":4404,"color":"#c9a227"},"geometry":{"type":"Point","coordinates":[35.2197,31.601300000000002]}},{"type":"Feature","properties":{"name":"Neo-Assyrian Empire","label":1,"area":516130,"color":"#c8a06a"},"geometry":{"type":"Point","coordinates":[40.11487936507938,35.87886507936508]}},{"type":"Feature","properties":{"name":"Phrygia","label":1,"area":78628,"color":"#a8a8c8"},"geometry":{"type":"Point","coordinates":[32.65607894736842,40.20309649122808]}},{"type":"Feature","properties":{"name":"Kingdom of Urartu","label":1,"area":161552,"color":"#c8a8a8"},"geometry":{"type":"Point","coordinates":[42.29302987012987,39.28688311688312]}},{"type":"Feature","properties":{"name":"Sabaeans","label":1,"area":14931,"color":"#a8a8c8"},"geometry":{"type":"Point","coordinates":[44.76218181818182,15.527672727272726]}},{"type":"Feature","properties":{"name":"Greek City-States","label":1,"area":61397,"color":"#b8c8a8"},"geometry":{"type":"Point","coordinates":[24.634246153846153,37.6429876923077]}},{"type":"Feature","properties":{"name":"Twenty-third Dynasty of Egypt","label":1,"area":61633,"color":"#c8b8a8"},"geometry":{"type":"Point","coordinates":[31.043717307692308,30.475938461538455]}},{"type":"Feature","properties":{"name":"Twenty-second Dynasty of Egypt","label":1,"area":166128,"color":"#b8a8c8"},"geometry":{"type":"Point","coordinates":[30.3914511627907,26.821599999999993]}},{"type":"Feature","properties":{"name":"Jin","label":1,"area":136495,"color":"#c8b8a8"},"geometry":{"type":"Point","coordinates":[113.81385434782612,36.972217391304355]}},{"type":"Feature","properties":{"name":"Chu","label":1,"area":353292,"color":"#a8b8c8"},"geometry":{"type":"Point","coordinates":[113.28091666666666,32.493359259259265]}},{"type":"Feature","properties":{"name":"Qin","label":1,"area":56478,"color":"#a8a8c8"},"geometry":{"type":"Point","coordinates":[110.10289565217393,35.398539130434784]}},{"type":"Feature","properties":{"name":"Etruscans","label":1,"area":43431,"color":"#b8a8c8"},"geometry":{"type":"Point","coordinates":[12.290750000000003,42.42027000000001]}},{"type":"Feature","properties":{"name":"Spring and Autumn States","label":1,"area":1008534,"color":"#a8b8c8"},"geometry":{"type":"Point","coordinates":[116.13235560344827,34.9094443965517]}},{"type":"Feature","properties":{"name":"Qi","label":1,"area":102632,"color":"#a8a8c8"},"geometry":{"type":"Point","coordinates":[119.10229245283023,37.38048490566037]}},{"type":"Feature","properties":{"name":"Song","label":1,"area":22944,"color":"#c8c8b8"},"geometry":{"type":"Point","coordinates":[116.08952272727274,34.7729090909091]}},{"type":"Feature","properties":{"name":"Teng","label":1,"area":4225,"color":"#a8b8c8"},"geometry":{"type":"Point","coordinates":[116.60383846153846,35.16431538461538]}},{"type":"Feature","properties":{"name":"Chen","label":1,"area":4972,"color":"#a8c8c8"},"geometry":{"type":"Point","coordinates":[114.5601909090909,34.544781818181825]}},{"type":"Feature","properties":{"name":"Wey","label":1,"area":6979,"color":"#c8b8a8"},"geometry":{"type":"Point","coordinates":[114.809125,35.837725]}},{"type":"Feature","properties":{"name":"Cao","label":1,"area":3840,"color":"#c8a8a8"},"geometry":{"type":"Point","coordinates":[114.76248571428572,35.451457142857144]}},{"type":"Feature","properties":{"name":"Lu","label":1,"area":43470,"color":"#c8c8a8"},"geometry":{"type":"Point","coordinates":[117.73914444444446,35.57489444444444]}},{"type":"Feature","properties":{"name":"Zheng","label":1,"area":5553,"color":"#a8b8c8"},"geometry":{"type":"Point","coordinates":[114.01100000000001,35.16720833333333]}},{"type":"Feature","properties":{"name":"Cai","label":1,"area":3733,"color":"#c8b8a8"},"geometry":{"type":"Point","coordinates":[113.45162916666668,34.681966666666675]}},{"type":"Feature","properties":{"name":"Zhu","label":1,"area":6449,"color":"#c8a8b8"},"geometry":{"type":"Point","coordinates":[117.49193,35.32272999999999]}},{"type":"Feature","properties":{"name":"Yan","label":1,"area":49599,"color":"#a8a8c8"},"geometry":{"type":"Point","coordinates":[117.84775769230767,39.39773846153847]}},{"type":"Feature","properties":{"name":"Later Zhou","label":1,"area":9656,"color":"#a8a8c8"},"geometry":{"type":"Point","coordinates":[112.78876000000001,34.84227333333333]}},{"type":"Feature","properties":{"name":"Xu","label":1,"area":4786,"color":"#c8a8a8"},"geometry":{"type":"Point","coordinates":[117.31982222222223,34.71503333333333]}},{"type":"Feature","properties":{"name":"Wu","label":1,"area":193430,"color":"#b8a8c8"},"geometry":{"type":"Point","coordinates":[119.55749540229888,31.906694252873553]}}]}