{"type":"FeatureCollection","features":[{"type":"Feature","properties":{"name":"Phoenicia","color":"#7fb8c8","area":23742,"polity_id":"polity_phoenicia"},"geometry":{"type":"MultiPolygon","coordinates":[[[[13.2252,32.943],[13.4537,32.8145],[13.7605,32.8788],[13.7591,32.7502],[14.0652,32.7502],[14.4444,32.4931],[14.6747,32.5574],[14.9013,32.3645],[14.5166,32.1717],[14.4427,32.3645],[13.7577,32.6216],[12.9164,32.6216],[12.8418,32.8788],[13.1486,32.943],[13.2252,32.943]]],[[[-7.2791,33.7789],[-6.9851,33.9718],[-6.9674,33.7146],[-6.805,33.5859],[-7.3335,33.4574],[-7.4735,33.2645],[-7.8752,33.5217],[-7.3559,33.7789],[-7.2791,33.7789]]],[[[33.3692,34.7436],[33.5234,34.7436],[33.8557,35.001],[34.0873,35.001],[34.0995,35.1297],[33.9511,35.194],[33.9571,35.2584],[33.8086,35.3227],[33.4698,35.001],[33.2382,35.001],[33.292,34.7436],[33.3692,34.7436]]],[[[14.5712,35.9664],[14.5682,35.7733],[14.4133,35.7733],[14.3396,36.0308],[14.4937,35.9664],[14.5712,35.9664]]],[[[-5.1595,36.6105],[-4.5551,36.8682],[-3.8507,36.8037],[-4.4686,36.7393],[-4.6888,36.546],[-5.2282,36.4816],[-5.2879,36.224],[-5.5162,36.1596],[-5.5848,36.0308],[-5.8311,36.224],[-6.0638,36.224],[-6.2475,36.6105],[-5.9179,36.3528],[-5.4521,36.3528],[-5.2372,36.6105],[-5.1595,36.6105]]],[[[7.7383,36.8682],[7.9709,36.9326],[7.8188,36.6749],[7.5874,36.546],[7.3513,36.7393],[7.2694,36.9971],[7.502,37.0615],[7.7374,36.9326],[7.7383,36.8682]]],[[[12.6498,38.0933],[12.8063,38.0933],[12.8051,37.9643],[12.5701,37.8998],[12.6493,38.0288],[12.6498,38.0933]]],[[[13.6661,38.0288],[13.0397,37.9643],[13.1199,38.1578],[13.5879,38.0288],[13.6661,38.0288]]],[[[1.5732,39.1265],[1.6575,38.9972],[1.4305,38.8034],[1.1921,38.868],[1.2587,39.1265],[1.4946,39.1265],[1.5732,39.1265]]],[[[8.6379,40.2259],[8.7259,39.3203],[8.8833,39.3203],[8.9608,39.4496],[9.3554,39.3203],[9.3563,39.1911],[9.0423,39.1265],[8.9659,38.868],[8.3362,38.9972],[8.4118,39.2557],[8.3332,39.2557],[8.3301,39.5143],[8.4089,39.5143],[8.4834,39.9023],[8.324,40.0317],[8.403,40.0317],[8.4,40.2906],[8.5589,40.2259],[8.6379,40.2259]]]]}},{"type":"Feature","properties":{"name":"Kingdom of Kush","color":"#a08ad8","area":336379,"polity_id":"polity_kingdomofkush"},"geometry":{"type":"Polygon","coordinates":[[[33.8404,22.1434],[33.8832,23.172],[33.8087,23.172],[33.8225,23.4934],[33.679,23.622],[33.6818,23.6863],[33.389,23.8149],[32.0409,23.6863],[31.6705,23.7506],[30.5372,23.3649],[30.5349,23.3006],[30.742,22.8506],[30.7214,22.272],[30.5615,21.9505],[30.6358,21.9505],[30.6879,21.3077],[30.7621,21.3077],[30.7442,20.7934],[30.8184,20.7934],[30.8026,20.3434],[30.8768,20.3434],[31.147,17.6433],[31.2208,17.6433],[31.337,16.8076],[31.4771,16.6147],[31.3939,16.3576],[31.5364,16.229],[31.527,15.9718],[31.7337,15.5861],[32.0944,15.3933],[32.5334,15.329],[32.5286,15.2004],[33.8621,15.4575],[34.0981,15.8433],[34.6843,15.779],[34.5556,16.229],[34.7137,16.4861],[35.6713,16.4861],[36.0539,16.8076],[36.0033,17.3219],[35.5013,17.6433],[35.2998,18.0933],[34.939,18.2862],[34.8792,18.6076],[34.5974,18.9291],[34.4687,19.3791],[34.2575,19.6362],[33.8196,21.6291],[33.7453,21.6291],[33.8352,22.0148],[33.7635,22.0791],[33.8378,22.0791],[33.8404,22.1434]]]}},{"type":"Feature","properties":{"name":"Kingdom of Urartu","color":"#c8a8a8","area":154709,"polity_id":"polity_kingdomofurartu"},"geometry":{"type":"Polygon","coordinates":[[[44.9584,40.4201],[44.9256,40.6792],[44.0653,40.744],[44.1907,41.0032],[44.0435,41.068],[44.0667,41.1977],[43.204,41.2625],[43.1019,41.1328],[42.8636,41.1328],[42.7508,40.9384],[42.5921,40.9384],[42.4664,41.1328],[41.9104,41.1328],[41.7879,40.8736],[41.5606,40.9384],[40.9328,40.4849],[40.7846,40.5496],[40.586,40.2906],[40.1214,40.3554],[39.7662,40.0964],[38.9253,40.2906],[38.2834,40.2259],[37.5989,39.2557],[37.4331,39.1911],[37.4163,39.0618],[37.4949,39.0618],[37.3832,38.8034],[37.3047,38.8034],[37.2802,38.6097],[37.5776,38.4806],[37.8422,38.0933],[38.0688,38.0288],[38.3116,38.0933],[38.423,38.3515],[38.658,38.3515],[38.8677,38.1578],[39.1807,38.1578],[39.4762,38.6097],[40.0162,38.5451],[40.1126,38.6743],[40.7494,38.7389],[40.8465,38.868],[41.3867,38.8034],[41.4842,38.9326],[41.7198,38.9326],[41.7696,38.7389],[42.005,38.7389],[42.6823,39.0618],[42.8981,38.9326],[43.2224,38.9972],[43.2807,38.868],[44.4545,38.3515],[45.1124,38.5451],[45.6364,38.868],[46.1185,38.9326],[46.1295,38.9972],[46.0954,39.2557],[45.7578,39.5789],[45.961,39.8376],[45.5333,40.0964],[45.1156,39.967],[45.0936,40.2906],[44.9469,40.3554],[44.9584,40.4201]]]}},{"type":"Feature","properties":{"name":"Sabaeans","color":"#a8a8c8","area":55243,"polity_id":"polity_sabaeans"},"geometry":{"type":"MultiPolygon","coordinates":[[[[45.9179,15.329],[45.8444,15.329],[45.8479,15.3933],[45.9215,15.3933],[45.9179,15.329]]],[[[44.195,16.1004],[44.0477,16.1004],[43.9112,16.2933],[44.0029,16.6147],[43.8738,16.9362],[43.8922,17.2576],[43.8184,17.2576],[43.8996,17.3862],[43.5529,17.7719],[43.2503,17.6433],[43.0326,17.7076],[43.0216,17.5148],[42.6348,17.1933],[42.4873,17.1933],[42.4767,17.0005],[42.824,16.6147],[42.692,15.5218],[42.7656,15.5218],[42.8161,15.0718],[45.025,15.1361],[45.179,15.2647],[45.3225,15.2004],[45.4031,15.329],[45.8479,15.3933],[45.8551,15.5218],[46.1494,15.5218],[46.3811,15.7147],[46.4697,15.9718],[46.3961,15.9718],[45.579,15.8433],[45.3656,15.9718],[45.0675,15.9076],[44.9275,16.0361],[44.3279,15.8433],[44.1878,15.9718],[44.2686,16.1004],[44.195,16.1004]]]]}},{"type":"Feature","properties":{"name":"Greek City-States","color":"#b8c8a8","area":167305,"polity_id":"polity_greekcitystates"},"geometry":{"type":"MultiPolygon","coordinates":[[[[22.0741,32.1074],[20.5405,31.9146],[20.4448,31.3362],[20.5209,31.3362],[20.5843,30.9506],[20.1281,30.9506],[20.2143,31.2719],[19.9961,31.5933],[20.0891,32.1074],[20.017,32.236],[20.2461,32.236],[20.3313,32.4931],[20.482,32.4288],[20.563,32.5574],[20.7159,32.5574],[20.6441,32.6859],[20.8712,32.6216],[21.108,32.8145],[21.4117,32.7502],[21.5698,32.8788],[22.1085,32.943],[23.0894,32.6216],[23.0808,32.4288],[23.2308,32.3645],[23.0666,32.1074],[22.1504,32.1074],[22.0741,32.1074]]],[[[23.1134,36.2884],[23.1068,36.1596],[22.874,36.1596],[22.8872,36.4172],[23.1168,36.3528],[23.1134,36.2884]]],[[[24.3535,37.5773],[24.2716,37.5128],[24.2013,37.6417],[24.4395,37.7062],[24.4316,37.5773],[24.3535,37.5773]]],[[[20.931,37.8352],[20.9221,37.6417],[20.6127,37.7062],[20.6213,37.8998],[20.934,37.8998],[20.931,37.8352]]],[[[24.9205,37.8998],[25.0727,37.8352],[24.9862,37.7062],[24.6819,37.8352],[24.6942,38.0288],[24.9247,37.9643],[24.9205,37.8998]]],[[[14.4482,38.0288],[14.5253,37.9643],[14.3659,37.7707],[14.0534,37.7707],[13.8989,37.8998],[14.0571,38.0288],[14.37,38.0288],[14.4482,38.0288]]],[[[13.8147,37.4483],[14.7442,37.0615],[14.9778,37.0615],[14.7542,37.6417],[15.1521,38.0288],[15.1547,38.1578],[15.4705,38.2869],[15.8621,38.2869],[15.9497,38.6743],[16.2652,38.7389],[16.2686,38.868],[16.6649,38.9972],[16.8277,39.1911],[17.1423,39.1911],[17.0577,38.9972],[16.5024,38.8034],[16.4919,38.416],[15.9328,37.9643],[15.6982,37.9643],[15.6243,38.1578],[15.3895,38.1578],[15.0665,37.6417],[15.0592,37.2549],[15.2139,37.1904],[15.0498,36.7393],[14.661,36.7393],[14.2779,37.126],[13.5784,37.2549],[13.192,37.5773],[12.4905,37.7062],[12.4914,37.8352],[12.9603,37.8352],[13.2708,37.6417],[13.8156,37.5128],[13.8147,37.4483]]],[[[20.7954,38.2869],[20.7865,38.0933],[20.3199,38.1578],[20.3285,38.3515],[20.4881,38.416],[20.6448,38.416],[20.7171,38.2869],[20.7954,38.2869]]],[[[22.9393,38.8034],[23.3126,38.4806],[23.6261,38.4806],[23.5634,38.7389],[24.0302,38.6743],[24.1789,38.5451],[24.1587,38.2224],[24.0021,38.2224],[23.9786,37.8352],[23.4428,38.0288],[23.2082,38.0288],[23.2008,37.8998],[23.0445,37.8998],[23.1083,37.6417],[23.3425,37.6417],[23.4024,37.3193],[23.1685,37.3193],[23.1756,37.4483],[22.9486,37.5773],[22.7144,37.5773],[22.7007,37.3193],[22.8532,37.2549],[23.056,36.6749],[22.8328,36.8682],[22.5994,36.8682],[22.5118,36.6749],[22.3563,36.6749],[22.22,37.0615],[21.9085,37.0615],[21.8992,36.8682],[21.7435,36.8682],[21.681,37.1904],[21.6031,37.1904],[21.6966,37.5128],[21.2436,37.8352],[21.4156,38.1578],[21.7286,38.1578],[21.7384,38.3515],[21.1933,38.416],[20.9737,38.7389],[20.7414,38.8034],[20.7475,38.9326],[21.1403,38.9326],[21.1467,39.0618],[20.9896,39.0618],[21.0779,39.2557],[21.6355,39.385],[21.8646,39.2557],[21.9292,38.9972],[22.1685,39.0618],[22.1793,39.2557],[22.5877,39.5143],[22.5397,40.0317],[22.6977,40.0317],[22.6109,39.9023],[23.1352,39.4496],[22.8163,39.385],[22.7973,39.0618],[22.9583,39.1265],[23.4928,38.868],[22.9431,38.868],[22.9393,38.8034]],[[22.4399,38.2869],[22.4329,38.1578],[22.5895,38.1578],[22.6572,37.9643],[22.9699,37.9643],[22.9061,38.2224],[22.746,38.1578],[22.8351,38.3515],[22.5147,38.2224],[22.6036,38.416],[22.2902,38.416],[22.3616,38.2869],[22.4399,38.2869]]],[[[23.5673,38.8034],[23.5634,38.7389],[23.4849,38.7389],[23.4888,38.8034],[23.5673,38.8034]]],[[[24.6749,38.9326],[24.662,38.7389],[24.3565,38.868],[24.365,38.9972],[24.5964,38.9326],[24.6749,38.9326]]],[[[19.8366,39.6436],[19.7637,39.7729],[19.9214,39.7729],[19.9125,39.5789],[19.8337,39.5789],[19.8366,39.6436]]],[[[16.2162,39.8376],[16.3062,40.2259],[16.8765,40.744],[17.5083,40.6792],[17.5036,40.5496],[17.9812,40.6144],[18.4381,40.1612],[18.3489,39.9023],[18.1122,39.9023],[17.8131,40.3554],[17.4175,40.3554],[17.3452,40.5496],[17.0285,40.5496],[16.868,40.4849],[16.945,40.4201],[16.8617,40.2906],[16.6245,40.2906],[16.6975,40.0964],[16.4567,39.967],[16.451,39.7729],[16.2951,39.8376],[16.2162,39.8376]]],[[[15.7444,39.9023],[15.6671,39.967],[15.7478,40.0317],[15.4319,40.0317],[14.9638,40.2906],[14.8934,40.6792],[14.4179,40.6792],[14.4219,40.8736],[14.1046,40.8736],[14.0276,41.0032],[15.0564,40.8736],[15.3607,40.3554],[15.5206,40.4201],[15.5947,40.2259],[15.8319,40.2259],[15.904,39.967],[15.7428,39.8376],[15.7444,39.9023]]],[[[15.4431,40.4849],[15.3639,40.4849],[15.3656,40.5496],[15.4447,40.5496],[15.4431,40.4849]]],[[[15.3656,40.5496],[15.2864,40.5496],[15.288,40.6144],[15.3672,40.6144],[15.3656,40.5496]]],[[[24.8033,40.744],[24.7096,40.5496],[24.4768,40.6144],[24.491,40.8088],[24.8081,40.8088],[24.8033,40.744]]],[[[23.2673,40.2906],[23.2008,40.4849],[23.28,40.4849],[23.3852,40.8736],[24.5198,41.1977],[25.1454,41.068],[24.8973,40.9384],[24.3466,41.0032],[24.0106,40.744],[23.698,40.8088],[23.6846,40.6144],[23.8386,40.5496],[23.7374,40.2259],[23.3463,40.2906],[23.2673,40.2906]]],[[[19.5139,41.1977],[19.4407,41.3274],[19.6856,41.4571],[19.8253,41.068],[19.5871,41.068],[19.4222,40.9384],[19.4314,41.1328],[19.5108,41.1328],[19.5139,41.1977]]],[[[5.0631,43.4723],[4.9784,43.6027],[5.3811,43.6027],[5.5515,43.2769],[5.3908,43.2769],[5.3869,43.4072],[5.0651,43.4072],[5.0631,43.4723]]],[[[34.5294,35.5802],[34.0344,35.2584],[33.9571,35.2584],[33.8086,35.3227],[33.4698,35.001],[33.2382,35.001],[33.292,34.7436],[33.2863,34.6793],[32.8894,34.5506],[32.7466,34.6793],[32.3667,34.7436],[32.229,34.9366],[32.2458,35.1297],[32.5547,35.1297],[32.8752,35.2584],[32.8869,35.3871],[33.7374,35.3871],[34.3098,35.7089],[34.5357,35.6445],[34.5294,35.5802]]],[[[24.2202,35.2584],[23.6792,35.2584],[23.6154,35.5158],[24.1569,35.5158],[24.1499,35.3871],[24.301,35.3227],[25.6923,35.3227],[25.6806,35.1297],[26.2253,35.194],[26.1401,35.0653],[24.8237,35.001],[24.7574,35.194],[24.2974,35.2584],[24.2202,35.2584]]],[[[28.2358,36.2884],[28.1393,36.0308],[27.9843,36.0308],[27.8975,35.902],[27.6696,35.9664],[27.6925,36.2884],[27.8571,36.4172],[28.2502,36.4816],[28.2406,36.3528],[28.2358,36.2884]]],[[[33.2867,36.3528],[33.8365,36.4172],[33.9015,36.2884],[33.8238,36.2884],[32.7134,36.0308],[32.4867,36.0952],[32.588,36.3528],[32.7493,36.4172],[33.2091,36.3528],[33.2867,36.3528]]],[[[30.2805,36.6105],[30.5246,36.7393],[30.4919,36.3528],[30.1038,36.3528],[30.2751,36.546],[30.2805,36.6105]]],[[[27.1076,36.8037],[27.0208,36.6749],[26.8653,36.6749],[27.0389,36.9326],[27.1946,36.9326],[27.1854,36.8037],[27.1076,36.8037]]],[[[25.5644,36.9971],[25.3308,36.9971],[25.339,37.126],[25.5685,37.0615],[25.5644,36.9971]]],[[[26.2268,37.5773],[25.9882,37.5128],[26.0796,37.7062],[26.3139,37.7062],[26.3049,37.5773],[26.2268,37.5773]]],[[[25.2902,37.5773],[25.0519,37.5128],[24.9862,37.7062],[25.2944,37.6417],[25.2902,37.5773]]],[[[27.4805,37.6417],[27.8511,37.3838],[28.2411,37.3838],[28.5127,36.8682],[28.4349,36.8682],[28.0314,36.6749],[28.1383,37.0615],[28.0653,37.126],[27.598,37.126],[27.5392,37.3838],[27.2225,37.3193],[27.31,37.4483],[27.1634,37.5773],[27.2559,37.7707],[27.1777,37.7707],[27.2753,38.0288],[26.889,38.0933],[26.8203,38.2224],[26.4289,38.2224],[26.3837,38.6743],[26.5358,38.6097],[26.595,38.3515],[27.065,38.3515],[27.0798,38.5451],[26.8495,38.6097],[26.9579,38.9972],[26.8158,39.1911],[26.8209,39.2557],[26.9098,39.385],[27.3034,39.385],[27.445,39.1911],[27.3456,38.9326],[27.1048,38.868],[27.0113,38.6743],[27.1632,38.6097],[27.1433,38.3515],[27.4853,37.7062],[27.4805,37.6417]]],[[[26.1389,38.5451],[26.2173,38.5451],[26.1941,38.2224],[25.8764,38.1578],[25.8299,38.6097],[26.1436,38.6097],[26.1389,38.5451]]],[[[26.3538,39.3203],[26.5849,39.2557],[26.6436,38.9972],[26.2459,38.9326],[26.0936,38.9972],[26.1032,39.1265],[25.7934,39.1911],[26.0439,39.385],[26.3588,39.385],[26.3538,39.3203]]],[[[25.457,39.967],[25.4473,39.8376],[24.9739,39.8376],[25.067,40.0317],[25.4619,40.0317],[25.457,39.967]]],[[[27.0147,39.7083],[27.1618,39.5789],[26.8414,39.5143],[26.8466,39.5789],[26.1325,39.5143],[26.2723,40.2906],[26.6047,40.4849],[26.6839,40.4849],[26.6731,40.3554],[27.4698,40.4201],[27.4642,40.3554],[27.3739,40.2259],[26.6571,40.1612],[26.7045,39.7729],[27.02,39.7729],[27.0147,39.7083]]],[[[26.03,40.2259],[25.9408,40.0964],[25.7038,40.0964],[25.7188,40.2906],[26.0351,40.2906],[26.03,40.2259]]],[[[26.7685,40.5496],[27.0116,40.6144],[26.9214,40.4849],[26.8477,40.5496],[26.7685,40.5496]]],[[[39.2098,41.1328],[39.7355,40.9384],[40.3703,40.9384],[40.4703,41.068],[40.6084,40.9384],[40.5674,40.6792],[39.8642,40.744],[39.6858,40.6144],[39.3191,40.8088],[38.8241,40.6792],[37.8732,40.6792],[37.1262,41.0032],[36.879,40.9384],[36.8971,41.068],[36.4386,41.1977],[36.7748,41.3274],[37.0651,41.1328],[37.2332,41.1977],[37.2147,41.068],[37.7706,41.068],[37.8312,40.9384],[38.1581,41.0032],[38.2977,40.8736],[38.7834,40.9384],[39.1303,41.1328],[39.2098,41.1328]]],[[[28.4071,41.1328],[27.9185,41.0032],[28.1872,41.3274],[28.1387,41.6518],[28.2917,41.5869],[28.3525,41.3922],[28.9759,41.2625],[28.9631,41.1328],[29.3668,41.1977],[29.255,40.8736],[29.1028,40.9384],[29.1156,41.068],[28.4009,41.068],[28.4071,41.1328]]],[[[34.7932,41.9764],[35.1212,42.0413],[35.086,41.7816],[34.7845,41.9114],[34.7932,41.9764]]]]}},{"type":"Feature","properties":{"name":"Jin","color":"#c8b8a8","area":136495,"polity_id":"polity_jin"},"geometry":{"type":"Polygon","coordinates":[[[114.2534,35.4514],[114.226,35.3871],[113.5301,35.3871],[112.3199,35.4514],[112.1066,34.9366],[112.1837,34.9366],[112.1548,34.4863],[110.8973,34.229],[110.8203,34.229],[110.8196,34.422],[110.6911,34.4863],[110.7168,34.7436],[110.5884,34.8079],[110.6662,35.001],[111.0029,35.2584],[111.1628,35.6445],[111.0618,35.7733],[111.2303,36.3528],[111.4133,36.4172],[112.1722,37.2549],[112.2013,37.3193],[113.2674,37.7707],[114.1069,38.5451],[114.0917,38.6743],[114.359,38.7389],[115.4479,39.6436],[115.8312,39.7729],[115.8997,39.9023],[116.0232,39.8376],[116.1021,39.8376],[115.8648,39.385],[116.1009,39.385],[116.0919,39.0618],[116.2618,38.9326],[116.1639,38.7389],[116.3993,38.7389],[116.1454,38.5451],[117.1971,38.6097],[116.5955,38.0288],[116.4394,37.7062],[116.2215,37.5773],[115.9611,37.1904],[115.4417,36.7393],[114.6098,36.0952],[114.3144,35.7733],[114.2809,35.5158],[114.2534,35.4514]]]}},{"type":"Feature","properties":{"name":"Chu","color":"#a8b8c8","area":353292,"polity_id":"polity_chu"},"geometry":{"type":"Polygon","coordinates":[[[114.875,34.3577],[114.1557,34.2933],[113.9266,34.4863],[113.5908,34.229],[113.3874,34.4863],[113.0284,34.5506],[113.0303,34.7436],[112.617,34.4863],[112.1548,34.4863],[110.8973,34.229],[110.872,34.1647],[110.489,33.9718],[110.4912,33.7789],[110.2115,33.6502],[110.2149,33.4574],[109.7829,33.3288],[109.7109,33.1359],[109.8165,33.0073],[109.5524,32.4931],[109.6288,32.4931],[109.3125,31.5933],[109.4752,31.4005],[109.3555,31.2719],[109.4861,31.2076],[109.4763,30.9506],[109.9158,30.4364],[110.4056,30.3079],[110.2273,29.9865],[110.6618,29.9223],[111.2987,29.5366],[111.8086,29.4723],[111.9959,29.3438],[112.9037,29.3438],[113.2668,29.5366],[113.5836,30.0508],[113.9506,30.2436],[114.1127,30.5007],[116.1186,30.3722],[116.8374,30.6935],[117.0208,31.2076],[117.1096,31.6575],[118.3194,32.4288],[118.9058,32.943],[118.5746,33.0716],[118.449,33.3288],[118.118,33.4574],[118.0436,33.6502],[117.7629,33.7146],[117.7392,33.8432],[117.2311,34.1004],[116.6157,34.1004],[116.107,34.3577],[115.5947,34.422],[114.952,34.3577],[114.875,34.3577]]]}},{"type":"Feature","properties":{"name":"Qin","color":"#a8a8c8","area":56478,"polity_id":"polity_qin"},"geometry":{"type":"Polygon","coordinates":[[[112.0942,37.2549],[109.6546,36.4816],[108.7896,35.7089],[108.2215,35.6445],[108.1695,35.5158],[108.3497,35.3871],[108.2982,35.2584],[108.4528,35.2584],[107.9426,34.5506],[109.6896,34.4863],[110.3586,34.229],[110.8203,34.229],[110.8196,34.422],[110.6911,34.4863],[110.7168,34.7436],[110.5884,34.8079],[110.6662,35.001],[111.0029,35.2584],[111.1628,35.6445],[111.0618,35.7733],[111.2303,36.3528],[111.4133,36.4172],[112.1722,37.2549],[112.0942,37.2549]]]}},{"type":"Feature","properties":{"name":"Etruscans","color":"#b8a8c8","area":49092,"polity_id":"polity_etruscans"},"geometry":{"type":"MultiPolygon","coordinates":[[[[12.9495,43.4723],[13.1811,42.8213],[13.4996,42.6912],[13.4173,42.5612],[13.2572,42.5612],[13.3311,42.1712],[13.0924,42.2362],[13.0106,42.1063],[13.329,42.0413],[13.327,41.9114],[13.5652,41.8465],[13.8056,41.9114],[14.0411,41.7167],[14.0362,41.4571],[14.1953,41.4571],[14.2683,41.1328],[14.5066,41.1328],[14.5039,41.0032],[13.9483,41.0032],[13.9506,41.1328],[13.7918,41.1328],[13.7145,41.2625],[13,41.3274],[12.9222,41.4571],[12.6046,41.522],[12.1305,41.9114],[12.1317,42.0413],[11.8128,42.1063],[11.6548,42.3662],[11.4945,42.3012],[11.4152,42.4312],[11.2552,42.4312],[11.176,42.6262],[11.0158,42.6262],[11.0163,42.8213],[10.5353,43.0816],[10.2934,43.7982],[10.6965,43.7982],[10.9388,43.9938],[10.8583,44.1243],[11.0199,44.1243],[11.1016,44.4507],[11.3446,44.516],[11.5059,44.3854],[11.5049,44.1896],[11.8277,44.1243],[11.7464,44.0591],[11.8253,43.7982],[12.4674,43.5375],[12.5464,43.4072],[12.8691,43.4723],[12.9495,43.4723]]],[[[10.2145,42.8864],[10.4551,42.8864],[10.4552,42.6912],[10.2148,42.6912],[10.1343,42.8864],[10.2145,42.8864]]]]}},{"type":"Feature","properties":{"name":"Spring and Autumn States","color":"#a8b8c8","area":1008534,"polity_id":"polity_springandautumnstates"},"geometry":{"type":"MultiPolygon","coordinates":[[[[119.3191,39.5143],[119.3804,39.7729],[120.5003,40.2259],[120.6473,40.4849],[121.227,40.9384],[119.3442,40.4201],[117.5675,40.3554],[116.4522,39.9023],[116.1365,39.9023],[115.8648,39.385],[116.1009,39.385],[116.0919,39.0618],[116.2618,38.9326],[116.1639,38.7389],[116.3993,38.7389],[116.1454,38.5451],[117.1971,38.6097],[117.2298,38.6743],[117.622,38.6743],[117.6757,38.9326],[117.8884,39.1911],[118.0457,39.1911],[118.0569,39.0618],[118.4498,39.0618],[118.9894,39.1911],[119.2844,39.4496],[119.3191,39.5143]]],[[[119.1307,38.0933],[118.7718,38.1578],[118.8042,38.2224],[118.6476,38.2224],[118.583,38.0933],[118.0674,38.1578],[118.0536,38.2869],[117.6025,38.4806],[117.622,38.6743],[117.2298,38.6743],[117.1971,38.6097],[116.5955,38.0288],[116.4394,37.7062],[116.2215,37.5773],[115.9611,37.1904],[115.4417,36.7393],[115.6357,36.4816],[115.5201,36.224],[115.5977,36.224],[115.8017,36.1596],[115.765,35.902],[116.0465,35.8377],[117.3531,36.1596],[119.8951,36.2884],[120.5293,36.4816],[120.7318,36.4172],[120.9648,36.4172],[120.9789,36.6105],[121.2121,36.6105],[121.9121,36.9326],[122.3939,36.8037],[122.5664,36.9971],[122.4742,37.126],[122.7129,37.4483],[122.1211,37.5128],[122.1535,37.5773],[121.4969,37.5128],[121.4833,37.6417],[121.171,37.6417],[121.112,37.8352],[120.7538,37.8998],[120.1881,37.7062],[120.2022,37.5773],[119.8266,37.4483],[119.7011,37.1904],[119.1557,37.1904],[119.14,37.3193],[118.984,37.3193],[119.2366,37.8352],[119.3928,37.8352],[119.4571,37.9643],[119.1766,38.0288],[119.2089,38.0933],[119.1307,38.0933]]],[[[115.0394,35.8377],[114.9554,35.6445],[115.2311,35.3871],[115.9898,35.7089],[116.0465,35.8377],[115.765,35.902],[115.8017,36.1596],[115.5977,36.224],[115.1169,35.8377],[115.0394,35.8377]]],[[[119.2557,34.8723],[119.6187,35.5158],[119.9865,35.6445],[120.3185,36.0308],[120.6585,36.0952],[120.7015,36.3528],[120.7318,36.4172],[120.5293,36.4816],[119.8951,36.2884],[117.3531,36.1596],[116.0465,35.8377],[115.9898,35.7089],[116.2856,35.3227],[116.6721,35.3227],[116.9603,35.4514],[117.5871,35.6445],[118.2549,35.5802],[118.3036,35.5158],[118.056,35.1297],[117.7683,35.001],[117.6355,34.8723],[117.9657,34.7436],[118.1199,34.7436],[118.2807,34.9366],[118.435,34.9366],[118.4284,34.7436],[119.2276,34.8079],[119.2557,34.8723]]],[[[114.2534,35.4514],[114.226,35.3871],[114.3033,35.3871],[114.3307,35.4514],[114.4081,35.4514],[114.8565,35.7733],[115.0114,35.7733],[115.0394,35.8377],[115.1169,35.8377],[115.5977,36.224],[115.5201,36.224],[115.6357,36.4816],[115.4417,36.7393],[114.6098,36.0952],[114.3144,35.7733],[114.2809,35.5158],[114.2534,35.4514]]],[[[116.9813,35.3227],[116.9253,35.194],[117.1785,35.0653],[117.7683,35.001],[118.056,35.1297],[118.3036,35.5158],[118.2549,35.5802],[117.5871,35.6445],[116.9603,35.4514],[116.904,35.3227],[116.9813,35.3227]]],[[[115.0114,35.7733],[114.8565,35.7733],[114.4081,35.4514],[114.3759,35.194],[114.499,34.9366],[115.2311,35.3871],[114.9554,35.6445],[115.0114,35.7733]]],[[[113.6847,35.3871],[113.5301,35.3871],[113.3414,34.9366],[113.6738,34.8079],[113.7509,34.8079],[114.4721,34.8723],[114.499,34.9366],[114.3759,35.194],[114.4081,35.4514],[114.3307,35.4514],[114.3033,35.3871],[113.762,35.3871],[113.6847,35.3871]]],[[[116.1805,35.2584],[116.0975,35.0653],[116.1969,34.9366],[116.5056,34.9366],[116.7045,34.6793],[117.1785,35.0653],[116.9253,35.194],[116.9813,35.3227],[116.904,35.3227],[116.9603,35.4514],[116.6721,35.3227],[116.2856,35.3227],[116.2578,35.2584],[116.1805,35.2584]]],[[[112.3859,34.4863],[112.617,34.4863],[113.0303,34.7436],[113.0567,34.8079],[113.1339,34.8079],[113.1604,34.8723],[113.2376,34.8723],[113.2642,34.9366],[113.3414,34.9366],[113.5301,35.3871],[112.3199,35.4514],[112.1066,34.9366],[112.1837,34.9366],[112.1548,34.4863],[112.3089,34.4863],[112.3859,34.4863]]],[[[113.5435,34.6793],[113.6206,34.6793],[113.6738,34.8079],[113.3414,34.9366],[113.2642,34.9366],[113.2376,34.8723],[113.1604,34.8723],[113.1339,34.8079],[113.0567,34.8079],[113.0303,34.7436],[113.0284,34.5506],[113.3874,34.4863],[113.44,34.615],[113.5171,34.615],[113.5435,34.6793]]],[[[113.9531,34.5506],[113.7509,34.8079],[113.6738,34.8079],[113.6206,34.6793],[113.5435,34.6793],[113.5171,34.615],[113.44,34.615],[113.3874,34.4863],[113.5908,34.229],[113.9266,34.4863],[113.9531,34.5506]]],[[[116.7271,34.5506],[117.5747,34.5506],[117.6741,34.422],[117.9657,34.7436],[117.6355,34.8723],[117.7683,35.001],[117.1785,35.0653],[116.7045,34.6793],[116.65,34.5506],[116.7271,34.5506]]],[[[114.952,34.3577],[115.5947,34.422],[115.4942,34.5506],[114.6466,34.5506],[114.3412,34.7436],[114.4721,34.8723],[113.7509,34.8079],[113.9531,34.5506],[113.9266,34.4863],[114.1557,34.2933],[114.875,34.3577],[114.952,34.3577]]],[[[114.2534,35.4514],[114.226,35.3871],[113.5301,35.3871],[112.3199,35.4514],[112.1066,34.9366],[112.1837,34.9366],[112.1548,34.4863],[110.8973,34.229],[110.8203,34.229],[110.8196,34.422],[110.6911,34.4863],[110.7168,34.7436],[110.5884,34.8079],[110.6662,35.001],[111.0029,35.2584],[111.1628,35.6445],[111.0618,35.7733],[111.2303,36.3528],[111.4133,36.4172],[112.1722,37.2549],[112.2013,37.3193],[113.2674,37.7707],[114.1069,38.5451],[114.0917,38.6743],[114.359,38.7389],[115.4479,39.6436],[115.8312,39.7729],[115.8997,39.9023],[116.0232,39.8376],[116.1021,39.8376],[115.8648,39.385],[116.1009,39.385],[116.0919,39.0618],[116.2618,38.9326],[116.1639,38.7389],[116.3993,38.7389],[116.1454,38.5451],[117.1971,38.6097],[116.5955,38.0288],[116.4394,37.7062],[116.2215,37.5773],[115.9611,37.1904],[115.4417,36.7393],[114.6098,36.0952],[114.3144,35.7733],[114.2809,35.5158],[114.2534,35.4514]]],[[[112.0942,37.2549],[109.6546,36.4816],[108.7896,35.7089],[108.2215,35.6445],[108.1695,35.5158],[108.3497,35.3871],[108.2982,35.2584],[108.4528,35.2584],[107.9426,34.5506],[109.6896,34.4863],[110.3586,34.229],[110.8203,34.229],[110.8196,34.422],[110.6911,34.4863],[110.7168,34.7436],[110.5884,34.8079],[110.6662,35.001],[111.0029,35.2584],[111.1628,35.6445],[111.0618,35.7733],[111.2303,36.3528],[111.4133,36.4172],[112.1722,37.2549],[112.0942,37.2549]]],[[[117.5747,34.5506],[116.65,34.5506],[116.7045,34.6793],[116.5056,34.9366],[116.1969,34.9366],[116.0975,35.0653],[116.1805,35.2584],[116.2578,35.2584],[116.2856,35.3227],[115.9898,35.7089],[115.2311,35.3871],[114.499,34.9366],[114.4721,34.8723],[114.3412,34.7436],[114.6466,34.5506],[115.4942,34.5506],[115.5947,34.422],[116.107,34.3577],[116.6157,34.1004],[117.2311,34.1004],[117.6198,34.2933],[117.6741,34.422],[117.5747,34.5506]]],[[[120.3418,34.3577],[119.9847,34.422],[119.7323,34.5506],[119.7113,34.6793],[119.3047,34.8079],[119.2276,34.8079],[118.4284,34.7436],[118.435,34.9366],[118.2807,34.9366],[118.1199,34.7436],[117.9657,34.7436],[117.6741,34.422],[117.6198,34.2933],[117.2311,34.1004],[117.7392,33.8432],[117.7629,33.7146],[118.0436,33.6502],[118.118,33.4574],[118.449,33.3288],[118.5746,33.0716],[118.9058,32.943],[118.3194,32.4288],[117.1096,31.6575],[117.0208,31.2076],[117.6296,31.2076],[118.1246,31.7218],[118.8555,32.236],[119.8485,32.236],[120.1049,31.9146],[120.7655,32.0431],[120.9191,31.8503],[120.9954,31.8503],[121.5806,31.7861],[121.6831,31.6575],[121.8356,31.6575],[121.987,31.8503],[121.7832,32.1074],[121.5033,32.1717],[121.4026,32.4931],[120.9192,32.6216],[120.9263,33.2002],[120.5505,33.5859],[120.4894,34.1647],[120.314,34.2933],[120.3418,34.3577]]],[[[117.9599,29.5366],[117.8842,29.5366],[117.9054,29.6009],[117.9811,29.6009],[117.9599,29.5366]]],[[[121.0467,31.7861],[121.6335,31.529],[121.5843,31.4005],[121.7366,31.4005],[121.9953,31.0791],[121.8993,30.822],[121.5192,30.822],[121.1972,30.565],[121.0453,30.565],[120.6798,30.1794],[120.8088,30.1151],[121.1047,30.3079],[121.4841,30.3079],[121.6202,30.0508],[122.0298,29.9223],[121.8203,29.5366],[121.42,29.4723],[121.3124,29.6009],[120.2424,29.7937],[119.7784,29.9865],[119.2257,29.9223],[118.3597,29.6009],[117.5269,29.6009],[117.1908,29.7294],[116.7364,29.7294],[116.27,29.9223],[116.0966,30.3079],[116.1186,30.3722],[116.8374,30.6935],[117.0208,31.2076],[117.6296,31.2076],[118.1246,31.7218],[118.8555,32.236],[119.8485,32.236],[120.1049,31.9146],[120.7655,32.0431],[120.9191,31.8503],[120.8942,31.7861],[120.9705,31.7861],[121.0467,31.7861]]],[[[114.875,34.3577],[114.1557,34.2933],[113.9266,34.4863],[113.5908,34.229],[113.3874,34.4863],[113.0284,34.5506],[113.0303,34.7436],[112.617,34.4863],[112.1548,34.4863],[110.8973,34.229],[110.872,34.1647],[110.489,33.9718],[110.4912,33.7789],[110.2115,33.6502],[110.2149,33.4574],[109.7829,33.3288],[109.7109,33.1359],[109.8165,33.0073],[109.5524,32.4931],[109.6288,32.4931],[109.3125,31.5933],[109.4752,31.4005],[109.3555,31.2719],[109.4861,31.2076],[109.4763,30.9506],[109.9158,30.4364],[110.4056,30.3079],[110.2273,29.9865],[110.6618,29.9223],[111.2987,29.5366],[111.8086,29.4723],[111.9959,29.3438],[112.9037,29.3438],[113.2668,29.5366],[113.5836,30.0508],[113.9506,30.2436],[114.1127,30.5007],[116.1186,30.3722],[116.8374,30.6935],[117.0208,31.2076],[117.1096,31.6575],[118.3194,32.4288],[118.9058,32.943],[118.5746,33.0716],[118.449,33.3288],[118.118,33.4574],[118.0436,33.6502],[117.7629,33.7146],[117.7392,33.8432],[117.2311,34.1004],[116.6157,34.1004],[116.107,34.3577],[115.5947,34.422],[114.952,34.3577],[114.875,34.3577]]]]}},{"type":"Feature","properties":{"name":"Qi","color":"#a8a8c8","area":102632,"polity_id":"polity_qi"},"geometry":{"type":"Polygon","coordinates":[[[119.1307,38.0933],[118.7718,38.1578],[118.8042,38.2224],[118.6476,38.2224],[118.583,38.0933],[118.0674,38.1578],[118.0536,38.2869],[117.6025,38.4806],[117.622,38.6743],[117.2298,38.6743],[117.1971,38.6097],[116.5955,38.0288],[116.4394,37.7062],[116.2215,37.5773],[115.9611,37.1904],[115.4417,36.7393],[115.6357,36.4816],[115.5201,36.224],[115.5977,36.224],[115.8017,36.1596],[115.765,35.902],[116.0465,35.8377],[117.3531,36.1596],[119.8951,36.2884],[120.5293,36.4816],[120.7318,36.4172],[120.9648,36.4172],[120.9789,36.6105],[121.2121,36.6105],[121.9121,36.9326],[122.3939,36.8037],[122.5664,36.9971],[122.4742,37.126],[122.7129,37.4483],[122.1211,37.5128],[122.1535,37.5773],[121.4969,37.5128],[121.4833,37.6417],[121.171,37.6417],[121.112,37.8352],[120.7538,37.8998],[120.1881,37.7062],[120.2022,37.5773],[119.8266,37.4483],[119.7011,37.1904],[119.1557,37.1904],[119.14,37.3193],[118.984,37.3193],[119.2366,37.8352],[119.3928,37.8352],[119.4571,37.9643],[119.1766,38.0288],[119.2089,38.0933],[119.1307,38.0933]]]}},{"type":"Feature","properties":{"name":"Song","color":"#c8c8b8","area":22944,"polity_id":"polity_song"},"geometry":{"type":"Polygon","coordinates":[[[117.5747,34.5506],[116.65,34.5506],[116.7045,34.6793],[116.5056,34.9366],[116.1969,34.9366],[116.0975,35.0653],[116.1805,35.2584],[116.2578,35.2584],[116.2856,35.3227],[115.9898,35.7089],[115.2311,35.3871],[114.499,34.9366],[114.4721,34.8723],[114.3412,34.7436],[114.6466,34.5506],[115.4942,34.5506],[115.5947,34.422],[116.107,34.3577],[116.6157,34.1004],[117.2311,34.1004],[117.6198,34.2933],[117.6741,34.422],[117.5747,34.5506]]]}},{"type":"Feature","properties":{"name":"Teng","color":"#a8b8c8","area":4225,"polity_id":"polity_teng"},"geometry":{"type":"Polygon","coordinates":[[[116.1805,35.2584],[116.0975,35.0653],[116.1969,34.9366],[116.5056,34.9366],[116.7045,34.6793],[117.1785,35.0653],[116.9253,35.194],[116.9813,35.3227],[116.904,35.3227],[116.9603,35.4514],[116.6721,35.3227],[116.2856,35.3227],[116.2578,35.2584],[116.1805,35.2584]]]}},{"type":"Feature","properties":{"name":"Chen","color":"#a8c8c8","area":4972,"polity_id":"polity_chen"},"geometry":{"type":"Polygon","coordinates":[[[114.875,34.3577],[114.1557,34.2933],[113.9266,34.4863],[113.9531,34.5506],[113.7509,34.8079],[114.4721,34.8723],[114.3412,34.7436],[114.6466,34.5506],[115.4942,34.5506],[115.5947,34.422],[114.952,34.3577],[114.875,34.3577]]]}},{"type":"Feature","properties":{"name":"Wey","color":"#c8b8a8","area":6979,"polity_id":"polity_wey"},"geometry":{"type":"Polygon","coordinates":[[[114.2534,35.4514],[114.226,35.3871],[114.3033,35.3871],[114.3307,35.4514],[114.4081,35.4514],[114.8565,35.7733],[115.0114,35.7733],[115.0394,35.8377],[115.1169,35.8377],[115.5977,36.224],[115.5201,36.224],[115.6357,36.4816],[115.4417,36.7393],[114.6098,36.0952],[114.3144,35.7733],[114.2809,35.5158],[114.2534,35.4514]]]}},{"type":"Feature","properties":{"name":"Cao","color":"#c8a8a8","area":3840,"polity_id":"polity_cao"},"geometry":{"type":"Polygon","coordinates":[[[114.9554,35.6445],[115.2311,35.3871],[114.499,34.9366],[114.3759,35.194],[114.4081,35.4514],[114.8565,35.7733],[115.0114,35.7733],[114.9554,35.6445]]]}},{"type":"Feature","properties":{"name":"Lu","color":"#c8c8a8","area":43470,"polity_id":"polity_lu"},"geometry":{"type":"MultiPolygon","coordinates":[[[[115.0394,35.8377],[114.9554,35.6445],[115.2311,35.3871],[115.9898,35.7089],[116.0465,35.8377],[115.765,35.902],[115.8017,36.1596],[115.5977,36.224],[115.1169,35.8377],[115.0394,35.8377]]],[[[119.2557,34.8723],[119.6187,35.5158],[119.9865,35.6445],[120.3185,36.0308],[120.6585,36.0952],[120.7015,36.3528],[120.7318,36.4172],[120.5293,36.4816],[119.8951,36.2884],[117.3531,36.1596],[116.0465,35.8377],[115.9898,35.7089],[116.2856,35.3227],[116.6721,35.3227],[116.9603,35.4514],[117.5871,35.6445],[118.2549,35.5802],[118.3036,35.5158],[118.056,35.1297],[117.7683,35.001],[117.6355,34.8723],[117.9657,34.7436],[118.1199,34.7436],[118.2807,34.9366],[118.435,34.9366],[118.4284,34.7436],[119.2276,34.8079],[119.2557,34.8723]]]]}},{"type":"Feature","properties":{"name":"Zheng","color":"#a8b8c8","area":5553,"polity_id":"polity_zheng"},"geometry":{"type":"Polygon","coordinates":[[[113.6847,35.3871],[113.5301,35.3871],[113.3414,34.9366],[113.6738,34.8079],[113.7509,34.8079],[114.4721,34.8723],[114.499,34.9366],[114.3759,35.194],[114.4081,35.4514],[114.3307,35.4514],[114.3033,35.3871],[113.762,35.3871],[113.6847,35.3871]]]}},{"type":"Feature","properties":{"name":"Cai","color":"#c8b8a8","area":3733,"polity_id":"polity_cai"},"geometry":{"type":"MultiPolygon","coordinates":[[[[113.5435,34.6793],[113.6206,34.6793],[113.6738,34.8079],[113.3414,34.9366],[113.2642,34.9366],[113.2376,34.8723],[113.1604,34.8723],[113.1339,34.8079],[113.0567,34.8079],[113.0303,34.7436],[113.0284,34.5506],[113.3874,34.4863],[113.44,34.615],[113.5171,34.615],[113.5435,34.6793]]],[[[113.9531,34.5506],[113.7509,34.8079],[113.6738,34.8079],[113.6206,34.6793],[113.5435,34.6793],[113.5171,34.615],[113.44,34.615],[113.3874,34.4863],[113.5908,34.229],[113.9266,34.4863],[113.9531,34.5506]]]]}},{"type":"Feature","properties":{"name":"Zhu","color":"#c8a8b8","area":6449,"polity_id":"polity_zhu"},"geometry":{"type":"Polygon","coordinates":[[[116.9813,35.3227],[116.9253,35.194],[117.1785,35.0653],[117.7683,35.001],[118.056,35.1297],[118.3036,35.5158],[118.2549,35.5802],[117.5871,35.6445],[116.9603,35.4514],[116.904,35.3227],[116.9813,35.3227]]]}},{"type":"Feature","properties":{"name":"Yan","color":"#a8a8c8","area":49599,"polity_id":"polity_yan"},"geometry":{"type":"Polygon","coordinates":[[[119.3191,39.5143],[119.3804,39.7729],[120.5003,40.2259],[120.6473,40.4849],[121.227,40.9384],[119.3442,40.4201],[117.5675,40.3554],[116.4522,39.9023],[116.1365,39.9023],[115.8648,39.385],[116.1009,39.385],[116.0919,39.0618],[116.2618,38.9326],[116.1639,38.7389],[116.3993,38.7389],[116.1454,38.5451],[117.1971,38.6097],[117.2298,38.6743],[117.622,38.6743],[117.6757,38.9326],[117.8884,39.1911],[118.0457,39.1911],[118.0569,39.0618],[118.4498,39.0618],[118.9894,39.1911],[119.2844,39.4496],[119.3191,39.5143]]]}},{"type":"Feature","properties":{"name":"Later Zhou","color":"#a8a8c8","area":9656,"polity_id":"polity_laterzhou"},"geometry":{"type":"Polygon","coordinates":[[[112.3859,34.4863],[112.617,34.4863],[113.0303,34.7436],[113.0567,34.8079],[113.1339,34.8079],[113.1604,34.8723],[113.2376,34.8723],[113.2642,34.9366],[113.3414,34.9366],[113.5301,35.3871],[112.3199,35.4514],[112.1066,34.9366],[112.1837,34.9366],[112.1548,34.4863],[112.3089,34.4863],[112.3859,34.4863]]]}},{"type":"Feature","properties":{"name":"Xu","color":"#c8a8a8","area":4786,"polity_id":"polity_xu"},"geometry":{"type":"Polygon","coordinates":[[[116.7271,34.5506],[117.5747,34.5506],[117.6741,34.422],[117.9657,34.7436],[117.6355,34.8723],[117.7683,35.001],[117.1785,35.0653],[116.7045,34.6793],[116.65,34.5506],[116.7271,34.5506]]]}},{"type":"Feature","properties":{"name":"Wu","color":"#b8a8c8","area":193430,"polity_id":"polity_wu"},"geometry":{"type":"MultiPolygon","coordinates":[[[[120.3418,34.3577],[119.9847,34.422],[119.7323,34.5506],[119.7113,34.6793],[119.3047,34.8079],[119.2276,34.8079],[118.4284,34.7436],[118.435,34.9366],[118.2807,34.9366],[118.1199,34.7436],[117.9657,34.7436],[117.6741,34.422],[117.6198,34.2933],[117.2311,34.1004],[117.7392,33.8432],[117.7629,33.7146],[118.0436,33.6502],[118.118,33.4574],[118.449,33.3288],[118.5746,33.0716],[118.9058,32.943],[118.3194,32.4288],[117.1096,31.6575],[117.0208,31.2076],[117.6296,31.2076],[118.1246,31.7218],[118.8555,32.236],[119.8485,32.236],[120.1049,31.9146],[120.7655,32.0431],[120.9191,31.8503],[120.9954,31.8503],[121.5806,31.7861],[121.6831,31.6575],[121.8356,31.6575],[121.987,31.8503],[121.7832,32.1074],[121.5033,32.1717],[121.4026,32.4931],[120.9192,32.6216],[120.9263,33.2002],[120.5505,33.5859],[120.4894,34.1647],[120.314,34.2933],[120.3418,34.3577]]],[[[117.9599,29.5366],[117.8842,29.5366],[117.9054,29.6009],[117.9811,29.6009],[117.9599,29.5366]]],[[[121.0467,31.7861],[121.6335,31.529],[121.5843,31.4005],[121.7366,31.4005],[121.9953,31.0791],[121.8993,30.822],[121.5192,30.822],[121.1972,30.565],[121.0453,30.565],[120.6798,30.1794],[120.8088,30.1151],[121.1047,30.3079],[121.4841,30.3079],[121.6202,30.0508],[122.0298,29.9223],[121.8203,29.5366],[121.42,29.4723],[121.3124,29.6009],[120.2424,29.7937],[119.7784,29.9865],[119.2257,29.9223],[118.3597,29.6009],[117.5269,29.6009],[117.1908,29.7294],[116.7364,29.7294],[116.27,29.9223],[116.0966,30.3079],[116.1186,30.3722],[116.8374,30.6935],[117.0208,31.2076],[117.6296,31.2076],[118.1246,31.7218],[118.8555,32.236],[119.8485,32.236],[120.1049,31.9146],[120.7655,32.0431],[120.9191,31.8503],[120.8942,31.7861],[120.9705,31.7861],[121.0467,31.7861]]]]}},{"type":"Feature","properties":{"name":"Hadhramaut","color":"#c8b8a8","area":85919,"polity_id":"polity_hadhramaut"},"geometry":{"type":"MultiPolygon","coordinates":[[[[51.0739,15.4575],[50.8452,15.329],[50.7518,15.0075],[49.4098,14.6861],[47.521,15.0718],[47.5284,15.2004],[46.5062,15.329],[46.223,15.5218],[46.1494,15.5218],[46.3811,15.7147],[46.4697,15.9718],[46.4735,16.0361],[46.5547,16.1647],[46.6982,16.1004],[48.1169,16.4219],[49.5943,16.4861],[50.1184,16.6147],[50.4825,16.5504],[51.0806,16.679],[51.8867,16.6147],[51.9516,16.4861],[51.8605,16.229],[51.2417,15.779],[51.078,15.5218],[51.0739,15.4575]]],[[[46.702,16.1647],[46.6283,16.1647],[46.6322,16.229],[46.7058,16.229],[46.702,16.1647]]]]}},{"type":"Feature","properties":{"name":"Lydia","color":"#c8b078","area":256101,"polity_id":"polity_lydia"},"geometry":{"type":"Polygon","coordinates":[[[34.5652,41.4571],[35.1657,41.7816],[34.474,41.9764],[33.2771,41.9764],[32.8621,41.8465],[32.6308,41.9114],[32.6947,41.7816],[32.1934,41.5869],[32.0417,41.6518],[32.0265,41.522],[31.5342,41.3922],[31.1801,41.068],[30.6242,41.068],[30.4792,41.1977],[29.3668,41.1977],[29.2486,40.8088],[29.493,40.8736],[29.4801,40.744],[28.9127,40.6144],[28.9004,40.4849],[29.0463,40.3554],[27.9388,40.3554],[27.9505,40.4849],[27.7921,40.4849],[27.6958,40.2906],[27.5433,40.3554],[27.4642,40.3554],[27.3739,40.2259],[26.6571,40.1612],[26.7045,39.7729],[27.02,39.7729],[27.0147,39.7083],[27.1618,39.5789],[26.8414,39.5143],[26.8311,39.385],[26.7524,39.385],[26.7422,39.2557],[26.8209,39.2557],[26.9098,39.385],[27.3034,39.385],[27.445,39.1911],[27.3456,38.9326],[27.1048,38.868],[27.0113,38.6743],[27.1632,38.6097],[27.1433,38.3515],[27.4853,37.7062],[27.4805,37.6417],[27.8511,37.3838],[28.2411,37.3838],[28.5127,36.8682],[28.5905,36.8682],[28.7361,36.7393],[29.5033,36.6105],[30.5246,36.7393],[30.6191,36.9326],[31.086,36.9326],[31.7443,37.3193],[32.8295,37.2549],[33.0174,37.5773],[33.245,37.5128],[33.5056,37.7707],[33.2911,37.9643],[33.3827,38.0933],[33.2396,38.2224],[33.2599,38.416],[33.352,38.5451],[33.5872,38.5451],[33.7581,38.6743],[33.7008,38.868],[33.7865,38.9326],[33.4794,38.9972],[33.3578,39.3203],[33.1288,39.385],[33.1648,39.7083],[33.4161,39.8376],[33.5174,40.0317],[34.0703,40.0317],[33.9904,40.6792],[34.3947,40.744],[34.285,41.1328],[34.381,41.2625],[34.54,41.2625],[34.5568,41.3922],[34.5652,41.4571]]]}},{"type":"Feature","properties":{"name":"Olmec Civilization","color":"#c8c8a8","area":17603,"polity_id":"polity_olmeccivilization"},"geometry":{"type":"Polygon","coordinates":[[[-94.0522,18.2862],[-94.5693,18.2862],[-94.6952,18.1576],[-94.9168,18.1576],[-95.3413,18.4791],[-95.4891,18.4791],[-95.5113,18.6076],[-95.3747,18.6719],[-95.471,18.8005],[-95.8407,18.8005],[-95.9548,18.6076],[-95.9325,18.4791],[-95.4559,18.2862],[-95.1057,17.9648],[-94.2295,17.579],[-93.6602,17.7076],[-93.6814,17.8362],[-92.7855,18.2219],[-92.6916,18.5434],[-93.4937,18.4791],[-93.9783,18.2862],[-94.0522,18.2862]]]}},{"type":"Feature","properties":{"name":"Scythia","color":"#a8b8a0","area":1687900,"polity_id":"polity_scythia"},"geometry":{"type":"MultiPolygon","coordinates":[[[[50.1845,44.8546],[50.0389,44.9491],[50.1099,45.0819],[50.023,45.0447],[49.9951,44.937],[50.1487,44.8265],[50.1845,44.8546]]],[[[50.3117,44.9721],[50.3309,44.9984],[50.3497,45.083],[50.2949,45.0759],[50.2562,45.0224],[50.2772,44.9586],[50.3117,44.9721]]],[[[52.6824,45.4118],[52.693,45.4607],[52.6596,45.5181],[52.6089,45.528],[52.5543,45.474],[52.5983,45.4282],[52.6648,45.4013],[52.6824,45.4118]]],[[[47.983,45.4882],[47.9871,45.5541],[47.9472,45.6471],[47.9176,45.6182],[47.9203,45.5621],[47.9677,45.47],[47.983,45.4882]]],[[[32.0122,46.2039],[31.5088,46.3731],[31.5639,46.2578],[32.1501,46.1547],[32.0122,46.2039]]],[[[40.9639,42.9885],[41.6519,43.2038],[42.7202,42.9761],[43.9676,43.286],[46.1839,42.8108],[47.6945,42.8291],[47.4632,43.0351],[47.6465,43.8846],[47.4628,43.555],[47.307,44.1031],[46.7072,44.5033],[47.3513,45.2177],[47.5295,45.5302],[47.4633,45.6797],[47.6333,45.584],[48.487,45.9349],[48.7296,45.8968],[48.6837,46.0862],[49.2459,46.2916],[49.2057,46.3857],[49.3621,46.4102],[49.3475,46.5191],[49.8863,46.5957],[51.178,47.1102],[52.1383,46.8286],[52.4832,46.9907],[53.0346,46.8929],[53.1702,46.669],[53.064,46.4753],[53.1353,46.1917],[52.7738,45.5728],[53.2004,45.332],[51.4157,45.3579],[51.0094,44.9218],[51.5436,44.531],[51.1107,44.5078],[50.6524,44.6333],[50.2646,44.5266],[50.2756,44.3551],[50.8427,44.1671],[56.0971,44.0539],[58.2735,44.2633],[59.574,44.6423],[60.2907,45.4858],[60.0783,46.0413],[59.6006,46.5365],[56.973,48.5605],[55.4336,49.1369],[52.0363,49.5691],[49.329,49.7409],[46.728,50.1168],[46.1971,50.3036],[45.5601,50.7591],[43.888,52.1971],[41.8974,52.9872],[40.5703,53.1148],[38.7655,53.1626],[37.1465,53.0191],[34.8905,52.5859],[32.7141,51.657],[26.5299,49.9634],[24.9109,49.2583],[24.4597,48.6833],[24.4066,47.9953],[24.8047,46.5],[25.6806,45.075],[26.6626,44.4342],[28.6901,44.3609],[28.8882,44.5748],[28.807,44.565],[28.8915,44.9187],[29.0401,44.9837],[28.9253,45.1733],[30.0135,46.8188],[30.9159,47.1808],[31.7553,47.3519],[32.6013,47.1063],[32.8733,46.9095],[32.2532,46.5792],[32.578,46.6156],[32.3613,46.475],[31.5549,46.5543],[32.0085,46.43],[31.8313,46.2817],[32.4768,46.0837],[33.2022,46.1757],[33.4299,46.0576],[34.851,46.0277],[34.8496,46.1899],[35.2304,46.4406],[35.2802,46.2795],[35.0146,46.106],[35.8271,46.6243],[36.7948,46.7144],[37.5434,47.0746],[39.1957,47.2688],[39.2707,47.0441],[38.4387,46.8131],[38.501,46.6637],[37.7665,46.6361],[37.9139,46.4065],[38.4923,46.0905],[38.1836,46.0948],[38.0796,45.9348],[38.0143,46.0478],[37.6947,45.6757],[38.1683,45.2808],[38.3367,44.3701],[38.7173,44.2881],[39.8736,43.4728],[40.4621,43.1457],[40.8366,43.0635],[40.9639,42.9885]]],[[[29.1398,44.773],[29.1111,44.906],[29.071,44.9498],[29.0478,44.9257],[29.0691,44.8711],[29.0811,44.7988],[29.0482,44.7576],[29.1398,44.773]]]]}},{"type":"Feature","properties":{"name":"Carthage","color":"#c8b8a8","area":12267,"polity_id":"polity_carthage"},"geometry":{"type":"Polygon","coordinates":[[[10.851,35.7089],[10.4635,35.902],[10.5403,36.3528],[10.4625,36.4172],[11.0062,36.8037],[11.0063,36.9971],[10.4618,36.7393],[10.2284,36.8037],[10.3054,37.0615],[10.2276,37.0615],[10.227,37.2549],[9.9934,37.1904],[9.759,37.3193],[8.8259,37.0615],[9.2176,36.7393],[9.6828,36.9971],[9.9945,36.9326],[9.84,36.6749],[10.3075,36.2884],[10.308,36.0952],[10.1532,36.0308],[10.1536,35.902],[10.3085,35.902],[10.2314,35.7733],[10.3097,35.4514],[10.6192,35.3227],[10.7738,35.3227],[10.8511,35.4514],[11.083,35.3871],[11.0832,35.5802],[10.851,35.6445],[10.851,35.7089]]]}},{"type":"Feature","properties":{"name":"Twenty-sixth Dynasty of Egypt","color":"#7fb8a0","area":452849,"polity_id":"polity_twentysixthdynastyofegypt"},"geometry":{"type":"Polygon","coordinates":[[[32.2372,31.2076],[32.3039,31.0791],[31.9996,31.0791],[31.9374,31.2719],[31.7806,31.2076],[31.8752,31.4647],[31.2658,31.4647],[31.118,31.529],[31.2033,31.6575],[30.9746,31.6575],[30.9656,31.529],[30.8088,31.4647],[30.3517,31.4647],[30.2712,31.4005],[30.3388,31.2719],[29.882,31.2719],[29.8018,31.2076],[29.8696,31.0791],[29.6332,30.9506],[29.4851,31.0148],[29.3971,30.822],[29.017,30.822],[28.6945,29.1509],[28.6189,29.1509],[28.6054,28.8938],[28.451,28.8295],[28.5233,28.7652],[28.4665,27.6081],[28.3912,27.6081],[28.4458,27.158],[28.3707,27.158],[28.3426,26.5151],[28.2675,26.5151],[28.2886,25.165],[28.6412,24.5864],[29.6728,24.2006],[29.9595,23.8792],[30.1087,23.8792],[30.104,23.7506],[30.3952,23.5577],[30.4627,23.3649],[30.5372,23.3649],[31.6705,23.7506],[32.0409,23.6863],[33.389,23.8149],[33.6818,23.6863],[33.7564,23.6863],[35.108,23.8792],[35.5526,23.8149],[35.5588,23.9435],[35.708,23.9435],[35.7889,24.072],[35.1455,24.6506],[34.6076,25.8079],[34.4613,25.8722],[34.1972,26.5151],[34.0507,26.5794],[34.0731,26.9652],[33.9266,27.0295],[33.7992,27.4152],[33.5851,27.6081],[33.6089,27.9938],[33.1053,28.3795],[32.8361,28.8938],[32.6892,28.9581],[32.6387,29.3438],[32.4287,29.6009],[32.5261,29.9223],[32.8571,29.2152],[33.2139,28.8938],[33.1889,28.5081],[33.403,28.3153],[33.5538,28.3153],[33.617,28.1224],[34.12,27.7367],[34.3459,27.7367],[34.4378,27.9938],[34.4419,28.0581],[34.1614,28.3795],[33.9781,29.0224],[33.769,29.2795],[33.7824,29.4723],[33.5734,29.7294],[33.2929,31.0791],[33.2168,31.0791],[32.8317,31.0148],[32.7652,31.1434],[32.5322,31.0791],[32.3133,31.2076],[32.2372,31.2076]]]}},{"type":"Feature","properties":{"name":"Median Kingdom","color":"#d8b8a0","area":2243378,"polity_id":"polity_mediankingdom"},"geometry":{"type":"MultiPolygon","coordinates":[[[[48.4837,38.5451],[48.7974,38.5451],[48.8285,37.8352],[49.0851,37.5128],[49.9988,37.3838],[50.3209,36.9971],[50.5657,37.0615],[50.6323,36.9971],[50.532,36.8682],[50.8207,36.7393],[51.642,36.546],[52.1859,36.546],[53.4887,36.8682],[55.1476,36.9971],[55.8088,37.1904],[55.8347,37.3193],[56.0556,37.2549],[56.8881,37.5128],[58.3342,37.7062],[59.1933,37.7062],[60.2033,38.0288],[60.7508,38.0288],[61.0154,38.1578],[62.3924,38.3515],[63.5234,38.8034],[63.8374,38.8034],[64.0075,38.5451],[64.3669,38.416],[64.6615,38.0288],[65.2388,37.8352],[65.2849,37.7062],[65.5653,37.5773],[65.8775,37.5773],[66.2196,37.3838],[66.9377,37.4483],[67.2009,37.2549],[67.607,37.3193],[67.8245,37.2549],[67.9476,37.126],[67.9152,36.9971],[68.4275,36.8682],[68.9685,36.546],[69.1402,36.6105],[69.2631,36.4816],[69.8519,36.3528],[70.2564,36.4172],[70.934,36.0308],[71.2606,36.0952],[71.4275,35.8377],[72.5676,35.4514],[72.8238,34.9366],[72.7119,34.4863],[72.418,34.229],[72.4639,34.1004],[72.0485,33.9718],[72.0027,33.7789],[71.8491,33.7789],[71.6971,33.4574],[71.3312,33.2002],[71.3786,33.0716],[71.2254,33.0716],[71.1819,32.8788],[70.9522,32.8788],[70.9576,32.5574],[70.5958,32.3002],[70.4569,32.3645],[70.2627,32.1717],[69.7146,32.1074],[69.6247,32.0431],[69.6742,31.9146],[69.2032,31.8503],[69.1768,31.7218],[67.9333,30.822],[67.7813,30.822],[66.8158,30.1151],[66.5011,30.0508],[66.2286,29.7937],[65.2004,29.5366],[64.6055,29.6009],[64.2921,29.5366],[64.1953,29.4081],[62.228,29.4081],[61.7285,29.6009],[59.8917,28.9581],[59.77,28.6367],[59.6282,28.701],[59.5255,28.5081],[59.5653,28.251],[59.4145,28.251],[59.3883,28.0581],[59.1536,27.9938],[59.0027,27.4152],[58.9274,27.4152],[58.9863,27.2866],[58.871,26.9652],[58.9304,26.8366],[59.1558,26.8366],[59.0419,26.5151],[59.1767,26.3865],[58.9819,26.0008],[59.4486,25.4864],[59.3596,25.3579],[59.0602,25.3579],[58.7817,25.5507],[57.958,25.5507],[57.7402,25.615],[57.6792,25.7436],[57.3795,25.7436],[57.1148,26.0651],[57.0524,26.8366],[56.7147,27.158],[56.1884,27.158],[56.0981,27.0295],[56.3236,27.0295],[56.3086,26.9009],[56.0612,26.708],[55.6034,26.6437],[55.439,26.5151],[55.2209,26.5794],[55.2351,26.708],[54.8316,26.4508],[54.4632,26.5151],[54.2589,26.708],[53.6581,26.708],[53.4606,26.9652],[52.737,27.2223],[52.4787,27.6081],[52.0486,27.8009],[51.4532,27.8652],[51.0662,28.4438],[51.0281,28.7652],[50.809,28.8295],[50.915,29.0867],[50.6203,29.1509],[50.6513,29.4081],[50.2363,29.7294],[50.0648,30.1794],[49.5859,29.9865],[49.0187,30.3079],[49.1106,30.4364],[49.1186,30.5007],[49.2705,30.5007],[49.2867,30.6292],[48.2528,31.4647],[48.1516,32.4288],[47.931,32.4931],[47.966,32.7502],[47.5596,33.1359],[46.6748,33.3931],[46.71,33.6502],[46.1485,34.0361],[46.1752,34.229],[45.9711,34.422],[45.5356,34.615],[45.5034,34.9366],[44.8893,35.5158],[44.3746,35.7089],[44.0323,36.0308],[42.9997,36.4172],[42.9577,36.6749],[43.2182,36.8682],[43.2734,37.2549],[43.4764,37.5773],[44.4545,38.3515],[45.1124,38.5451],[45.6364,38.868],[46.1185,38.9326],[46.5898,38.9326],[47.0394,39.2557],[47.1624,39.0618],[47.1283,38.868],[47.4096,39.1265],[47.5669,39.1265],[47.6224,38.9972],[47.9136,38.868],[48.0822,38.9326],[48.1261,38.7389],[48.283,38.7389],[48.4053,38.5451],[48.4837,38.5451]]],[[[56.0686,37.3193],[55.9906,37.3193],[56.0036,37.3838],[56.0816,37.3838],[56.0686,37.3193]]]]}},{"type":"Feature","properties":{"name":"Janapada of Avanti","color":"#a8c8c8","area":5104,"polity_id":"polity_janapadaofavanti"},"geometry":{"type":"Polygon","coordinates":[[[75.4101,23.3649],[75.304,23.1077],[75.453,23.1077],[75.5708,22.8506],[75.8687,22.8506],[75.8843,22.9791],[76.198,23.1077],[76.23,23.3649],[75.948,23.4934],[75.9643,23.622],[75.666,23.622],[75.4846,23.3649],[75.4101,23.3649]]]}},{"type":"Feature","properties":{"name":"Janapada of Anga","color":"#a8a8c8","area":5578,"polity_id":"polity_janapadaofanga"},"geometry":{"type":"Polygon","coordinates":[[[86.8624,24.6506],[86.7467,24.3935],[87.1101,24.3292],[87.0899,24.2006],[87.3886,24.2006],[87.4088,24.3292],[87.7281,24.4578],[87.7698,24.7149],[87.4919,24.8435],[87.5989,25.0364],[87.2141,24.9721],[87.0223,24.7149],[86.8728,24.7149],[86.8624,24.6506]]]}},{"type":"Feature","properties":{"name":"Mahajanapadas","color":"#a8c8c8","area":80962,"polity_id":"polity_mahajanapadas"},"geometry":{"type":"MultiPolygon","coordinates":[[[[72.7713,33.4574],[72.8177,33.3288],[72.9711,33.3288],[72.9409,33.2002],[73.0942,33.2002],[73.0642,33.0716],[73.3706,33.0716],[73.4008,33.2002],[73.539,33.1359],[73.5846,33.3288],[73.738,33.3288],[73.7997,33.5859],[73.6462,33.5859],[73.6772,33.7146],[73.5236,33.7146],[73.5548,33.8432],[73.3398,33.9075],[73.2164,33.7146],[73.0782,33.7789],[73.032,33.5859],[72.8785,33.5859],[72.848,33.4574],[72.7713,33.4574]]],[[[73.9222,33.4574],[73.8761,33.2645],[74.0294,33.2645],[73.9988,33.1359],[74.1521,33.1359],[74.1216,33.0073],[74.3361,32.943],[74.4586,33.1359],[74.7961,33.2645],[74.8587,33.5217],[74.5831,33.6502],[74.6147,33.7789],[74.3074,33.7789],[74.276,33.6502],[74.0456,33.6502],[74.0912,33.5217],[73.9377,33.5217],[73.9222,33.4574]]],[[[76.8557,28.7652],[76.8065,28.5081],[76.9575,28.5081],[76.9331,28.3795],[77.084,28.3795],[77.0599,28.251],[77.3615,28.251],[77.5612,28.5081],[77.7121,28.5081],[77.762,28.7652],[77.6109,28.7652],[77.6362,28.8938],[77.4851,28.8938],[77.5105,29.0224],[77.2965,29.0867],[76.9313,28.7652],[76.8557,28.7652]]],[[[78.7188,28.251],[78.5947,27.9938],[78.7454,27.9938],[78.7213,27.8652],[78.8719,27.8652],[78.848,27.7367],[79.1492,27.7367],[79.1732,27.8652],[79.4989,27.9938],[79.5483,28.251],[79.2716,28.3795],[79.2968,28.5081],[78.995,28.5081],[78.7942,28.251],[78.7188,28.251]]],[[[75.7158,27.4795],[75.6826,27.2866],[75.833,27.2866],[75.9398,27.0295],[76.2404,27.0295],[76.2622,27.158],[76.5851,27.2866],[76.63,27.5438],[76.3517,27.6724],[76.3862,27.8652],[76.1602,27.8652],[75.8774,27.5438],[75.7269,27.5438],[75.7158,27.4795]]],[[[77.2732,27.3509],[77.2396,27.158],[77.39,27.158],[77.3678,27.0295],[77.5181,27.0295],[77.4961,26.9009],[77.6354,26.8366],[77.7966,26.9009],[77.8187,27.0295],[77.9691,27.0295],[77.9914,27.158],[78.1418,27.158],[78.1874,27.4152],[77.9095,27.5438],[77.9327,27.6724],[77.6316,27.6724],[77.6084,27.5438],[77.2846,27.4152],[77.2732,27.3509]]],[[[81.4737,27.2866],[81.3512,27.0295],[81.5015,27.0295],[81.6052,26.7723],[81.9057,26.7723],[81.9289,26.9009],[82.2531,27.0295],[82.3009,27.2866],[82.0243,27.4152],[82.0488,27.5438],[81.7477,27.5438],[81.5489,27.2866],[81.4737,27.2866]]],[[[85.3485,26.708],[85.3996,26.5794],[85.5498,26.5794],[85.5259,26.4508],[85.676,26.4508],[85.6524,26.3222],[85.9525,26.3222],[85.9762,26.4508],[86.3877,26.6437],[86.3126,26.6437],[86.3494,26.8366],[86.1991,26.8366],[86.2239,26.9652],[86.0736,26.9652],[86.0986,27.0938],[85.7979,27.0938],[85.5982,26.8366],[85.3606,26.7723],[85.3485,26.708]]],[[[83.6847,26.6437],[83.6613,26.5151],[83.8114,26.5151],[83.9154,26.258],[84.204,26.1937],[84.377,26.3222],[84.4119,26.5151],[84.562,26.5151],[84.6096,26.7723],[84.3332,26.9009],[84.3575,27.0295],[84.069,27.0938],[84.0326,26.9009],[83.8824,26.9009],[83.8585,26.7723],[83.6964,26.708],[83.6847,26.6437]]],[[[81.6962,26.0008],[81.6213,26.0008],[81.6105,25.9365],[81.6854,25.9365],[81.6533,25.7436],[81.8153,25.3579],[81.8902,25.3579],[82.1355,25.4864],[82.1565,25.615],[82.3063,25.615],[82.3491,25.8722],[82.071,26.0008],[82.093,26.1294],[81.793,26.1294],[81.7712,26.0008],[81.6962,26.0008]]],[[[81.1933,25.6793],[81.2144,25.8079],[81.5355,25.9365],[81.6854,25.9365],[81.6533,25.7436],[81.8153,25.3579],[81.7405,25.3579],[81.72,25.2293],[81.5805,25.2936],[81.5603,25.165],[81.261,25.165],[81.1519,25.4221],[81.0021,25.4221],[81.1184,25.6793],[81.1933,25.6793]]],[[[82.4561,25.615],[82.3393,25.3579],[82.489,25.3579],[82.5975,25.1007],[82.8968,25.1007],[82.9173,25.2293],[83.2375,25.3579],[83.28,25.615],[83.0019,25.7436],[83.0236,25.8722],[82.7238,25.8722],[82.531,25.615],[82.4561,25.615]]],[[[84.6281,25.615],[84.51,25.3579],[84.6597,25.3579],[84.767,25.1007],[85.0662,25.1007],[85.0874,25.2293],[85.4082,25.3579],[85.452,25.615],[85.1745,25.7436],[85.1969,25.8722],[84.8971,25.8722],[84.703,25.615],[84.6281,25.615]]],[[[86.8624,24.6506],[86.7467,24.3935],[87.1101,24.3292],[87.0899,24.2006],[87.3886,24.2006],[87.4088,24.3292],[87.7281,24.4578],[87.7698,24.7149],[87.4919,24.8435],[87.5989,25.0364],[87.2141,24.9721],[87.0223,24.7149],[86.8728,24.7149],[86.8624,24.6506]]],[[[75.4101,23.3649],[75.304,23.1077],[75.453,23.1077],[75.5708,22.8506],[75.8687,22.8506],[75.8843,22.9791],[76.198,23.1077],[76.23,23.3649],[75.948,23.4934],[75.9643,23.622],[75.666,23.622],[75.4846,23.3649],[75.4101,23.3649]]],[[[77.8114,19.7648],[77.952,19.7005],[77.9296,19.5077],[78.0852,19.5719],[78.0702,19.4434],[78.3663,19.4434],[78.3813,19.5719],[78.6926,19.7005],[78.7969,19.9577],[78.4415,20.0862],[78.4565,20.2148],[78.16,20.2148],[78.1451,20.0862],[77.8338,19.9577],[77.8188,19.8291],[77.8114,19.7648]]]]}},{"type":"Feature","properties":{"name":"Neo-Babylonian Empire","color":"#8cb8d8","area":703602,"polity_id":"polity_neobabylonianempire"},"geometry":{"type":"Polygon","coordinates":[[[43.2807,38.868],[43.2224,38.9972],[42.8981,38.9326],[42.6823,39.0618],[42.005,38.7389],[41.7696,38.7389],[41.7198,38.9326],[41.4842,38.9326],[41.3867,38.8034],[40.8465,38.868],[40.7494,38.7389],[40.1126,38.6743],[40.0162,38.5451],[39.4762,38.6097],[39.1807,38.1578],[38.8677,38.1578],[38.658,38.3515],[38.423,38.3515],[38.3116,38.0933],[38.0688,38.0288],[37.8422,38.0933],[37.5776,38.4806],[37.2802,38.6097],[37.3047,38.8034],[37.2262,38.8034],[36.7472,38.7389],[36.5508,38.416],[36.4175,38.6097],[36.2607,38.6097],[36.0579,38.2224],[35.6442,38.0288],[35.6221,37.8352],[35.3168,37.8998],[35.2242,37.7707],[34.9899,37.7707],[34.9617,37.5128],[34.4086,37.4483],[34.3883,37.2549],[33.2779,37.0615],[33.0971,36.8037],[32.7921,36.8682],[32.7736,36.6749],[32.9945,36.546],[32.9046,36.4172],[33.2091,36.3528],[33.2867,36.3528],[33.8365,36.4172],[33.9015,36.2884],[33.9791,36.2884],[34.2507,36.6749],[34.5816,36.8682],[34.8929,36.8682],[34.9504,36.6749],[35.1127,36.7393],[35.3323,36.6105],[35.4877,36.6105],[35.8336,36.9326],[36.1449,36.9326],[36.2862,36.8037],[36.2649,36.6105],[35.8417,36.2884],[35.9901,36.224],[35.8449,35.5802],[35.9929,35.5158],[35.8825,35.194],[35.9597,35.194],[35.927,34.8723],[36.0682,34.7436],[36.0488,34.5506],[35.7921,34.2933],[35.6445,34.3577],[35.6838,33.9718],[35.447,33.9075],[35.4993,33.6502],[35.3458,33.6502],[35.3984,33.3931],[35.2154,33.0716],[35.0563,33.0073],[35.0218,32.6216],[34.7698,32.3645],[34.813,31.9789],[34.5733,31.8503],[34.6334,31.6575],[34.3076,31.4005],[34.2972,31.2719],[33.7493,31.0791],[33.2929,31.0791],[33.5734,29.7294],[33.7824,29.4723],[33.769,29.2795],[33.9781,29.0224],[34.1614,28.3795],[34.4419,28.0581],[34.5173,28.0581],[34.7523,29.2795],[34.9129,29.4081],[34.8535,28.5724],[34.6054,28.251],[34.5927,28.0581],[35.0492,28.1224],[35.2666,27.9938],[35.5559,28.8938],[35.7117,28.9581],[35.6503,29.1509],[35.8063,29.2152],[35.7749,29.7937],[35.8506,29.7937],[36.0697,30.6292],[36.4009,30.9506],[36.2709,31.2076],[36.4231,31.2076],[36.3866,31.6575],[36.6623,32.1717],[36.5155,32.236],[36.7507,32.3002],[36.7168,32.7502],[36.901,33.0716],[37.0542,33.0716],[37.0732,33.2645],[37.5726,33.6502],[37.7261,33.6502],[37.7395,33.7789],[37.9902,33.9718],[39.1238,34.4863],[40.2569,34.2933],[40.4033,34.229],[40.3115,34.1004],[40.7036,34.1647],[40.9117,33.9718],[41.2116,33.9075],[41.2733,33.7789],[41.427,33.7789],[41.4886,33.6502],[42.0031,33.4574],[42.0645,33.3288],[42.5783,33.1359],[42.7085,32.943],[43.1526,32.8145],[44.459,31.5933],[44.5814,31.3362],[44.9546,31.2719],[45.7705,30.4364],[46.5906,30.3079],[46.6151,29.858],[46.8497,29.9223],[46.994,29.858],[46.9794,29.7294],[47.2897,29.7937],[47.8662,29.5366],[48.4035,29.6009],[48.3654,29.9223],[48.9873,30.0508],[48.9428,30.3079],[49.0427,30.5007],[49.2705,30.5007],[49.2867,30.6292],[48.2528,31.4647],[48.1516,32.4288],[47.931,32.4931],[47.966,32.7502],[47.5596,33.1359],[46.6748,33.3931],[46.71,33.6502],[46.1485,34.0361],[46.1752,34.229],[45.9711,34.422],[45.5356,34.615],[45.5034,34.9366],[44.8893,35.5158],[44.3746,35.7089],[44.0323,36.0308],[42.9997,36.4172],[42.9577,36.6749],[43.2182,36.8682],[43.2734,37.2549],[43.4764,37.5773],[44.4545,38.3515],[43.2807,38.868]]]}},{"type":"Feature","properties":{"name":"Janapada of Magadha","color":"#a8b8c8","area":5040,"polity_id":"polity_janapadaofmagadha"},"geometry":{"type":"Polygon","coordinates":[[[84.6281,25.615],[84.51,25.3579],[84.6597,25.3579],[84.767,25.1007],[85.0662,25.1007],[85.0874,25.2293],[85.4082,25.3579],[85.452,25.615],[85.1745,25.7436],[85.1969,25.8722],[84.8971,25.8722],[84.703,25.615],[84.6281,25.615]]]}},{"type":"Feature","properties":{"name":"Janapada of Malla","color":"#a8c8c8","area":5486,"polity_id":"polity_janapadaofmalla"},"geometry":{"type":"Polygon","coordinates":[[[83.6847,26.6437],[83.6613,26.5151],[83.8114,26.5151],[83.9154,26.258],[84.204,26.1937],[84.377,26.3222],[84.4119,26.5151],[84.562,26.5151],[84.6096,26.7723],[84.3332,26.9009],[84.3575,27.0295],[84.069,27.0938],[84.0326,26.9009],[83.8824,26.9009],[83.8585,26.7723],[83.6964,26.708],[83.6847,26.6437]]]}},{"type":"Feature","properties":{"name":"Janapada of Aśmaka","color":"#c8c8a8","area":5467,"polity_id":"polity_janapadaofasmaka"},"geometry":{"type":"Polygon","coordinates":[[[77.8114,19.7648],[77.952,19.7005],[77.9296,19.5077],[78.0852,19.5719],[78.0702,19.4434],[78.3663,19.4434],[78.3813,19.5719],[78.6926,19.7005],[78.7969,19.9577],[78.4415,20.0862],[78.4565,20.2148],[78.16,20.2148],[78.1451,20.0862],[77.8338,19.9577],[77.8188,19.8291],[77.8114,19.7648]]]}},{"type":"Feature","properties":{"name":"Janapada of Vajji","color":"#c8a8a8","area":5163,"polity_id":"polity_janapadaofvajji"},"geometry":{"type":"Polygon","coordinates":[[[85.3485,26.708],[85.3996,26.5794],[85.5498,26.5794],[85.5259,26.4508],[85.676,26.4508],[85.6524,26.3222],[85.9525,26.3222],[85.9762,26.4508],[86.3877,26.6437],[86.3126,26.6437],[86.3494,26.8366],[86.1991,26.8366],[86.2239,26.9652],[86.0736,26.9652],[86.0986,27.0938],[85.7979,27.0938],[85.5982,26.8366],[85.3606,26.7723],[85.3485,26.708]]]}},{"type":"Feature","properties":{"name":"Janapada of Cedī","color":"#a8b8c8","area":4396,"polity_id":"polity_janapadaofcedi"},"geometry":{"type":"Polygon","coordinates":[[[81.1933,25.6793],[81.2144,25.8079],[81.5355,25.9365],[81.6854,25.9365],[81.6533,25.7436],[81.8153,25.3579],[81.7405,25.3579],[81.72,25.2293],[81.5805,25.2936],[81.5603,25.165],[81.261,25.165],[81.1519,25.4221],[81.0021,25.4221],[81.1184,25.6793],[81.1933,25.6793]]]}},{"type":"Feature","properties":{"name":"Janapada of Kuru","color":"#b8a8c8","area":5232,"polity_id":"polity_janapadaofkuru"},"geometry":{"type":"Polygon","coordinates":[[[76.8557,28.7652],[76.8065,28.5081],[76.9575,28.5081],[76.9331,28.3795],[77.084,28.3795],[77.0599,28.251],[77.3615,28.251],[77.5612,28.5081],[77.7121,28.5081],[77.762,28.7652],[77.6109,28.7652],[77.6362,28.8938],[77.4851,28.8938],[77.5105,29.0224],[77.2965,29.0867],[76.9313,28.7652],[76.8557,28.7652]]]}},{"type":"Feature","properties":{"name":"Janapada of Kosala","color":"#b8a8c8","area":4990,"polity_id":"polity_janapadaofkosala"},"geometry":{"type":"Polygon","coordinates":[[[81.4737,27.2866],[81.3512,27.0295],[81.5015,27.0295],[81.6052,26.7723],[81.9057,26.7723],[81.9289,26.9009],[82.2531,27.0295],[82.3009,27.2866],[82.0243,27.4152],[82.0488,27.5438],[81.7477,27.5438],[81.5489,27.2866],[81.4737,27.2866]]]}},{"type":"Feature","properties":{"name":"Janapada of Matsya","color":"#b8a8c8","area":5220,"polity_id":"polity_janapadaofmatsya"},"geometry":{"type":"Polygon","coordinates":[[[75.7158,27.4795],[75.6826,27.2866],[75.833,27.2866],[75.9398,27.0295],[76.2404,27.0295],[76.2622,27.158],[76.5851,27.2866],[76.63,27.5438],[76.3517,27.6724],[76.3862,27.8652],[76.1602,27.8652],[75.8774,27.5438],[75.7269,27.5438],[75.7158,27.4795]]]}},{"type":"Feature","properties":{"name":"Janapada of Surasena","color":"#c8c8a8","area":5199,"polity_id":"polity_janapadaofsurasena"},"geometry":{"type":"Polygon","coordinates":[[[77.2732,27.3509],[77.2396,27.158],[77.39,27.158],[77.3678,27.0295],[77.5181,27.0295],[77.4961,26.9009],[77.6354,26.8366],[77.7966,26.9009],[77.8187,27.0295],[77.9691,27.0295],[77.9914,27.158],[78.1418,27.158],[78.1874,27.4152],[77.9095,27.5438],[77.9327,27.6724],[77.6316,27.6724],[77.6084,27.5438],[77.2846,27.4152],[77.2732,27.3509]]]}},{"type":"Feature","properties":{"name":"Janapada of Pañcāla","color":"#a8a8c8","area":4959,"polity_id":"polity_janapadaofpancala"},"geometry":{"type":"Polygon","coordinates":[[[78.7188,28.251],[78.5947,27.9938],[78.7454,27.9938],[78.7213,27.8652],[78.8719,27.8652],[78.848,27.7367],[79.1492,27.7367],[79.1732,27.8652],[79.4989,27.9938],[79.5483,28.251],[79.2716,28.3795],[79.2968,28.5081],[78.995,28.5081],[78.7942,28.251],[78.7188,28.251]]]}},{"type":"Feature","properties":{"name":"Janapada of Vatsa","color":"#a8a8c8","area":4015,"polity_id":"polity_janapadaofvatsa"},"geometry":{"type":"Polygon","coordinates":[[[81.6962,26.0008],[81.6213,26.0008],[81.6105,25.9365],[81.6854,25.9365],[81.6533,25.7436],[81.8153,25.3579],[81.8902,25.3579],[82.1355,25.4864],[82.1565,25.615],[82.3063,25.615],[82.3491,25.8722],[82.071,26.0008],[82.093,26.1294],[81.793,26.1294],[81.7712,26.0008],[81.6962,26.0008]]]}},{"type":"Feature","properties":{"name":"Janapada of Gandhāra","color":"#c8a8a8","area":4988,"polity_id":"polity_janapadaofgandhara"},"geometry":{"type":"Polygon","coordinates":[[[73.9222,33.4574],[73.8761,33.2645],[74.0294,33.2645],[73.9988,33.1359],[74.1521,33.1359],[74.1216,33.0073],[74.3361,32.943],[74.4586,33.1359],[74.7961,33.2645],[74.8587,33.5217],[74.5831,33.6502],[74.6147,33.7789],[74.3074,33.7789],[74.276,33.6502],[74.0456,33.6502],[74.0912,33.5217],[73.9377,33.5217],[73.9222,33.4574]]]}},{"type":"Feature","properties":{"name":"Janapada of Kāśī","color":"#c8b8a8","area":5040,"polity_id":"polity_janapadaofkasi"},"geometry":{"type":"Polygon","coordinates":[[[82.4561,25.615],[82.3393,25.3579],[82.489,25.3579],[82.5975,25.1007],[82.8968,25.1007],[82.9173,25.2293],[83.2375,25.3579],[83.28,25.615],[83.0019,25.7436],[83.0236,25.8722],[82.7238,25.8722],[82.531,25.615],[82.4561,25.615]]]}},{"type":"Feature","properties":{"name":"Janapada of Kamboja","color":"#a8a8c8","area":5087,"polity_id":"polity_janapadaofkamboja"},"geometry":{"type":"Polygon","coordinates":[[[72.7713,33.4574],[72.8177,33.3288],[72.9711,33.3288],[72.9409,33.2002],[73.0942,33.2002],[73.0642,33.0716],[73.3706,33.0716],[73.4008,33.2002],[73.539,33.1359],[73.5846,33.3288],[73.738,33.3288],[73.7997,33.5859],[73.6462,33.5859],[73.6772,33.7146],[73.5236,33.7146],[73.5548,33.8432],[73.3398,33.9075],[73.2164,33.7146],[73.0782,33.7789],[73.032,33.5859],[72.8785,33.5859],[72.848,33.4574],[72.7713,33.4574]]]}},{"type":"Feature","properties":{"name":"Phoenicia","label":1,"area":23742},"geometry":{"type":"Point","coordinates":[8.959311702127662,36.389527659574455]}},{"type":"Feature","properties":{"name":"Kingdom of Kush","label":1,"area":336379},"geometry":{"type":"Point","coordinates":[32.87224423076923,19.62137692307692]}},{"type":"Feature","properties":{"name":"Kingdom of Urartu","label":1,"area":154709},"geometry":{"type":"Point","coordinates":[41.65608095238095,39.554088888888884]}},{"type":"Feature","properties":{"name":"Sabaeans","label":1,"area":55243},"geometry":{"type":"Point","coordinates":[44.46198000000001,16.171137500000004]}},{"type":"Feature","properties":{"name":"Greek City-States","label":1,"area":167305},"geometry":{"type":"Point","coordinates":[23.84301089324621,38.342226143790874]}},{"type":"Feature","properties":{"name":"Jin","label":1,"area":136495},"geometry":{"type":"Point","coordinates":[113.81385434782612,36.972217391304355]}},{"type":"Feature","properties":{"name":"Chu","label":1,"area":353292},"geometry":{"type":"Point","coordinates":[113.28091666666663,32.493359259259265]}},{"type":"Feature","properties":{"name":"Qin","label":1,"area":56478},"geometry":{"type":"Point","coordinates":[110.10289565217393,35.398539130434784]}},{"type":"Feature","properties":{"name":"Etruscans","label":1,"area":49092},"geometry":{"type":"Point","coordinates":[12.301914285714288,42.60060357142856]}},{"type":"Feature","properties":{"name":"Spring and Autumn States","label":1,"area":1008534},"geometry":{"type":"Point","coordinates":[116.13235560344827,34.9094443965517]}},{"type":"Feature","properties":{"name":"Qi","label":1,"area":102632},"geometry":{"type":"Point","coordinates":[119.10229245283023,37.38048490566037]}},{"type":"Feature","properties":{"name":"Song","label":1,"area":22944},"geometry":{"type":"Point","coordinates":[116.08952272727274,34.7729090909091]}},{"type":"Feature","properties":{"name":"Teng","label":1,"area":4225},"geometry":{"type":"Point","coordinates":[116.60383846153846,35.16431538461538]}},{"type":"Feature","properties":{"name":"Chen","label":1,"area":4972},"geometry":{"type":"Point","coordinates":[114.5601909090909,34.544781818181825]}},{"type":"Feature","properties":{"name":"Wey","label":1,"area":6979},"geometry":{"type":"Point","coordinates":[114.809125,35.837725]}},{"type":"Feature","properties":{"name":"Cao","label":1,"area":3840},"geometry":{"type":"Point","coordinates":[114.76248571428572,35.451457142857144]}},{"type":"Feature","properties":{"name":"Lu","label":1,"area":43470},"geometry":{"type":"Point","coordinates":[117.73914444444446,35.57489444444444]}},{"type":"Feature","properties":{"name":"Zheng","label":1,"area":5553},"geometry":{"type":"Point","coordinates":[114.01100000000001,35.16720833333333]}},{"type":"Feature","properties":{"name":"Cai","label":1,"area":3733},"geometry":{"type":"Point","coordinates":[113.45162916666668,34.681966666666675]}},{"type":"Feature","properties":{"name":"Zhu","label":1,"area":6449},"geometry":{"type":"Point","coordinates":[117.49193,35.32272999999999]}},{"type":"Feature","properties":{"name":"Yan","label":1,"area":49599},"geometry":{"type":"Point","coordinates":[117.84775769230767,39.39773846153847]}},{"type":"Feature","properties":{"name":"Later Zhou","label":1,"area":9656},"geometry":{"type":"Point","coordinates":[112.78876000000001,34.84227333333333]}},{"type":"Feature","properties":{"name":"Xu","label":1,"area":4786},"geometry":{"type":"Point","coordinates":[117.31982222222223,34.71503333333333]}},{"type":"Feature","properties":{"name":"Wu","label":1,"area":193430},"geometry":{"type":"Point","coordinates":[119.55749540229888,31.906694252873553]}},{"type":"Feature","properties":{"name":"Hadhramaut","label":1,"area":85919},"geometry":{"type":"Point","coordinates":[48.66662142857143,15.90295357142857]}},{"type":"Feature","properties":{"name":"Lydia","label":1,"area":256101},"geometry":{"type":"Point","coordinates":[30.530242857142856,39.551467857142846]}},{"type":"Feature","properties":{"name":"Olmec Civilization","label":1,"area":17603},"geometry":{"type":"Point","coordinates":[-94.67765238095235,18.319876190476197]}},{"type":"Feature","properties":{"name":"Scythia","label":1,"area":1687900},"geometry":{"type":"Point","coordinates":[42.38667094594596,46.0912304054054]}},{"type":"Feature","properties":{"name":"Carthage","label":1,"area":12267},"geometry":{"type":"Point","coordinates":[10.326658064516128,36.328045161290326]}},{"type":"Feature","properties":{"name":"Twenty-sixth Dynasty of Egypt","label":1,"area":452849},"geometry":{"type":"Point","coordinates":[31.92353595505618,28.159698876404512]}},{"type":"Feature","properties":{"name":"Median Kingdom","label":1,"area":2243378},"geometry":{"type":"Point","coordinates":[57.65752076502733,33.008102732240445]}},{"type":"Feature","properties":{"name":"Janapada of Avanti","label":1,"area":5104},"geometry":{"type":"Point","coordinates":[75.74848333333334,23.236291666666663]}},{"type":"Feature","properties":{"name":"Janapada of Anga","label":1,"area":5578},"geometry":{"type":"Point","coordinates":[87.25418461538463,24.5814]}},{"type":"Feature","properties":{"name":"Mahajanapadas","label":1,"area":80962},"geometry":{"type":"Point","coordinates":[79.81362803347284,27.139556903765644]}},{"type":"Feature","properties":{"name":"Neo-Babylonian Empire","label":1,"area":703602},"geometry":{"type":"Point","coordinates":[38.894066666666646,34.196990960452005]}},{"type":"Feature","properties":{"name":"Janapada of Magadha","label":1,"area":5040},"geometry":{"type":"Point","coordinates":[84.96250833333333,25.48645]}},{"type":"Feature","properties":{"name":"Janapada of Malla","label":1,"area":5486},"geometry":{"type":"Point","coordinates":[84.09168125000001,26.659787499999993]}},{"type":"Feature","properties":{"name":"Janapada of Aśmaka","label":1,"area":5467},"geometry":{"type":"Point","coordinates":[78.19607999999998,19.803373333333333]}},{"type":"Feature","properties":{"name":"Janapada of Vajji","label":1,"area":5163},"geometry":{"type":"Point","coordinates":[85.86013888888888,26.697283333333328]}},{"type":"Feature","properties":{"name":"Janapada of Cedī","label":1,"area":4396},"geometry":{"type":"Point","coordinates":[81.44513571428571,25.514]}},{"type":"Feature","properties":{"name":"Janapada of Kuru","label":1,"area":5232},"geometry":{"type":"Point","coordinates":[77.28524999999999,28.64068125]}},{"type":"Feature","properties":{"name":"Janapada of Kosala","label":1,"area":4990},"geometry":{"type":"Point","coordinates":[81.80749166666668,27.15805]}},{"type":"Feature","properties":{"name":"Janapada of Matsya","label":1,"area":5220},"geometry":{"type":"Point","coordinates":[76.10702307692308,27.43003846153846]}},{"type":"Feature","properties":{"name":"Janapada of Surasena","label":1,"area":5199},"geometry":{"type":"Point","coordinates":[77.67733333333335,27.222338888888885]}},{"type":"Feature","properties":{"name":"Janapada of Pañcāla","label":1,"area":4959},"geometry":{"type":"Point","coordinates":[79.01623571428571,28.085649999999998]}},{"type":"Feature","properties":{"name":"Janapada of Vatsa","label":1,"area":4015},"geometry":{"type":"Point","coordinates":[81.90985333333333,25.812200000000004]}},{"type":"Feature","properties":{"name":"Janapada of Gandhāra","label":1,"area":4988},"geometry":{"type":"Point","coordinates":[74.25914117647059,33.39308235294117]}},{"type":"Feature","properties":{"name":"Janapada of Kāśī","label":1,"area":5040},"geometry":{"type":"Point","coordinates":[82.79115,25.48645]}},{"type":"Feature","properties":{"name":"Janapada of Kamboja","label":1,"area":5087},"geometry":{"type":"Point","coordinates":[73.26758181818181,33.460304545454555]}}]}