{"type":"FeatureCollection","features":[{"type":"Feature","properties":{"name":"Elam","color":"#b0a8d8","area":19288,"polity_id":"polity_elam"},"geometry":{"type":"Polygon","coordinates":[[[48.82,31.7218],[49.1009,32.1074],[49.2761,32.8145],[49.0464,32.8145],[48.9881,32.943],[48.6818,32.943],[48.5467,33.0716],[48.087,33.0716],[47.7868,32.5574],[47.7437,32.236],[47.5909,32.236],[47.6419,32.0431],[47.9134,31.7861],[47.7875,31.4005],[48.8114,31.6575],[48.82,31.7218]]]}},{"type":"Feature","properties":{"name":"Assyria","color":"#c8a06a","area":25473,"polity_id":"polity_assyria"},"geometry":{"type":"Polygon","coordinates":[[[44.7077,35.3227],[44.8301,35.6445],[44.7025,35.8377],[45.0124,35.8377],[45.0309,35.9664],[44.6026,36.224],[44.6211,36.3528],[44.3975,36.4172],[44.3571,36.6749],[44.2793,36.6749],[43.6029,36.2884],[43.4121,36.0308],[43.4456,35.7089],[42.9553,35.5158],[42.8356,35.194],[42.9129,35.194],[42.8877,35.001],[43.4451,35.1297],[43.8741,34.8723],[44.2512,34.8079],[44.5164,34.4863],[44.6705,34.4863],[44.842,34.615],[44.972,35.001],[44.6037,35.1297],[44.6987,35.2584],[44.7077,35.3227]]]}},{"type":"Feature","properties":{"name":"Babylonia","color":"#8cb8d8","area":25192,"polity_id":"polity_babylonia"},"geometry":{"type":"Polygon","coordinates":[[[45.8703,31.9146],[45.818,32.1074],[45.6131,32.3002],[45.4603,32.3002],[45.1948,32.6216],[44.6754,32.7502],[44.579,33.2002],[44.4256,33.2002],[44.1636,32.943],[44.2163,32.7502],[43.918,32.8145],[43.8258,32.6859],[43.4356,32.6216],[43.4202,32.4931],[44.459,31.5933],[44.5814,31.3362],[44.8098,31.3362],[45.0158,31.1434],[45.1754,31.2076],[45.1526,31.6575],[45.9753,31.529],[45.9386,31.8503],[45.8623,31.8503],[45.8703,31.9146]]]}},{"type":"Feature","properties":{"name":"New Kingdom of Egypt","color":"#7fb8a0","area":340593,"polity_id":"polity_newkingdomofegypt"},"geometry":{"type":"Polygon","coordinates":[[[32.2372,31.2076],[32.3039,31.0791],[31.9996,31.0791],[31.9374,31.2719],[31.7806,31.2076],[31.8752,31.4647],[31.2658,31.4647],[31.118,31.529],[31.2033,31.6575],[30.9746,31.6575],[30.9656,31.529],[30.8088,31.4647],[30.3517,31.4647],[30.2712,31.4005],[30.3388,31.2719],[29.882,31.2719],[29.8018,31.2076],[29.8696,31.0791],[29.6332,30.9506],[29.4851,31.0148],[29.3971,30.822],[28.865,30.822],[28.6447,30.9506],[28.9143,30.3722],[28.9568,29.7937],[29.0326,29.7937],[28.997,29.1509],[28.9214,29.1509],[28.9597,28.4438],[28.8023,28.3153],[28.7047,27.8652],[28.5479,27.7367],[28.6051,27.3509],[28.3564,26.8366],[28.2489,26.0651],[28.2886,25.165],[28.6412,24.5864],[29.6728,24.2006],[29.9595,23.8792],[30.1087,23.8792],[30.104,23.7506],[30.3952,23.5577],[30.4627,23.3649],[30.5372,23.3649],[31.6705,23.7506],[32.0409,23.6863],[33.4636,23.8149],[33.4664,23.8792],[33.3228,24.0077],[33.2742,24.5864],[33.1995,24.5864],[33.1973,26.0651],[33.1223,26.0651],[33.0783,26.6437],[32.8636,26.8366],[32.5276,27.5438],[32.5973,28.701],[32.7647,28.9581],[32.4287,29.6009],[32.4416,29.7937],[32.6019,29.9223],[32.5573,30.3722],[32.7137,30.4364],[32.6469,30.565],[32.8081,30.6935],[32.7509,30.9506],[32.8364,31.0791],[32.5322,31.0791],[32.3133,31.2076],[32.2372,31.2076]]]}},{"type":"Feature","properties":{"name":"Phoenicia","color":"#7fb8c8","area":12908,"polity_id":"polity_phoenicia"},"geometry":{"type":"Polygon","coordinates":[[[36.2476,34.229],[36.3767,34.7436],[36.1782,35.0653],[36.3393,35.1297],[36.4071,35.7733],[36.2522,35.7733],[36.1884,35.902],[35.8784,35.902],[35.8449,35.5802],[35.9929,35.5158],[35.8825,35.194],[35.9597,35.194],[35.927,34.8723],[36.0682,34.7436],[36.0488,34.5506],[35.7921,34.2933],[35.6445,34.3577],[35.6838,33.9718],[35.447,33.9075],[35.4993,33.6502],[35.3458,33.6502],[35.3984,33.3931],[35.2272,33.2002],[35.3686,33.0716],[35.4452,33.0716],[35.6992,33.3288],[35.8526,33.3288],[35.8587,33.3931],[36.1074,33.5859],[36.0493,33.7789],[36.203,33.7789],[36.1514,34.0361],[36.2411,34.1647],[36.2476,34.229]]]}},{"type":"Feature","properties":{"name":"Philistia","color":"#c88ca0","area":7583,"polity_id":"polity_philistia"},"geometry":{"type":"Polygon","coordinates":[[[34.9115,31.3362],[34.4289,31.0148],[34.287,31.1434],[34.3076,31.4005],[34.6334,31.6575],[34.5733,31.8503],[34.813,31.9789],[34.7698,32.3645],[35.0218,32.6216],[35.0563,33.0073],[35.2213,33.1359],[35.3686,33.0716],[35.4452,33.0716],[35.2397,32.4931],[35.0812,32.4288],[35.0643,32.236],[35.1406,32.236],[35.031,31.8503],[34.8675,31.7218],[34.8567,31.5933],[35.0038,31.529],[34.9877,31.3362],[34.9115,31.3362]]]}},{"type":"Feature","properties":{"name":"Greek Dark Ages","color":"#b8a8c8","area":58455,"polity_id":"polity_greekdarkages"},"geometry":{"type":"MultiPolygon","coordinates":[[[[34.5421,35.7089],[34.5294,35.5802],[33.9571,35.2584],[34.0873,35.001],[33.6954,34.9366],[33.5234,34.7436],[33.1321,34.6793],[33.0436,34.5506],[32.3667,34.7436],[32.229,34.9366],[32.2458,35.1297],[32.5547,35.1297],[32.8752,35.2584],[32.8869,35.3871],[33.7374,35.3871],[34.4647,35.7089],[34.5421,35.7089]]],[[[24.3747,35.2584],[23.6792,35.2584],[23.6154,35.5158],[24.1569,35.5158],[24.1499,35.3871],[24.301,35.3227],[25.6923,35.3227],[25.6806,35.1297],[26.2253,35.194],[26.1401,35.0653],[25.3641,35.001],[24.8237,35.001],[24.7574,35.194],[24.3712,35.194],[24.3747,35.2584]]],[[[28.2502,36.4816],[28.1393,36.0308],[27.7426,35.902],[27.6925,36.2884],[28.1725,36.4816],[28.2502,36.4816]]],[[[27.19,36.8682],[27.0208,36.6749],[26.8653,36.6749],[26.9566,36.8682],[27.1946,36.9326],[27.19,36.8682]]],[[[25.5727,37.126],[25.5644,36.9971],[25.3308,36.9971],[25.339,37.126],[25.4948,37.126],[25.5727,37.126]]],[[[27.6759,37.126],[27.7538,37.126],[27.6663,36.9971],[27.1946,36.9326],[27.2085,37.126],[27.598,37.126],[27.6759,37.126]]],[[[23.0254,38.9326],[22.9356,38.7389],[23.1672,38.6743],[23.3126,38.4806],[23.6261,38.4806],[23.5634,38.7389],[24.0302,38.6743],[24.1789,38.5451],[24.1587,38.2224],[24.0021,38.2224],[23.9786,37.8352],[23.4428,38.0288],[23.2082,38.0288],[23.2008,37.8998],[23.0445,37.8998],[23.1083,37.6417],[23.3425,37.6417],[23.4024,37.3193],[23.1685,37.3193],[23.1756,37.4483],[22.9486,37.5773],[22.7144,37.5773],[22.7007,37.3193],[22.8532,37.2549],[23.056,36.6749],[22.8328,36.8682],[22.5994,36.8682],[22.5118,36.6749],[22.3563,36.6749],[22.22,37.0615],[21.9085,37.0615],[21.8992,36.8682],[21.7435,36.8682],[21.681,37.1904],[21.6031,37.1904],[21.6966,37.5128],[21.2436,37.8352],[21.4156,38.1578],[21.7286,38.1578],[21.7384,38.3515],[21.2716,38.416],[21.278,38.5451],[21.6015,38.7389],[21.912,38.6743],[22.3863,38.7389],[22.5505,38.868],[22.5615,39.0618],[22.344,39.385],[22.5877,39.5143],[22.5319,39.9023],[22.6227,40.0964],[22.7017,40.0964],[22.6109,39.9023],[22.7648,39.8376],[22.7569,39.7083],[23.1352,39.4496],[22.8163,39.385],[22.7973,39.0618],[23.1155,39.1265],[23.1078,38.9972],[23.3435,38.9972],[23.4888,38.8034],[23.104,38.9326],[23.0254,38.9326]],[[22.4399,38.2869],[22.4329,38.1578],[22.5895,38.1578],[22.6572,37.9643],[22.9699,37.9643],[22.9061,38.2224],[22.746,38.1578],[22.8351,38.3515],[22.5147,38.2224],[22.6036,38.416],[22.2902,38.416],[22.3616,38.2869],[22.4399,38.2869]]],[[[26.1436,38.6097],[26.1941,38.2224],[25.8764,38.1578],[25.8299,38.6097],[26.0652,38.6097],[26.1436,38.6097]]],[[[23.4888,38.8034],[23.5673,38.8034],[23.5634,38.7389],[23.4849,38.7389],[23.4888,38.8034]]]]}},{"type":"Feature","properties":{"name":"Zhou Dynasty","color":"#b8a8c8","area":699210,"polity_id":"polity_zhoudynasty"},"geometry":{"type":"MultiPolygon","coordinates":[[[[117.6425,38.868],[117.6025,38.4806],[118.0536,38.2869],[118.0674,38.1578],[118.583,38.0933],[118.6476,38.2224],[118.8042,38.2224],[118.7718,38.1578],[119.4571,37.9643],[119.3928,37.8352],[119.2366,37.8352],[118.984,37.3193],[119.14,37.3193],[119.1557,37.1904],[119.7011,37.1904],[119.8266,37.4483],[120.2022,37.5773],[120.1881,37.7062],[120.7538,37.8998],[121.112,37.8352],[121.171,37.6417],[121.4833,37.6417],[121.4969,37.5128],[122.1535,37.5773],[122.1211,37.5128],[122.7129,37.4483],[122.4742,37.126],[122.5664,36.9971],[122.3939,36.8037],[121.9121,36.9326],[121.2121,36.6105],[120.9789,36.6105],[120.9648,36.4172],[120.7318,36.4172],[120.6585,36.0952],[120.3185,36.0308],[119.9865,35.6445],[119.6187,35.5158],[119.2276,34.8079],[119.459,34.8079],[119.4309,34.7436],[119.7113,34.6793],[119.7323,34.5506],[120.3418,34.3577],[120.4894,34.1647],[120.5505,33.5859],[120.9263,33.2002],[120.9192,32.6216],[121.4026,32.4931],[121.5033,32.1717],[121.9613,31.9789],[121.9368,31.7218],[121.8356,31.6575],[121.3005,31.8503],[120.9191,31.8503],[121.6335,31.529],[121.4836,31.3362],[120.75,31.2076],[120.2896,31.4005],[119.3517,31.3362],[119.2474,31.4647],[119.1233,31.3362],[118.9187,31.4005],[118.7949,31.2719],[118.1155,31.0791],[116.0776,31.3362],[115.8957,31.4647],[115.9426,31.5933],[115.714,31.5933],[115.6798,31.9146],[115.4748,31.9789],[115.5228,32.1074],[115.0932,31.9789],[114.8881,32.0431],[114.7832,32.1717],[114.8313,32.3002],[114.6785,32.3002],[114.6505,32.4288],[114.3932,32.5574],[114.1396,32.4931],[114.0075,32.7502],[114.0294,33.0073],[113.7503,32.8788],[113.4932,33.0073],[112.9326,32.943],[112.7517,33.0716],[111.6756,33.2645],[111.596,33.4574],[111.2097,33.6502],[111.1058,33.7789],[111.1558,33.9075],[111.0021,33.9075],[111.0775,34.1004],[110.7171,34.3577],[110.7681,34.4863],[110.6653,34.615],[108.1988,34.615],[107.3737,34.8723],[107.3468,35.001],[107.0884,35.1297],[107.139,35.2584],[106.9845,35.2584],[107.3966,35.902],[107.7328,35.9664],[108.9996,36.0308],[109.1788,35.902],[109.438,35.9664],[109.3846,35.8377],[110.5971,35.7733],[110.81,36.0952],[111.0426,36.0952],[112.2793,37.3193],[113.5447,38.9972],[114.5355,39.7083],[114.9186,39.8376],[116.181,39.8376],[117.0305,40.0964],[117.2945,40.2906],[117.5318,40.2906],[117.4608,40.1612],[117.6625,40.0964],[117.6011,39.8376],[117.7241,39.7729],[117.7095,39.4496],[117.867,39.4496],[117.8328,39.385],[117.9902,39.385],[118.0795,39.2557],[117.776,39.1265],[117.6757,38.9326],[117.6425,38.868]]],[[[110.965,36.0952],[110.8875,36.0952],[110.9148,36.1596],[110.9924,36.1596],[110.965,36.0952]]]]}},{"type":"Feature","properties":{"name":"Kingdom of Israel","color":"#a0a85a","area":20072,"polity_id":"polity_kingdomofisrael"},"geometry":{"type":"Polygon","coordinates":[[[36.2688,32.0431],[36.0398,32.0431],[35.8987,32.1717],[35.9103,32.3002],[36.3101,32.4931],[36.1751,32.6859],[35.9515,32.7502],[36.0765,33.2645],[35.9292,33.3288],[35.6992,33.3288],[35.4452,33.0716],[35.2397,32.4931],[35.0812,32.4288],[35.0643,32.236],[35.1406,32.236],[35.031,31.8503],[34.8675,31.7218],[34.8567,31.5933],[35.0038,31.529],[34.9877,31.3362],[35.0638,31.3362],[35.3792,31.4647],[35.9831,31.4005],[36.0704,31.529],[36.598,31.4647],[36.7736,31.7218],[36.6328,31.8503],[36.2572,31.9146],[36.3451,32.0431],[36.2688,32.0431]]]}},{"type":"Feature","properties":{"name":"Kingdom of Kush","color":"#a08ad8","area":336379,"polity_id":"polity_kingdomofkush"},"geometry":{"type":"Polygon","coordinates":[[[33.8378,22.0791],[33.7635,22.0791],[33.8352,22.0148],[33.7453,21.6291],[33.8196,21.6291],[34.2575,19.6362],[34.4687,19.3791],[34.5974,18.9291],[34.8792,18.6076],[34.939,18.2862],[35.2998,18.0933],[35.5013,17.6433],[36.0033,17.3219],[36.0539,16.8076],[35.6713,16.4861],[34.7137,16.4861],[34.5556,16.229],[34.6843,15.779],[34.0981,15.8433],[33.8621,15.4575],[32.5286,15.2004],[32.5334,15.329],[32.0944,15.3933],[31.7337,15.5861],[31.527,15.9718],[31.5364,16.229],[31.3939,16.3576],[31.4771,16.6147],[31.337,16.8076],[31.2208,17.6433],[31.147,17.6433],[30.8768,20.3434],[30.8026,20.3434],[30.8184,20.7934],[30.7442,20.7934],[30.7621,21.3077],[30.6879,21.3077],[30.6358,21.9505],[30.5615,21.9505],[30.7214,22.272],[30.742,22.8506],[30.5349,23.3006],[30.5372,23.3649],[31.6705,23.7506],[32.0409,23.6863],[33.4636,23.8149],[33.5382,23.8149],[33.7535,23.622],[33.8087,23.172],[33.8832,23.172],[33.8404,22.1434],[33.8378,22.0791]]]}},{"type":"Feature","properties":{"name":"Elam","label":1,"area":19288},"geometry":{"type":"Point","coordinates":[48.38817333333334,32.36026666666667]}},{"type":"Feature","properties":{"name":"Assyria","label":1,"area":25473},"geometry":{"type":"Point","coordinates":[44.171807692307695,35.52585769230769]}},{"type":"Feature","properties":{"name":"Babylonia","label":1,"area":25192},"geometry":{"type":"Point","coordinates":[44.851573913043474,32.1829]}},{"type":"Feature","properties":{"name":"New Kingdom of Egypt","label":1,"area":340593},"geometry":{"type":"Point","coordinates":[30.9774956521739,28.555317391304357]}},{"type":"Feature","properties":{"name":"Phoenicia","label":1,"area":12908},"geometry":{"type":"Point","coordinates":[35.89716666666667,34.3676090909091]}},{"type":"Feature","properties":{"name":"Philistia","label":1,"area":7583},"geometry":{"type":"Point","coordinates":[34.91409999999999,32.04902727272727]}},{"type":"Feature","properties":{"name":"Greek Dark Ages","label":1,"area":58455},"geometry":{"type":"Point","coordinates":[25.009631111111112,37.37158222222221]}},{"type":"Feature","properties":{"name":"Zhou Dynasty","label":1,"area":699210},"geometry":{"type":"Point","coordinates":[116.63061268656722,35.41521791044777]}},{"type":"Feature","properties":{"name":"Kingdom of Israel","label":1,"area":20072},"geometry":{"type":"Point","coordinates":[35.72689999999999,32.125186206896544]}},{"type":"Feature","properties":{"name":"Kingdom of Kush","label":1,"area":336379},"geometry":{"type":"Point","coordinates":[32.85371960784314,19.54797647058823]}}]}