{"type":"FeatureCollection","features":[{"type":"Feature","properties":{"name":"Elam","color":"#b0a8d8","area":81969,"polity_id":"polity_elam"},"geometry":{"type":"MultiPolygon","coordinates":[[[[49.8423,32.4931],[49.8241,32.3645],[50.0352,32.236],[50.0171,32.1074],[50.2864,31.8503],[50.1659,31.529],[50.4795,31.5933],[50.3856,31.4647],[50.7225,31.1434],[50.7052,31.0148],[50.9835,30.822],[50.9663,30.6935],[51.1012,30.565],[51.4724,30.5007],[51.5143,30.2436],[51.7251,30.1151],[51.7083,29.9865],[52.2402,29.4081],[52.208,29.1509],[51.882,28.9581],[51.8588,28.7652],[51.5567,28.7652],[51.0662,28.4438],[51.0281,28.7652],[50.809,28.8295],[50.915,29.0867],[50.6203,29.1509],[50.6513,29.4081],[50.2363,29.7294],[50.0648,30.1794],[49.5859,29.9865],[49.0187,30.3079],[49.1106,30.4364],[49.1186,30.5007],[49.2705,30.5007],[49.2867,30.6292],[48.2528,31.4647],[48.1516,32.4288],[47.931,32.4931],[47.966,32.7502],[47.6185,33.0073],[47.6362,33.1359],[47.7128,33.1359],[48.5467,33.0716],[48.6818,32.943],[48.9881,32.943],[49.0464,32.8145],[49.2761,32.8145],[49.2488,32.6216],[49.7169,32.6859],[49.8515,32.5574],[49.8423,32.4931]]],[[[50.538,31.4647],[50.4618,31.4647],[50.4706,31.529],[50.5468,31.529],[50.538,31.4647]]]]}},{"type":"Feature","properties":{"name":"Assyria","color":"#c8a06a","area":34429,"polity_id":"polity_assyria"},"geometry":{"type":"Polygon","coordinates":[[[45.5396,35.194],[45.4033,35.3227],[45.4216,35.4514],[45.2761,35.5158],[45.2945,35.6445],[45.1489,35.7089],[45.1673,35.8377],[44.9626,36.0308],[44.8076,36.0308],[44.6026,36.224],[44.6211,36.3528],[44.4659,36.3528],[44.3384,36.546],[44.3477,36.6105],[43.5939,36.224],[43.4369,35.6445],[43.5143,35.6445],[43.4108,35.4514],[43.4451,35.1297],[44.3968,34.7436],[44.3795,34.615],[44.5934,34.4863],[44.4736,34.1647],[45.5508,34.1647],[45.6453,34.2933],[45.5002,34.3577],[45.5356,34.615],[45.6898,34.615],[45.7168,34.8079],[45.8801,34.8723],[45.8893,34.9366],[45.7623,35.1297],[45.5305,35.1297],[45.5396,35.194]]]}},{"type":"Feature","properties":{"name":"Babylonia","color":"#8cb8d8","area":226484,"polity_id":"polity_babylonia"},"geometry":{"type":"Polygon","coordinates":[[[45.8801,34.8723],[45.7168,34.8079],[45.6898,34.615],[45.5356,34.615],[45.5002,34.3577],[45.6453,34.2933],[45.5508,34.1647],[44.4736,34.1647],[44.5934,34.4863],[44.3795,34.615],[44.3968,34.7436],[43.4451,35.1297],[43.4108,35.4514],[43.5143,35.6445],[43.4369,35.6445],[42.9468,35.4514],[42.8105,35.001],[41.9533,34.9366],[41.2825,35.1297],[40.9343,34.8079],[40.0557,34.5506],[40.0482,34.4863],[40.4183,34.3577],[40.4728,34.1647],[40.8499,34.1004],[40.9117,33.9718],[42.0031,33.4574],[42.0645,33.3288],[42.3636,33.2645],[42.7085,32.943],[43.1526,32.8145],[44.459,31.5933],[44.5814,31.3362],[44.9546,31.2719],[45.7705,30.4364],[46.5906,30.3079],[46.6151,29.858],[46.8497,29.9223],[46.994,29.858],[46.9794,29.7294],[47.2897,29.7937],[47.8662,29.5366],[48.4035,29.6009],[48.3654,29.9223],[48.9873,30.0508],[48.9428,30.3079],[49.0427,30.5007],[49.2705,30.5007],[49.2867,30.6292],[48.2528,31.4647],[48.1516,32.4288],[47.931,32.4931],[47.966,32.7502],[47.6185,33.0073],[47.6362,33.1359],[47.5596,33.1359],[46.6835,33.4574],[46.7868,33.6502],[46.2845,33.9075],[46.3792,34.0361],[46.1485,34.0361],[46.1752,34.229],[45.8711,34.8079],[45.8801,34.8723]]]}},{"type":"Feature","properties":{"name":"Hittites","color":"#a8b8c8","area":167244,"polity_id":"polity_hittites"},"geometry":{"type":"Polygon","coordinates":[[[36.8121,39.2557],[36.1446,39.5789],[36.0363,39.967],[35.9574,39.967],[35.9824,40.1612],[35.579,40.0964],[35.5248,40.2906],[35.1294,40.2906],[35.097,40.0317],[34.789,40.0964],[34.3629,39.8376],[34.078,40.0964],[33.446,40.0964],[33.3372,39.8376],[33.086,39.7083],[32.2048,39.5789],[31.8176,39.6436],[31.7252,39.5143],[31.8294,38.9972],[31.6592,38.868],[31.7377,38.868],[31.7648,38.3515],[31.8432,38.3515],[31.8179,38.0933],[31.8962,38.0933],[31.8712,37.8352],[31.9494,37.8352],[31.9246,37.5773],[32.0562,37.3193],[31.9661,37.1904],[32.0978,36.9326],[32.3192,36.8037],[32.373,36.546],[32.5223,36.4816],[32.5583,36.0308],[33.9791,36.2884],[34.2507,36.6749],[34.5816,36.8682],[34.8929,36.8682],[34.9504,36.6749],[35.1127,36.7393],[35.3323,36.6105],[35.4877,36.6105],[35.8336,36.9326],[35.9044,36.8682],[35.9822,36.8682],[36.0814,37.0615],[36.3856,36.9971],[36.6634,37.3838],[37.5992,37.3838],[37.7708,37.5128],[37.7864,37.6417],[37.6381,37.7062],[37.6698,37.9643],[37.8503,38.1578],[37.8584,38.2224],[37.656,38.4806],[37.2802,38.6097],[37.3832,38.8034],[36.9907,38.8034],[37.0151,38.9972],[36.8039,39.1911],[36.8121,39.2557]]]}},{"type":"Feature","properties":{"name":"Shang Dynasty","color":"#c8c8b8","area":154175,"polity_id":"polity_shangdynasty"},"geometry":{"type":"Polygon","coordinates":[[[116.3923,37.7707],[116.2827,38.0288],[116.1262,38.0288],[116.0326,38.1578],[116.0959,38.2869],[115.6335,38.9326],[115.0836,38.9326],[114.3889,38.4806],[114.2491,38.0288],[114.3273,38.0288],[113.9761,37.4483],[113.7888,36.8682],[113.2981,36.2884],[111.5228,35.5802],[110.8771,35.5158],[110.6693,35.3871],[110.5411,35.4514],[110.0746,35.0653],[110.8206,35.001],[111.1047,35.1297],[112.4712,35.2584],[114.3759,35.194],[114.8348,35.001],[114.8542,34.6793],[115.1089,34.5506],[115.183,34.3577],[115.4378,34.229],[116.0032,34.2933],[116.4234,34.7436],[117.0519,35.1297],[117.0586,35.3227],[117.2696,35.4514],[117.7117,36.0952],[118.3065,36.546],[118.4572,36.8682],[118.3151,37.0615],[116.8151,37.5128],[116.8459,37.5773],[116.5646,37.6417],[116.4704,37.7707],[116.3923,37.7707]]]}},{"type":"Feature","properties":{"name":"Mitanni","color":"#a8c8c8","area":181413,"polity_id":"polity_mitanni"},"geometry":{"type":"Polygon","coordinates":[[[39.9304,37.3193],[39.0439,37.7062],[38.9823,37.8352],[38.6698,37.8352],[37.9285,38.1578],[37.8503,38.1578],[37.6698,37.9643],[37.6381,37.7062],[37.7864,37.6417],[37.7708,37.5128],[37.5992,37.3838],[36.6634,37.3838],[36.3856,36.9971],[36.0814,37.0615],[35.9822,36.8682],[36.06,36.8682],[36.1449,36.9326],[36.272,36.6749],[36.2649,36.6105],[36.632,36.4172],[36.6179,36.2884],[36.4556,36.224],[36.2621,35.1297],[36.3393,35.1297],[36.293,34.6793],[36.6389,34.2933],[36.7159,34.2933],[36.652,34.422],[36.8193,34.5506],[38.0032,34.8079],[38.1787,35.001],[38.4175,35.0653],[38.8036,35.0653],[39.0904,34.8723],[39.2521,34.9366],[39.9787,34.5506],[40.0557,34.5506],[40.9343,34.8079],[41.2825,35.1297],[41.9533,34.9366],[42.8105,35.001],[42.9468,35.4514],[43.4369,35.6445],[43.5939,36.224],[44.3477,36.6105],[44.3571,36.6749],[44.2981,36.8037],[43.8499,36.9326],[43.7908,37.0615],[43.5572,37.0615],[43.6072,36.8682],[43.1586,36.9971],[43.0535,36.8037],[42.5868,36.8037],[42.6047,36.9326],[42.458,36.9971],[42.4071,37.1904],[40.8487,37.1904],[40.3644,37.0615],[40.2422,37.3193],[40.0083,37.3193],[39.9304,37.3193]]]}},{"type":"Feature","properties":{"name":"Mycenaean Greece","color":"#b8a8c8","area":54460,"polity_id":"polity_mycenaeangreece"},"geometry":{"type":"MultiPolygon","coordinates":[[[[24.3747,35.2584],[23.6792,35.2584],[23.6154,35.5158],[24.1569,35.5158],[24.1499,35.3871],[24.301,35.3227],[25.6923,35.3227],[25.6806,35.1297],[26.2253,35.194],[26.1401,35.0653],[25.3641,35.001],[24.8237,35.001],[24.7574,35.194],[24.3712,35.194],[24.3747,35.2584]]],[[[23.1168,36.3528],[23.1068,36.1596],[22.874,36.1596],[22.8872,36.4172],[23.0392,36.3528],[23.1168,36.3528]]],[[[24.4316,37.5773],[24.1974,37.5773],[24.2833,37.7062],[24.4355,37.6417],[24.4316,37.5773]]],[[[24.8465,37.9643],[25.0685,37.7707],[24.83,37.7062],[24.6819,37.8352],[24.6942,38.0288],[24.8507,38.0288],[24.8465,37.9643]]],[[[23.0216,38.868],[22.9356,38.7389],[23.1672,38.6743],[23.3126,38.4806],[23.6261,38.4806],[23.5634,38.7389],[24.0302,38.6743],[24.1789,38.5451],[24.1587,38.2224],[24.0021,38.2224],[23.9786,37.8352],[23.4428,38.0288],[23.2082,38.0288],[23.2008,37.8998],[23.0445,37.8998],[23.1083,37.6417],[23.3425,37.6417],[23.4024,37.3193],[23.1685,37.3193],[23.1756,37.4483],[22.9486,37.5773],[22.7144,37.5773],[22.7007,37.3193],[22.8532,37.2549],[23.056,36.6749],[22.8328,36.8682],[22.5994,36.8682],[22.5118,36.6749],[22.3563,36.6749],[22.22,37.0615],[21.9085,37.0615],[21.8992,36.8682],[21.7435,36.8682],[21.681,37.1904],[21.6031,37.1904],[21.6966,37.5128],[21.2436,37.8352],[21.4156,38.1578],[21.7286,38.1578],[21.7384,38.3515],[21.2716,38.416],[21.2812,38.6097],[21.8541,39.0618],[21.7859,39.2557],[21.9397,39.1911],[22.5992,39.7083],[22.8358,39.7083],[23.1352,39.4496],[22.8163,39.385],[22.7973,39.0618],[23.1155,39.1265],[23.1078,38.9972],[23.3435,38.9972],[23.4888,38.8034],[23.0254,38.9326],[23.0216,38.868]],[[22.4399,38.2869],[22.4329,38.1578],[22.5895,38.1578],[22.6572,37.9643],[22.9699,37.9643],[22.9061,38.2224],[22.746,38.1578],[22.8351,38.3515],[22.5147,38.2224],[22.6036,38.416],[22.2902,38.416],[22.3616,38.2869],[22.4399,38.2869]]],[[[23.4888,38.8034],[23.5673,38.8034],[23.5634,38.7389],[23.4849,38.7389],[23.4888,38.8034]]],[[[24.6007,38.9972],[24.662,38.7389],[24.3565,38.868],[24.365,38.9972],[24.5221,38.9972],[24.6007,38.9972]]],[[[28.2454,36.4172],[28.1393,36.0308],[27.9843,36.0308],[27.8975,35.902],[27.6696,35.9664],[27.6925,36.2884],[28.0171,36.4816],[28.2502,36.4816],[28.2454,36.4172]]],[[[25.5685,37.0615],[25.3308,36.9971],[25.339,37.126],[25.5727,37.126],[25.5685,37.0615]]],[[[25.2163,37.6417],[25.286,37.5128],[24.978,37.5773],[24.9862,37.7062],[25.2205,37.7062],[25.2163,37.6417]]],[[[26.3094,37.6417],[26.2223,37.5128],[25.9882,37.5128],[26.0796,37.7062],[26.3139,37.7062],[26.3094,37.6417]]],[[[26.87,37.8352],[27.0263,37.8352],[27.012,37.6417],[26.5482,37.7062],[26.5574,37.8352],[26.7918,37.8352],[26.87,37.8352]]],[[[26.1436,38.6097],[26.1941,38.2224],[25.8764,38.1578],[25.8299,38.6097],[26.0652,38.6097],[26.1436,38.6097]]]]}},{"type":"Feature","properties":{"name":"New Kingdom of Egypt","color":"#7fb8a0","area":708712,"polity_id":"polity_newkingdomofegypt"},"geometry":{"type":"MultiPolygon","coordinates":[[[[35.5579,33.4574],[35.4811,33.4574],[35.4751,33.3931],[35.5518,33.3931],[35.5579,33.4574]]],[[[36.6324,34.229],[36.9009,33.8432],[36.8686,33.5217],[36.9966,33.2645],[36.7168,32.7502],[36.7507,32.3002],[36.5155,32.236],[36.6564,32.1074],[36.4919,31.9789],[36.4629,31.6575],[36.3866,31.6575],[36.4231,31.2076],[36.2709,31.2076],[36.4009,30.9506],[36.1564,30.7578],[36.1457,30.6292],[35.9991,30.6935],[35.7553,30.5007],[35.4568,30.565],[35.3153,30.6935],[35.331,30.8863],[35.1082,30.9506],[34.804,30.9506],[34.5555,30.6935],[34.6725,30.2436],[34.8143,30.1151],[34.7997,29.9223],[34.8755,29.9223],[34.861,29.7294],[34.9367,29.7294],[34.9129,29.4081],[34.7523,29.2795],[34.7114,28.701],[34.5472,28.5081],[34.5173,28.0581],[34.3583,27.9295],[34.3459,27.7367],[33.9022,27.8652],[33.5538,28.3153],[33.403,28.3153],[33.1889,28.5081],[33.1468,29.0224],[32.8571,29.2152],[32.5888,29.7294],[32.6019,29.9223],[32.4416,29.7937],[32.6892,28.9581],[32.8361,28.8938],[33.1053,28.3795],[33.6089,27.9938],[33.5851,27.6081],[33.7992,27.4152],[33.9266,27.0295],[34.0731,26.9652],[34.0507,26.5794],[34.3327,26.258],[34.3255,26.1294],[34.1755,26.1294],[32.3803,24.6506],[32.369,24.3935],[32.4437,24.3935],[32.3955,23.2363],[32.7603,23.0434],[32.8913,22.5934],[33.0351,22.4648],[33.0274,22.272],[33.2404,22.0148],[33.1585,21.822],[33.2328,21.822],[33.2252,21.6291],[33.3713,21.5648],[33.3536,21.1148],[33.781,20.6648],[33.755,20.022],[34.1591,19.0577],[33.6386,18.9934],[33.5779,19.3148],[33.1313,19.2505],[32.8302,19.1219],[32.2895,18.5434],[31.915,18.4148],[31.8361,18.2862],[31.2378,18.0933],[30.8685,18.0933],[30.6517,18.2219],[30.5967,18.7362],[30.5227,18.7362],[30.5327,21.1148],[30.4585,21.1148],[30.4872,21.9505],[30.4128,21.9505],[30.4916,22.0791],[30.0718,22.8506],[29.9251,22.9148],[29.6495,23.5577],[29.5026,23.622],[29.1572,24.3935],[28.4217,24.7149],[27.987,25.1007],[27.9917,25.2293],[27.8444,25.2936],[27.854,25.5507],[27.7091,25.6793],[27.8614,27.5438],[27.7891,27.6081],[27.9396,27.6081],[28.1361,28.5724],[28.2115,28.5724],[28.1457,28.7652],[28.2212,28.7652],[28.2442,29.2152],[28.3199,29.2152],[28.5686,30.9506],[28.865,30.822],[29.3971,30.822],[29.4851,31.0148],[29.6332,30.9506],[29.8696,31.0791],[29.8018,31.2076],[29.882,31.2719],[30.3388,31.2719],[30.2712,31.4005],[30.3517,31.4647],[30.8088,31.4647],[30.9656,31.529],[30.9746,31.6575],[31.2033,31.6575],[31.118,31.529],[31.2658,31.4647],[31.8752,31.4647],[31.7806,31.2076],[31.9374,31.2719],[31.9996,31.0791],[32.3039,31.0791],[32.2372,31.2076],[32.5322,31.0791],[32.7652,31.1434],[32.8317,31.0148],[33.7493,31.0791],[34.2972,31.2719],[34.3076,31.4005],[34.6334,31.6575],[34.5733,31.8503],[34.813,31.9789],[34.7698,32.3645],[35.0218,32.6216],[35.0563,33.0073],[35.2154,33.0716],[35.3984,33.3931],[35.3458,33.6502],[35.4993,33.6502],[35.447,33.9075],[35.6838,33.9718],[35.6445,34.3577],[35.7921,34.2933],[36.0488,34.5506],[36.0682,34.7436],[35.927,34.8723],[35.9597,35.194],[35.8825,35.194],[35.9929,35.5158],[35.8449,35.5802],[35.9901,36.224],[35.8417,36.2884],[36.1872,36.6105],[36.2649,36.6105],[36.632,36.4172],[36.6179,36.2884],[36.4556,36.224],[36.2621,35.1297],[36.3393,35.1297],[36.293,34.6793],[36.6389,34.2933],[36.6324,34.229]]]]}},{"type":"Feature","properties":{"name":"Elam","label":1,"area":81969,"color":"#b0a8d8"},"geometry":{"type":"Point","coordinates":[50.05645454545454,31.065083636363628]}},{"type":"Feature","properties":{"name":"Assyria","label":1,"area":34429,"color":"#c8a06a"},"geometry":{"type":"Point","coordinates":[44.88915757575758,35.32873636363637]}},{"type":"Feature","properties":{"name":"Babylonia","label":1,"area":226484,"color":"#8cb8d8"},"geometry":{"type":"Point","coordinates":[45.18791904761905,33.01695555555555]}},{"type":"Feature","properties":{"name":"Hittites","label":1,"area":167244,"color":"#a8b8c8"},"geometry":{"type":"Point","coordinates":[34.64574677419354,38.24426129032258]}},{"type":"Feature","properties":{"name":"Shang Dynasty","label":1,"area":154175,"color":"#c8c8b8"},"geometry":{"type":"Point","coordinates":[114.92110750000002,36.392397499999994]}},{"type":"Feature","properties":{"name":"Mitanni","label":1,"area":181413,"color":"#a8c8c8"},"geometry":{"type":"Point","coordinates":[39.51521803278688,36.33962786885245]}},{"type":"Feature","properties":{"name":"Mycenaean Greece","label":1,"area":54460,"color":"#b8a8c8"},"geometry":{"type":"Point","coordinates":[24.063566666666677,37.60227898550724]}},{"type":"Feature","properties":{"name":"New Kingdom of Egypt","label":1,"area":708712,"color":"#7fb8a0"},"geometry":{"type":"Point","coordinates":[33.215047457627115,28.84163107344634]}}]}