{"type":"FeatureCollection","features":[{"type":"Feature","properties":{"name":"Phoenicia","color":"#7fb8c8","area":21231,"polity_id":"polity_phoenicia"},"geometry":{"type":"MultiPolygon","coordinates":[[[[13.2252,32.943],[13.4537,32.8145],[13.7605,32.8788],[13.7591,32.7502],[14.0652,32.7502],[14.4444,32.4931],[14.6747,32.5574],[14.9013,32.3645],[14.5166,32.1717],[14.4427,32.3645],[13.7577,32.6216],[12.9164,32.6216],[12.8418,32.8788],[13.1486,32.943],[13.2252,32.943]]],[[[-7.2791,33.7789],[-6.9851,33.9718],[-6.9674,33.7146],[-6.805,33.5859],[-7.3335,33.4574],[-7.4735,33.2645],[-7.8752,33.5217],[-7.3559,33.7789],[-7.2791,33.7789]]],[[[14.4937,35.9664],[14.5712,35.9664],[14.5682,35.7733],[14.4133,35.7733],[14.3396,36.0308],[14.4946,36.0308],[14.4937,35.9664]]],[[[-5.2372,36.6105],[-4.853,36.6749],[-4.5551,36.8682],[-3.8507,36.8037],[-4.4686,36.7393],[-4.6888,36.546],[-5.2282,36.4816],[-5.2879,36.224],[-5.5162,36.1596],[-5.5848,36.0308],[-5.8311,36.224],[-6.0638,36.224],[-6.2475,36.6105],[-5.9179,36.3528],[-5.4521,36.3528],[-5.2327,36.546],[-5.2372,36.6105]]],[[[7.7383,36.8682],[7.9709,36.9326],[7.8188,36.6749],[7.5874,36.546],[7.3513,36.7393],[7.2694,36.9971],[7.502,37.0615],[7.7374,36.9326],[7.7383,36.8682]]],[[[12.6498,38.0933],[12.8063,38.0933],[12.8051,37.9643],[12.5701,37.8998],[12.6493,38.0288],[12.6498,38.0933]]],[[[13.6661,38.0288],[13.0397,37.9643],[13.1199,38.1578],[13.5879,38.0288],[13.6661,38.0288]]],[[[1.5732,39.1265],[1.6575,38.9972],[1.4305,38.8034],[1.1921,38.868],[1.2587,39.1265],[1.4946,39.1265],[1.5732,39.1265]]],[[[8.6379,40.2259],[8.7259,39.3203],[8.8833,39.3203],[8.9608,39.4496],[9.3554,39.3203],[9.3563,39.1911],[9.0423,39.1265],[8.9659,38.868],[8.3362,38.9972],[8.4118,39.2557],[8.3332,39.2557],[8.3301,39.5143],[8.4089,39.5143],[8.4834,39.9023],[8.324,40.0317],[8.403,40.0317],[8.4,40.2906],[8.5589,40.2259],[8.6379,40.2259]]]]}},{"type":"Feature","properties":{"name":"Kingdom of Kush","color":"#a08ad8","area":336379,"polity_id":"polity_kingdomofkush"},"geometry":{"type":"Polygon","coordinates":[[[33.8404,22.1434],[33.8832,23.172],[33.8087,23.172],[33.8225,23.4934],[33.679,23.622],[33.6818,23.6863],[33.389,23.8149],[32.0409,23.6863],[31.6705,23.7506],[30.5372,23.3649],[30.5349,23.3006],[30.742,22.8506],[30.7214,22.272],[30.5615,21.9505],[30.6358,21.9505],[30.6879,21.3077],[30.7621,21.3077],[30.7442,20.7934],[30.8184,20.7934],[30.8026,20.3434],[30.8768,20.3434],[31.147,17.6433],[31.2208,17.6433],[31.337,16.8076],[31.4771,16.6147],[31.3939,16.3576],[31.5364,16.229],[31.527,15.9718],[31.7337,15.5861],[32.0944,15.3933],[32.5334,15.329],[32.5286,15.2004],[33.8621,15.4575],[34.0981,15.8433],[34.6843,15.779],[34.5556,16.229],[34.7137,16.4861],[35.6713,16.4861],[36.0539,16.8076],[36.0033,17.3219],[35.5013,17.6433],[35.2998,18.0933],[34.939,18.2862],[34.8792,18.6076],[34.5974,18.9291],[34.4687,19.3791],[34.2575,19.6362],[33.8196,21.6291],[33.7453,21.6291],[33.8352,22.0148],[33.7635,22.0791],[33.8378,22.0791],[33.8404,22.1434]]]}},{"type":"Feature","properties":{"name":"Sabaeans","color":"#a8a8c8","area":63948,"polity_id":"polity_sabaeans"},"geometry":{"type":"MultiPolygon","coordinates":[[[[45.9179,15.329],[45.8444,15.329],[45.8479,15.3933],[45.9215,15.3933],[45.9179,15.329]]],[[[44.8134,16.6147],[44.305,16.7433],[44.3124,16.8719],[44.0875,16.8076],[43.9475,16.9362],[43.9585,17.129],[43.8184,17.2576],[43.8996,17.3862],[43.5529,17.7719],[43.2503,17.6433],[43.0326,17.7076],[43.0216,17.5148],[42.6348,17.1933],[42.4873,17.1933],[42.4767,17.0005],[42.824,16.6147],[42.7824,15.8433],[42.7088,15.8433],[42.7458,15.1361],[45.025,15.1361],[45.179,15.2647],[45.3225,15.2004],[45.4031,15.329],[45.8479,15.3933],[45.8551,15.5218],[46.1494,15.5218],[46.3811,15.7147],[46.4697,15.9718],[46.1753,15.9718],[46.0206,15.8433],[45.579,15.8433],[45.3656,15.9718],[45.2147,15.9076],[45.2257,16.1004],[44.8097,16.5504],[44.8134,16.6147]]]]}},{"type":"Feature","properties":{"name":"Greek City-States","color":"#b8c8a8","area":166276,"polity_id":"polity_greekcitystates"},"geometry":{"type":"MultiPolygon","coordinates":[[[[22.0741,32.1074],[20.5405,31.9146],[20.4448,31.3362],[20.5209,31.3362],[20.5843,30.9506],[20.1281,30.9506],[20.2143,31.2719],[19.9961,31.5933],[20.0891,32.1074],[20.017,32.236],[20.2461,32.236],[20.3313,32.4931],[20.482,32.4288],[20.563,32.5574],[20.7159,32.5574],[20.6441,32.6859],[20.8712,32.6216],[21.108,32.8145],[21.4117,32.7502],[21.5698,32.8788],[22.1085,32.943],[23.0894,32.6216],[23.0808,32.4288],[23.2308,32.3645],[23.0666,32.1074],[22.1504,32.1074],[22.0741,32.1074]]],[[[23.1134,36.2884],[23.1068,36.1596],[22.874,36.1596],[22.8872,36.4172],[23.1168,36.3528],[23.1134,36.2884]]],[[[22.5686,37.7707],[22.803,37.7707],[22.7076,37.4483],[22.5515,37.4483],[22.5652,37.7062],[22.5686,37.7707]]],[[[20.928,37.7707],[20.9221,37.6417],[20.6127,37.7062],[20.6213,37.8998],[20.931,37.8352],[20.928,37.7707]]],[[[14.5264,38.0288],[14.3659,37.7707],[14.0534,37.7707],[13.8989,37.8998],[14.0571,38.0288],[14.4482,38.0288],[14.5264,38.0288]]],[[[13.8147,37.4483],[14.7442,37.0615],[14.9778,37.0615],[14.7542,37.6417],[15.1521,38.0288],[15.1547,38.1578],[15.4705,38.2869],[15.8621,38.2869],[15.9497,38.6743],[16.2652,38.7389],[16.2686,38.868],[16.6649,38.9972],[16.8277,39.1911],[17.1423,39.1911],[17.0577,38.9972],[16.5024,38.8034],[16.4919,38.416],[15.9328,37.9643],[15.6982,37.9643],[15.6243,38.1578],[15.3895,38.1578],[15.0665,37.6417],[15.0592,37.2549],[15.2139,37.1904],[15.0498,36.7393],[14.661,36.7393],[14.2779,37.126],[13.5784,37.2549],[13.192,37.5773],[12.4905,37.7062],[12.4914,37.8352],[12.9603,37.8352],[13.2708,37.6417],[13.8156,37.5128],[13.8147,37.4483]]],[[[20.7171,38.2869],[20.7954,38.2869],[20.7865,38.0933],[20.3199,38.1578],[20.3285,38.3515],[20.7201,38.3515],[20.7171,38.2869]]],[[[23.5673,38.8034],[23.5634,38.7389],[23.4849,38.7389],[23.4888,38.8034],[23.5673,38.8034]]],[[[22.5859,38.0933],[22.5825,38.0288],[22.6607,38.0288],[22.6572,37.9643],[22.2628,37.8998],[22.1165,38.0933],[21.9601,38.0933],[21.9534,37.9643],[21.331,38.0288],[21.3342,38.0933],[21.7286,38.1578],[21.7384,38.3515],[21.1933,38.416],[20.9737,38.7389],[20.7414,38.8034],[20.7475,38.9326],[21.1403,38.9326],[21.1467,39.0618],[20.9896,39.0618],[21.0779,39.2557],[21.6355,39.385],[21.8646,39.2557],[21.9292,38.9972],[22.1685,39.0618],[22.1793,39.2557],[22.5877,39.5143],[22.5358,39.967],[23.1352,39.4496],[22.8163,39.385],[22.7973,39.0618],[22.9583,39.1265],[23.4928,38.868],[23.3318,38.8034],[23.0254,38.9326],[22.9356,38.7389],[23.1672,38.6743],[23.3126,38.4806],[23.6261,38.4806],[23.5634,38.7389],[24.0302,38.6743],[24.1789,38.5451],[24.1587,38.2224],[24.0021,38.2224],[23.9786,37.8352],[22.7496,38.2224],[22.8351,38.3515],[22.5182,38.2869],[22.6036,38.416],[22.2902,38.416],[22.3651,38.3515],[22.2798,38.2224],[22.5895,38.1578],[22.5859,38.0933]]],[[[19.7578,39.6436],[19.7637,39.7729],[19.9214,39.7729],[19.9125,39.5789],[19.8366,39.6436],[19.7578,39.6436]]],[[[16.3006,40.0317],[16.3834,40.1612],[16.3062,40.2259],[16.8765,40.744],[17.5083,40.6792],[17.5036,40.5496],[17.9812,40.6144],[18.4381,40.1612],[18.3489,39.9023],[18.1122,39.9023],[17.8131,40.3554],[17.4175,40.3554],[17.3452,40.5496],[17.0285,40.5496],[16.868,40.4849],[16.945,40.4201],[16.8617,40.2906],[16.6245,40.2906],[16.6975,40.0964],[16.4567,39.967],[16.4473,39.6436],[15.8955,39.6436],[15.8989,39.7729],[15.6655,39.9023],[15.7478,40.0317],[15.4319,40.0317],[14.9638,40.2906],[14.8934,40.6792],[14.4179,40.6792],[14.4219,40.8736],[14.1046,40.8736],[14.0276,41.0032],[15.0564,40.8736],[15.5157,40.2259],[15.99,40.2259],[16.1463,40.1612],[16.1409,39.967],[16.2988,39.967],[16.3006,40.0317]]],[[[19.4985,40.8736],[19.4407,41.3274],[19.6856,41.4571],[19.7491,41.1328],[19.9047,41.068],[19.8951,40.8736],[19.7302,40.744],[19.7908,40.3554],[19.4714,40.2906],[19.4863,40.6144],[19.2487,40.6144],[19.4191,40.8736],[19.4985,40.8736]]],[[[9.5742,42.6262],[9.5776,41.9764],[9.4192,41.7816],[9.1791,41.9114],[9.0958,42.3662],[9.1758,42.3662],[9.1743,42.5612],[9.4137,42.6912],[9.4129,42.8213],[9.5739,42.6912],[9.5742,42.6262]]],[[[5.7962,43.1467],[5.6319,43.2769],[5.3908,43.2769],[5.3869,43.4072],[4.578,43.5375],[4.1778,43.4723],[4.173,43.6027],[3.8509,43.6027],[2.9849,43.1467],[3.0099,42.5612],[3.1781,42.3662],[3.0397,41.8465],[2.6982,42.3662],[2.7754,42.4312],[2.6695,43.0165],[2.7497,43.0165],[2.741,43.2118],[3.4455,43.6678],[4.7279,43.8634],[5.8696,43.4072],[6.5936,43.4072],[6.5176,43.2118],[5.8766,43.1467],[5.7962,43.1467]]],[[[24.1429,35.2584],[23.6792,35.2584],[23.6154,35.5158],[24.1569,35.5158],[24.1499,35.3871],[24.301,35.3227],[25.6923,35.3227],[25.6806,35.1297],[26.2253,35.194],[26.1401,35.0653],[24.8237,35.001],[24.7574,35.194],[24.2202,35.2584],[24.1429,35.2584]]],[[[25.5644,36.9971],[25.3308,36.9971],[25.339,37.126],[25.5685,37.0615],[25.5644,36.9971]]],[[[26.3049,37.5773],[25.9882,37.5128],[26.0796,37.7062],[26.3094,37.6417],[26.3049,37.5773]]],[[[25.2944,37.6417],[25.286,37.5128],[24.978,37.5773],[24.9862,37.7062],[25.2163,37.6417],[25.2944,37.6417]]],[[[24.3496,37.5128],[24.2013,37.6417],[24.4395,37.7062],[24.3535,37.5773],[24.3496,37.5128]]],[[[27.0263,37.8352],[27.012,37.6417],[26.5482,37.7062],[26.5574,37.8352],[26.9481,37.8352],[27.0263,37.8352]]],[[[24.9205,37.8998],[25.0727,37.8352],[24.9862,37.7062],[24.6819,37.8352],[24.6942,38.0288],[24.9247,37.9643],[24.9205,37.8998]]],[[[24.6749,38.9326],[24.662,38.7389],[24.3565,38.868],[24.365,38.9972],[24.5964,38.9326],[24.6749,38.9326]]],[[[25.4619,40.0317],[25.4473,39.8376],[24.9739,39.8376],[25.067,40.0317],[25.3829,40.0317],[25.4619,40.0317]]],[[[26.0249,40.1612],[25.7038,40.0964],[25.7188,40.2906],[26.03,40.2259],[26.0249,40.1612]]],[[[26.6047,40.4849],[26.6839,40.4849],[26.6731,40.3554],[26.2568,40.0964],[26.2619,40.1612],[26.3567,40.3554],[26.5993,40.4201],[26.6047,40.4849]]],[[[26.7685,40.5496],[27.0116,40.6144],[26.9214,40.4849],[26.8477,40.5496],[26.7685,40.5496]]],[[[24.8033,40.744],[24.7096,40.5496],[24.4768,40.6144],[24.491,40.8088],[24.8081,40.8088],[24.8033,40.744]]],[[[23.3463,40.2906],[23.2673,40.2906],[23.2715,40.3554],[23.1924,40.3554],[23.3852,40.8736],[24.0384,41.1328],[24.1178,41.1328],[24.2719,41.068],[24.5198,41.1977],[24.8377,41.1977],[25.1403,41.0032],[24.3466,41.0032],[24.0106,40.744],[23.698,40.8088],[23.6846,40.6144],[23.8386,40.5496],[23.7374,40.2259],[23.4254,40.2906],[23.3463,40.2906]]],[[[33.442,36.3528],[33.8365,36.4172],[33.9015,36.2884],[33.8238,36.2884],[32.5583,36.0308],[32.5643,36.0952],[32.6657,36.3528],[32.827,36.4172],[33.3644,36.3528],[33.442,36.3528]]],[[[39.1998,41.068],[39.5174,41.068],[39.7355,40.9384],[40.3806,41.0032],[40.46,41.0032],[40.5981,40.8736],[40.5776,40.744],[40.4089,40.6792],[39.6165,40.6792],[39.3984,40.8088],[39.0019,40.8088],[38.8241,40.6792],[37.8732,40.6792],[37.3551,40.9384],[36.5091,41.1328],[36.5271,41.2625],[36.6066,41.2625],[36.7748,41.3274],[37.0651,41.1328],[37.2332,41.1977],[37.2147,41.068],[37.7706,41.068],[37.8312,40.9384],[38.1581,41.0032],[38.2977,40.8736],[38.7834,40.9384],[39.2098,41.1328],[39.1998,41.068]]],[[[28.4009,41.068],[28.1688,41.1328],[28.0773,41.0032],[27.9185,41.0032],[28.1872,41.3274],[28.1387,41.6518],[28.2917,41.5869],[28.3525,41.3922],[28.9759,41.2625],[28.9631,41.1328],[29.3668,41.1977],[29.255,40.8736],[29.1028,40.9384],[29.1156,41.068],[28.4803,41.068],[28.4009,41.068]]],[[[31.44,41.2625],[31.4473,41.3274],[31.5268,41.3274],[31.5342,41.3922],[31.6933,41.3922],[31.5917,41.1977],[31.3533,41.1977],[31.3605,41.2625],[31.44,41.2625]]],[[[34.7845,41.9114],[34.8817,42.0413],[35.1212,42.0413],[35.086,41.7816],[34.8643,41.9114],[34.7845,41.9114]]],[[[27.4519,41.9764],[27.458,42.0413],[27.5379,42.0413],[27.5317,41.9764],[27.4519,41.9764]]],[[[27.3782,42.0413],[27.3843,42.1063],[27.4641,42.1063],[27.458,42.0413],[27.3782,42.0413]]],[[[41.1045,42.9515],[40.8173,43.1467],[40.4157,43.1467],[40.2192,43.4072],[39.9778,43.4072],[39.6305,43.733],[40.264,43.6678],[40.4138,43.6027],[40.322,43.5375],[40.3801,43.4072],[40.8513,43.3421],[41.4369,43.0165],[41.414,42.8864],[41.1847,42.9515],[41.1045,42.9515]]],[[[27.5936,42.6262],[27.5135,42.6262],[27.4949,42.4312],[27.796,42.2362],[27.9245,41.9114],[27.6115,41.9764],[27.3166,42.2362],[27.3288,42.3662],[27.1749,42.4312],[27.1932,42.6262],[27.657,43.2769],[27.9982,43.4723],[28.1186,43.8634],[28.3002,44.0591],[28.341,44.4507],[28.422,44.4507],[28.3685,44.7119],[28.6396,44.9734],[28.802,44.9734],[28.8407,44.5813],[28.5769,44.3854],[28.5356,43.9938],[28.6163,43.9938],[28.4811,43.4723],[28.1592,43.4723],[28.2264,43.3421],[27.8982,43.2769],[27.8049,43.1467],[27.8466,42.7563],[27.6863,42.7563],[27.6737,42.6262],[27.5936,42.6262]]],[[[39.9529,43.733],[39.964,43.7982],[40.0447,43.7982],[40.0335,43.733],[39.9529,43.733]]],[[[34.9386,45.3004],[35.7521,45.3004],[36.4231,45.4313],[36.3726,45.1042],[36.2001,45.0388],[35.4073,45.1696],[35.2971,44.9734],[34.3763,44.7773],[33.9256,44.4507],[33.4488,44.516],[33.5832,44.908],[34.8572,45.3004],[34.9386,45.3004]]],[[[30.4584,46.6115],[30.9751,46.8086],[31.0821,47.0058],[31.5668,46.9401],[31.5329,46.6772],[30.8766,46.6772],[30.2977,45.9554],[30.045,45.8898],[29.8589,45.6933],[29.6143,45.6933],[29.6443,45.9554],[29.8152,46.0209],[29.8305,46.1521],[30.0913,46.2833],[30.1069,46.4145],[30.4504,46.5459],[30.4584,46.6115]]],[[[38.6828,47.2221],[38.6309,47.2032],[38.525,47.2032],[38.5772,47.2391],[38.6882,47.2526],[38.6828,47.2221]]]]}},{"type":"Feature","properties":{"name":"Jin","color":"#c8b8a8","area":152347,"polity_id":"polity_jin"},"geometry":{"type":"Polygon","coordinates":[[[114.2534,35.4514],[114.226,35.3871],[113.5301,35.3871],[112.3199,35.4514],[112.1066,34.9366],[112.1837,34.9366],[112.1548,34.4863],[110.8973,34.229],[110.8203,34.229],[110.8196,34.422],[110.6911,34.4863],[110.7168,34.7436],[110.5884,34.8079],[110.6662,35.001],[111.0029,35.2584],[111.1628,35.6445],[111.0618,35.7733],[111.2303,36.3528],[111.4133,36.4172],[112.1722,37.2549],[112.2013,37.3193],[113.2674,37.7707],[114.1069,38.5451],[114.0917,38.6743],[114.359,38.7389],[115.4479,39.6436],[115.8312,39.7729],[115.8997,39.9023],[116.0232,39.8376],[116.1021,39.8376],[115.8648,39.385],[116.1009,39.385],[116.0919,39.0618],[116.2618,38.9326],[116.1639,38.7389],[116.3993,38.7389],[116.1454,38.5451],[117.1971,38.6097],[116.6283,37.4483],[116.7063,37.4483],[116.6321,37.126],[116.8532,36.9326],[116.0465,35.8377],[115.765,35.902],[115.8017,36.1596],[115.5977,36.224],[115.5201,36.224],[115.6357,36.4816],[115.3639,36.7393],[114.3144,35.7733],[114.2809,35.5158],[114.2534,35.4514]]]}},{"type":"Feature","properties":{"name":"Chu","color":"#a8b8c8","area":353166,"polity_id":"polity_chu"},"geometry":{"type":"Polygon","coordinates":[[[114.7716,34.2933],[114.1557,34.2933],[113.9266,34.4863],[113.5908,34.229],[113.3874,34.4863],[113.0284,34.5506],[113.0303,34.7436],[112.617,34.4863],[112.1548,34.4863],[110.8973,34.229],[110.872,34.1647],[110.489,33.9718],[110.4912,33.7789],[110.2115,33.6502],[110.2149,33.4574],[109.7829,33.3288],[109.7109,33.1359],[109.8165,33.0073],[109.5524,32.4931],[109.6288,32.4931],[109.3125,31.5933],[109.4752,31.4005],[109.3555,31.2719],[109.4861,31.2076],[109.4763,30.9506],[109.9158,30.4364],[110.4056,30.3079],[110.2273,29.9865],[110.6618,29.9223],[111.2987,29.5366],[111.8086,29.4723],[111.9959,29.3438],[112.9037,29.3438],[113.2668,29.5366],[113.5836,30.0508],[113.9506,30.2436],[114.1127,30.5007],[116.1186,30.3722],[116.8374,30.6935],[117.0208,31.2076],[117.1096,31.6575],[118.3194,32.4288],[118.9058,32.943],[118.5746,33.0716],[118.449,33.3288],[118.118,33.4574],[118.0436,33.6502],[117.7629,33.7146],[117.7392,33.8432],[117.2311,34.1004],[116.6157,34.1004],[116.107,34.3577],[115.5947,34.422],[115.1326,34.422],[114.8485,34.2933],[114.7716,34.2933]]]}},{"type":"Feature","properties":{"name":"Qin","color":"#a8a8c8","area":56478,"polity_id":"polity_qin"},"geometry":{"type":"Polygon","coordinates":[[[112.0942,37.2549],[109.6546,36.4816],[108.7896,35.7089],[108.2215,35.6445],[108.1695,35.5158],[108.3497,35.3871],[108.2982,35.2584],[108.4528,35.2584],[107.9426,34.5506],[109.6896,34.4863],[110.3586,34.229],[110.8203,34.229],[110.8196,34.422],[110.6911,34.4863],[110.7168,34.7436],[110.5884,34.8079],[110.6662,35.001],[111.0029,35.2584],[111.1628,35.6445],[111.0618,35.7733],[111.2303,36.3528],[111.4133,36.4172],[112.1722,37.2549],[112.0942,37.2549]]]}},{"type":"Feature","properties":{"name":"Etruscans","color":"#b8a8c8","area":55021,"polity_id":"polity_etruscans"},"geometry":{"type":"MultiPolygon","coordinates":[[[[10.2947,42.8864],[10.4551,42.8864],[10.4552,42.6912],[10.1346,42.7563],[10.2145,42.8864],[10.2947,42.8864]]],[[[12.2407,45.1042],[12.4026,45.0388],[12.3999,44.7773],[12.1572,44.8426],[12.1537,44.4507],[12.313,44.1896],[11.9887,44.0591],[11.9054,43.733],[12.3064,43.5375],[12.4482,41.7816],[12.1305,41.9114],[12.1317,42.0413],[11.8128,42.1063],[11.6548,42.3662],[11.4945,42.3012],[11.4152,42.4312],[11.2552,42.4312],[11.176,42.6262],[11.0158,42.6262],[11.0163,42.8213],[10.5353,43.0816],[10.5353,43.2769],[10.4549,43.2769],[10.1313,44.1243],[10.2927,44.1896],[10.2925,44.3201],[10.535,44.3854],[10.6159,44.7119],[10.0474,44.9734],[10.0469,45.1042],[9.8844,45.1042],[9.7207,45.3004],[9.558,45.3004],[9.3926,45.6278],[9.7177,45.7588],[10.2892,45.6278],[10.5336,45.6933],[10.5338,45.5623],[12.1617,45.3659],[12.16,45.1696],[12.2413,45.1696],[12.2407,45.1042]]],[[[9.9699,44.0591],[10.0505,44.1243],[10.0509,43.9938],[9.8892,44.0591],[9.9699,44.0591]]],[[[9.6402,45.1696],[9.6398,45.235],[9.7211,45.235],[9.7215,45.1696],[9.6402,45.1696]]]]}},{"type":"Feature","properties":{"name":"Spring and Autumn States","color":"#a8b8c8","area":1008534,"polity_id":"polity_springandautumnstates"},"geometry":{"type":"MultiPolygon","coordinates":[[[[114.7716,34.2933],[114.1557,34.2933],[113.9266,34.4863],[113.7509,34.8079],[114.4721,34.8723],[114.3412,34.7436],[114.6466,34.5506],[115.4942,34.5506],[115.5947,34.422],[115.1326,34.422],[114.8485,34.2933],[114.7716,34.2933]]],[[[119.3191,39.5143],[119.3804,39.7729],[120.5003,40.2259],[120.6473,40.4849],[121.227,40.9384],[119.3442,40.4201],[117.5675,40.3554],[116.4522,39.9023],[116.1365,39.9023],[115.8648,39.385],[116.1009,39.385],[116.0919,39.0618],[116.2618,38.9326],[116.1639,38.7389],[116.3993,38.7389],[116.1454,38.5451],[117.1971,38.6097],[117.2298,38.6743],[117.622,38.6743],[117.6757,38.9326],[117.8884,39.1911],[118.0457,39.1911],[118.0569,39.0618],[118.4498,39.0618],[118.9894,39.1911],[119.2844,39.4496],[119.3191,39.5143]]],[[[119.1307,38.0933],[118.7718,38.1578],[118.8042,38.2224],[118.6476,38.2224],[118.583,38.0933],[118.0674,38.1578],[118.0536,38.2869],[117.6025,38.4806],[117.622,38.6743],[117.2298,38.6743],[116.6283,37.4483],[116.7063,37.4483],[116.6321,37.126],[116.8532,36.9326],[116.0465,35.8377],[117.3531,36.1596],[119.8951,36.2884],[120.5293,36.4816],[120.7318,36.4172],[120.9648,36.4172],[120.9789,36.6105],[121.2121,36.6105],[121.9121,36.9326],[122.3939,36.8037],[122.5664,36.9971],[122.4742,37.126],[122.7129,37.4483],[122.1211,37.5128],[122.1535,37.5773],[121.4969,37.5128],[121.4833,37.6417],[121.171,37.6417],[121.112,37.8352],[120.7538,37.8998],[120.1881,37.7062],[120.2022,37.5773],[119.8266,37.4483],[119.7011,37.1904],[119.1557,37.1904],[119.14,37.3193],[118.984,37.3193],[119.2366,37.8352],[119.3928,37.8352],[119.4571,37.9643],[119.1766,38.0288],[119.2089,38.0933],[119.1307,38.0933]]],[[[115.0394,35.8377],[114.9554,35.6445],[115.2311,35.3871],[115.9898,35.7089],[116.0465,35.8377],[115.765,35.902],[115.8017,36.1596],[115.5977,36.224],[115.1169,35.8377],[115.0394,35.8377]]],[[[119.2557,34.8723],[119.6187,35.5158],[119.9865,35.6445],[120.3185,36.0308],[120.6585,36.0952],[120.7015,36.3528],[120.7318,36.4172],[120.5293,36.4816],[119.8951,36.2884],[117.3531,36.1596],[116.0465,35.8377],[115.9898,35.7089],[116.2856,35.3227],[116.6721,35.3227],[116.9603,35.4514],[117.5871,35.6445],[118.2549,35.5802],[118.3036,35.5158],[118.056,35.1297],[117.7683,35.001],[117.6355,34.8723],[117.9657,34.7436],[118.1199,34.7436],[118.2807,34.9366],[118.435,34.9366],[118.4284,34.7436],[119.2276,34.8079],[119.2557,34.8723]]],[[[114.2534,35.4514],[114.226,35.3871],[114.3033,35.3871],[114.3307,35.4514],[114.4081,35.4514],[114.8565,35.7733],[115.0114,35.7733],[115.0394,35.8377],[115.1169,35.8377],[115.5977,36.224],[115.5201,36.224],[115.6357,36.4816],[115.3639,36.7393],[114.3144,35.7733],[114.2809,35.5158],[114.2534,35.4514]]],[[[116.9813,35.3227],[116.9253,35.194],[117.1785,35.0653],[117.7683,35.001],[118.056,35.1297],[118.3036,35.5158],[118.2549,35.5802],[117.5871,35.6445],[116.9603,35.4514],[116.904,35.3227],[116.9813,35.3227]]],[[[114.9554,35.6445],[115.2311,35.3871],[114.499,34.9366],[114.3759,35.194],[114.4081,35.4514],[114.8565,35.7733],[115.0114,35.7733],[114.9554,35.6445]]],[[[113.6847,35.3871],[113.5301,35.3871],[113.3414,34.9366],[113.6738,34.8079],[113.7509,34.8079],[114.4721,34.8723],[114.499,34.9366],[114.3759,35.194],[114.4081,35.4514],[114.3307,35.4514],[114.3033,35.3871],[113.762,35.3871],[113.6847,35.3871]]],[[[116.1805,35.2584],[116.0975,35.0653],[116.1969,34.9366],[116.5056,34.9366],[116.7045,34.6793],[117.1785,35.0653],[116.9253,35.194],[116.9813,35.3227],[116.904,35.3227],[116.9603,35.4514],[116.6721,35.3227],[116.2856,35.3227],[116.2578,35.2584],[116.1805,35.2584]]],[[[112.3859,34.4863],[112.617,34.4863],[113.0303,34.7436],[113.0567,34.8079],[113.1339,34.8079],[113.1604,34.8723],[113.2376,34.8723],[113.2642,34.9366],[113.3414,34.9366],[113.5301,35.3871],[112.3199,35.4514],[112.1066,34.9366],[112.1837,34.9366],[112.1548,34.4863],[112.3089,34.4863],[112.3859,34.4863]]],[[[113.5435,34.6793],[113.6206,34.6793],[113.6738,34.8079],[113.3414,34.9366],[113.2642,34.9366],[113.2376,34.8723],[113.1604,34.8723],[113.1339,34.8079],[113.0567,34.8079],[113.0303,34.7436],[113.0284,34.5506],[113.3874,34.4863],[113.44,34.615],[113.5171,34.615],[113.5435,34.6793]]],[[[113.6738,34.8079],[113.6206,34.6793],[113.5435,34.6793],[113.5171,34.615],[113.44,34.615],[113.3874,34.4863],[113.5908,34.229],[113.9266,34.4863],[113.7509,34.8079],[113.6738,34.8079]]],[[[116.7271,34.5506],[117.5747,34.5506],[117.6741,34.422],[117.9657,34.7436],[117.6355,34.8723],[117.7683,35.001],[117.1785,35.0653],[116.7045,34.6793],[116.65,34.5506],[116.7271,34.5506]]],[[[114.2534,35.4514],[114.226,35.3871],[113.5301,35.3871],[112.3199,35.4514],[112.1066,34.9366],[112.1837,34.9366],[112.1548,34.4863],[110.8973,34.229],[110.8203,34.229],[110.8196,34.422],[110.6911,34.4863],[110.7168,34.7436],[110.5884,34.8079],[110.6662,35.001],[111.0029,35.2584],[111.1628,35.6445],[111.0618,35.7733],[111.2303,36.3528],[111.4133,36.4172],[112.1722,37.2549],[112.2013,37.3193],[113.2674,37.7707],[114.1069,38.5451],[114.0917,38.6743],[114.359,38.7389],[115.4479,39.6436],[115.8312,39.7729],[115.8997,39.9023],[116.0232,39.8376],[116.1021,39.8376],[115.8648,39.385],[116.1009,39.385],[116.0919,39.0618],[116.2618,38.9326],[116.1639,38.7389],[116.3993,38.7389],[116.1454,38.5451],[117.1971,38.6097],[116.6283,37.4483],[116.7063,37.4483],[116.6321,37.126],[116.8532,36.9326],[116.0465,35.8377],[115.765,35.902],[115.8017,36.1596],[115.5977,36.224],[115.5201,36.224],[115.6357,36.4816],[115.3639,36.7393],[114.3144,35.7733],[114.2809,35.5158],[114.2534,35.4514]]],[[[112.0942,37.2549],[109.6546,36.4816],[108.7896,35.7089],[108.2215,35.6445],[108.1695,35.5158],[108.3497,35.3871],[108.2982,35.2584],[108.4528,35.2584],[107.9426,34.5506],[109.6896,34.4863],[110.3586,34.229],[110.8203,34.229],[110.8196,34.422],[110.6911,34.4863],[110.7168,34.7436],[110.5884,34.8079],[110.6662,35.001],[111.0029,35.2584],[111.1628,35.6445],[111.0618,35.7733],[111.2303,36.3528],[111.4133,36.4172],[112.1722,37.2549],[112.0942,37.2549]]],[[[117.5747,34.5506],[116.65,34.5506],[116.7045,34.6793],[116.5056,34.9366],[116.1969,34.9366],[116.0975,35.0653],[116.1805,35.2584],[116.2578,35.2584],[116.2856,35.3227],[115.9898,35.7089],[115.2311,35.3871],[114.499,34.9366],[114.4721,34.8723],[114.3412,34.7436],[114.6466,34.5506],[115.4942,34.5506],[115.5947,34.422],[116.107,34.3577],[116.6157,34.1004],[117.2311,34.1004],[117.6198,34.2933],[117.6741,34.422],[117.5747,34.5506]]],[[[120.3418,34.3577],[119.9847,34.422],[119.7323,34.5506],[119.7113,34.6793],[119.3047,34.8079],[119.2276,34.8079],[118.4284,34.7436],[118.435,34.9366],[118.2807,34.9366],[118.1199,34.7436],[117.9657,34.7436],[117.6741,34.422],[117.6198,34.2933],[117.2311,34.1004],[117.7392,33.8432],[117.7629,33.7146],[118.0436,33.6502],[118.118,33.4574],[118.449,33.3288],[118.5746,33.0716],[118.9058,32.943],[118.3194,32.4288],[117.1096,31.6575],[117.0208,31.2076],[117.6296,31.2076],[118.1246,31.7218],[118.8555,32.236],[119.8485,32.236],[120.1049,31.9146],[120.7655,32.0431],[120.9191,31.8503],[120.9954,31.8503],[121.5806,31.7861],[121.6831,31.6575],[121.8356,31.6575],[121.987,31.8503],[121.7832,32.1074],[121.5033,32.1717],[121.4026,32.4931],[120.9192,32.6216],[120.9263,33.2002],[120.5505,33.5859],[120.4894,34.1647],[120.314,34.2933],[120.3418,34.3577]]],[[[117.9599,29.5366],[117.8842,29.5366],[117.9054,29.6009],[117.9811,29.6009],[117.9599,29.5366]]],[[[121.0467,31.7861],[121.6335,31.529],[121.5843,31.4005],[121.7366,31.4005],[121.9953,31.0791],[121.8993,30.822],[121.5192,30.822],[121.1972,30.565],[121.0453,30.565],[120.6798,30.1794],[120.8088,30.1151],[121.1047,30.3079],[121.4841,30.3079],[121.6202,30.0508],[122.0298,29.9223],[121.8203,29.5366],[121.42,29.4723],[121.3124,29.6009],[120.2424,29.7937],[119.7784,29.9865],[119.2257,29.9223],[118.3597,29.6009],[117.5269,29.6009],[117.1908,29.7294],[116.7364,29.7294],[116.27,29.9223],[116.0966,30.3079],[116.1186,30.3722],[116.8374,30.6935],[117.0208,31.2076],[117.6296,31.2076],[118.1246,31.7218],[118.8555,32.236],[119.8485,32.236],[120.1049,31.9146],[120.7655,32.0431],[120.9191,31.8503],[120.8942,31.7861],[120.9705,31.7861],[121.0467,31.7861]]],[[[114.7716,34.2933],[114.1557,34.2933],[113.9266,34.4863],[113.5908,34.229],[113.3874,34.4863],[113.0284,34.5506],[113.0303,34.7436],[112.617,34.4863],[112.1548,34.4863],[110.8973,34.229],[110.872,34.1647],[110.489,33.9718],[110.4912,33.7789],[110.2115,33.6502],[110.2149,33.4574],[109.7829,33.3288],[109.7109,33.1359],[109.8165,33.0073],[109.5524,32.4931],[109.6288,32.4931],[109.3125,31.5933],[109.4752,31.4005],[109.3555,31.2719],[109.4861,31.2076],[109.4763,30.9506],[109.9158,30.4364],[110.4056,30.3079],[110.2273,29.9865],[110.6618,29.9223],[111.2987,29.5366],[111.8086,29.4723],[111.9959,29.3438],[112.9037,29.3438],[113.2668,29.5366],[113.5836,30.0508],[113.9506,30.2436],[114.1127,30.5007],[116.1186,30.3722],[116.8374,30.6935],[117.0208,31.2076],[117.1096,31.6575],[118.3194,32.4288],[118.9058,32.943],[118.5746,33.0716],[118.449,33.3288],[118.118,33.4574],[118.0436,33.6502],[117.7629,33.7146],[117.7392,33.8432],[117.2311,34.1004],[116.6157,34.1004],[116.107,34.3577],[115.5947,34.422],[115.1326,34.422],[114.8485,34.2933],[114.7716,34.2933]]]]}},{"type":"Feature","properties":{"name":"Qi","color":"#a8a8c8","area":86900,"polity_id":"polity_qi"},"geometry":{"type":"Polygon","coordinates":[[[119.1307,38.0933],[118.7718,38.1578],[118.8042,38.2224],[118.6476,38.2224],[118.583,38.0933],[118.0674,38.1578],[118.0536,38.2869],[117.6025,38.4806],[117.622,38.6743],[117.2298,38.6743],[116.6283,37.4483],[116.7063,37.4483],[116.6321,37.126],[116.8532,36.9326],[116.0465,35.8377],[117.3531,36.1596],[119.8951,36.2884],[120.5293,36.4816],[120.7318,36.4172],[120.9648,36.4172],[120.9789,36.6105],[121.2121,36.6105],[121.9121,36.9326],[122.3939,36.8037],[122.5664,36.9971],[122.4742,37.126],[122.7129,37.4483],[122.1211,37.5128],[122.1535,37.5773],[121.4969,37.5128],[121.4833,37.6417],[121.171,37.6417],[121.112,37.8352],[120.7538,37.8998],[120.1881,37.7062],[120.2022,37.5773],[119.8266,37.4483],[119.7011,37.1904],[119.1557,37.1904],[119.14,37.3193],[118.984,37.3193],[119.2366,37.8352],[119.3928,37.8352],[119.4571,37.9643],[119.1766,38.0288],[119.2089,38.0933],[119.1307,38.0933]]]}},{"type":"Feature","properties":{"name":"Song","color":"#c8c8b8","area":22944,"polity_id":"polity_song"},"geometry":{"type":"Polygon","coordinates":[[[117.5747,34.5506],[116.65,34.5506],[116.7045,34.6793],[116.5056,34.9366],[116.1969,34.9366],[116.0975,35.0653],[116.1805,35.2584],[116.2578,35.2584],[116.2856,35.3227],[115.9898,35.7089],[115.2311,35.3871],[114.499,34.9366],[114.4721,34.8723],[114.3412,34.7436],[114.6466,34.5506],[115.4942,34.5506],[115.5947,34.422],[116.107,34.3577],[116.6157,34.1004],[117.2311,34.1004],[117.6198,34.2933],[117.6741,34.422],[117.5747,34.5506]]]}},{"type":"Feature","properties":{"name":"Teng","color":"#a8b8c8","area":4225,"polity_id":"polity_teng"},"geometry":{"type":"Polygon","coordinates":[[[116.1805,35.2584],[116.0975,35.0653],[116.1969,34.9366],[116.5056,34.9366],[116.7045,34.6793],[117.1785,35.0653],[116.9253,35.194],[116.9813,35.3227],[116.904,35.3227],[116.9603,35.4514],[116.6721,35.3227],[116.2856,35.3227],[116.2578,35.2584],[116.1805,35.2584]]]}},{"type":"Feature","properties":{"name":"Chen","color":"#a8c8c8","area":5199,"polity_id":"polity_chen"},"geometry":{"type":"Polygon","coordinates":[[[114.7716,34.2933],[114.1557,34.2933],[113.9266,34.4863],[113.7509,34.8079],[114.4721,34.8723],[114.3412,34.7436],[114.6466,34.5506],[115.4942,34.5506],[115.5947,34.422],[115.1326,34.422],[114.8485,34.2933],[114.7716,34.2933]]]}},{"type":"Feature","properties":{"name":"Wey","color":"#c8b8a8","area":6861,"polity_id":"polity_wey"},"geometry":{"type":"Polygon","coordinates":[[[114.2534,35.4514],[114.226,35.3871],[114.3033,35.3871],[114.3307,35.4514],[114.4081,35.4514],[114.8565,35.7733],[115.0114,35.7733],[115.0394,35.8377],[115.1169,35.8377],[115.5977,36.224],[115.5201,36.224],[115.6357,36.4816],[115.3639,36.7393],[114.3144,35.7733],[114.2809,35.5158],[114.2534,35.4514]]]}},{"type":"Feature","properties":{"name":"Cao","color":"#c8a8a8","area":3840,"polity_id":"polity_cao"},"geometry":{"type":"Polygon","coordinates":[[[114.9554,35.6445],[115.2311,35.3871],[114.499,34.9366],[114.3759,35.194],[114.4081,35.4514],[114.8565,35.7733],[115.0114,35.7733],[114.9554,35.6445]]]}},{"type":"Feature","properties":{"name":"Lu","color":"#c8c8a8","area":43470,"polity_id":"polity_lu"},"geometry":{"type":"MultiPolygon","coordinates":[[[[115.0394,35.8377],[114.9554,35.6445],[115.2311,35.3871],[115.9898,35.7089],[116.0465,35.8377],[115.765,35.902],[115.8017,36.1596],[115.5977,36.224],[115.1169,35.8377],[115.0394,35.8377]]],[[[119.2557,34.8723],[119.6187,35.5158],[119.9865,35.6445],[120.3185,36.0308],[120.6585,36.0952],[120.7015,36.3528],[120.7318,36.4172],[120.5293,36.4816],[119.8951,36.2884],[117.3531,36.1596],[116.0465,35.8377],[115.9898,35.7089],[116.2856,35.3227],[116.6721,35.3227],[116.9603,35.4514],[117.5871,35.6445],[118.2549,35.5802],[118.3036,35.5158],[118.056,35.1297],[117.7683,35.001],[117.6355,34.8723],[117.9657,34.7436],[118.1199,34.7436],[118.2807,34.9366],[118.435,34.9366],[118.4284,34.7436],[119.2276,34.8079],[119.2557,34.8723]]]]}},{"type":"Feature","properties":{"name":"Zheng","color":"#a8b8c8","area":5553,"polity_id":"polity_zheng"},"geometry":{"type":"Polygon","coordinates":[[[113.6847,35.3871],[113.5301,35.3871],[113.3414,34.9366],[113.6738,34.8079],[113.7509,34.8079],[114.4721,34.8723],[114.499,34.9366],[114.3759,35.194],[114.4081,35.4514],[114.3307,35.4514],[114.3033,35.3871],[113.762,35.3871],[113.6847,35.3871]]]}},{"type":"Feature","properties":{"name":"Cai","color":"#c8b8a8","area":3632,"polity_id":"polity_cai"},"geometry":{"type":"MultiPolygon","coordinates":[[[[113.5435,34.6793],[113.6206,34.6793],[113.6738,34.8079],[113.3414,34.9366],[113.2642,34.9366],[113.2376,34.8723],[113.1604,34.8723],[113.1339,34.8079],[113.0567,34.8079],[113.0303,34.7436],[113.0284,34.5506],[113.3874,34.4863],[113.44,34.615],[113.5171,34.615],[113.5435,34.6793]]],[[[113.6738,34.8079],[113.6206,34.6793],[113.5435,34.6793],[113.5171,34.615],[113.44,34.615],[113.3874,34.4863],[113.5908,34.229],[113.9266,34.4863],[113.7509,34.8079],[113.6738,34.8079]]]]}},{"type":"Feature","properties":{"name":"Zhu","color":"#c8a8b8","area":6449,"polity_id":"polity_zhu"},"geometry":{"type":"Polygon","coordinates":[[[116.9813,35.3227],[116.9253,35.194],[117.1785,35.0653],[117.7683,35.001],[118.056,35.1297],[118.3036,35.5158],[118.2549,35.5802],[117.5871,35.6445],[116.9603,35.4514],[116.904,35.3227],[116.9813,35.3227]]]}},{"type":"Feature","properties":{"name":"Yan","color":"#a8a8c8","area":49599,"polity_id":"polity_yan"},"geometry":{"type":"Polygon","coordinates":[[[119.3191,39.5143],[119.3804,39.7729],[120.5003,40.2259],[120.6473,40.4849],[121.227,40.9384],[119.3442,40.4201],[117.5675,40.3554],[116.4522,39.9023],[116.1365,39.9023],[115.8648,39.385],[116.1009,39.385],[116.0919,39.0618],[116.2618,38.9326],[116.1639,38.7389],[116.3993,38.7389],[116.1454,38.5451],[117.1971,38.6097],[117.2298,38.6743],[117.622,38.6743],[117.6757,38.9326],[117.8884,39.1911],[118.0457,39.1911],[118.0569,39.0618],[118.4498,39.0618],[118.9894,39.1911],[119.2844,39.4496],[119.3191,39.5143]]]}},{"type":"Feature","properties":{"name":"Later Zhou","color":"#a8a8c8","area":9656,"polity_id":"polity_laterzhou"},"geometry":{"type":"Polygon","coordinates":[[[112.3859,34.4863],[112.617,34.4863],[113.0303,34.7436],[113.0567,34.8079],[113.1339,34.8079],[113.1604,34.8723],[113.2376,34.8723],[113.2642,34.9366],[113.3414,34.9366],[113.5301,35.3871],[112.3199,35.4514],[112.1066,34.9366],[112.1837,34.9366],[112.1548,34.4863],[112.3089,34.4863],[112.3859,34.4863]]]}},{"type":"Feature","properties":{"name":"Xu","color":"#c8a8a8","area":4786,"polity_id":"polity_xu"},"geometry":{"type":"Polygon","coordinates":[[[116.7271,34.5506],[117.5747,34.5506],[117.6741,34.422],[117.9657,34.7436],[117.6355,34.8723],[117.7683,35.001],[117.1785,35.0653],[116.7045,34.6793],[116.65,34.5506],[116.7271,34.5506]]]}},{"type":"Feature","properties":{"name":"Wu","color":"#b8a8c8","area":193430,"polity_id":"polity_wu"},"geometry":{"type":"MultiPolygon","coordinates":[[[[120.3418,34.3577],[119.9847,34.422],[119.7323,34.5506],[119.7113,34.6793],[119.3047,34.8079],[119.2276,34.8079],[118.4284,34.7436],[118.435,34.9366],[118.2807,34.9366],[118.1199,34.7436],[117.9657,34.7436],[117.6741,34.422],[117.6198,34.2933],[117.2311,34.1004],[117.7392,33.8432],[117.7629,33.7146],[118.0436,33.6502],[118.118,33.4574],[118.449,33.3288],[118.5746,33.0716],[118.9058,32.943],[118.3194,32.4288],[117.1096,31.6575],[117.0208,31.2076],[117.6296,31.2076],[118.1246,31.7218],[118.8555,32.236],[119.8485,32.236],[120.1049,31.9146],[120.7655,32.0431],[120.9191,31.8503],[120.9954,31.8503],[121.5806,31.7861],[121.6831,31.6575],[121.8356,31.6575],[121.987,31.8503],[121.7832,32.1074],[121.5033,32.1717],[121.4026,32.4931],[120.9192,32.6216],[120.9263,33.2002],[120.5505,33.5859],[120.4894,34.1647],[120.314,34.2933],[120.3418,34.3577]]],[[[117.9599,29.5366],[117.8842,29.5366],[117.9054,29.6009],[117.9811,29.6009],[117.9599,29.5366]]],[[[121.0467,31.7861],[121.6335,31.529],[121.5843,31.4005],[121.7366,31.4005],[121.9953,31.0791],[121.8993,30.822],[121.5192,30.822],[121.1972,30.565],[121.0453,30.565],[120.6798,30.1794],[120.8088,30.1151],[121.1047,30.3079],[121.4841,30.3079],[121.6202,30.0508],[122.0298,29.9223],[121.8203,29.5366],[121.42,29.4723],[121.3124,29.6009],[120.2424,29.7937],[119.7784,29.9865],[119.2257,29.9223],[118.3597,29.6009],[117.5269,29.6009],[117.1908,29.7294],[116.7364,29.7294],[116.27,29.9223],[116.0966,30.3079],[116.1186,30.3722],[116.8374,30.6935],[117.0208,31.2076],[117.6296,31.2076],[118.1246,31.7218],[118.8555,32.236],[119.8485,32.236],[120.1049,31.9146],[120.7655,32.0431],[120.9191,31.8503],[120.8942,31.7861],[120.9705,31.7861],[121.0467,31.7861]]]]}},{"type":"Feature","properties":{"name":"Hadhramaut","color":"#c8b8a8","area":85919,"polity_id":"polity_hadhramaut"},"geometry":{"type":"MultiPolygon","coordinates":[[[[51.0739,15.4575],[50.8452,15.329],[50.7518,15.0075],[49.4098,14.6861],[47.521,15.0718],[47.5284,15.2004],[46.5062,15.329],[46.223,15.5218],[46.1494,15.5218],[46.3811,15.7147],[46.4697,15.9718],[46.4735,16.0361],[46.5547,16.1647],[46.6982,16.1004],[48.1169,16.4219],[49.5943,16.4861],[50.1184,16.6147],[50.4825,16.5504],[51.0806,16.679],[51.8867,16.6147],[51.9516,16.4861],[51.8605,16.229],[51.2417,15.779],[51.078,15.5218],[51.0739,15.4575]]],[[[46.702,16.1647],[46.6283,16.1647],[46.6322,16.229],[46.7058,16.229],[46.702,16.1647]]]]}},{"type":"Feature","properties":{"name":"Olmec Civilization","color":"#c8c8a8","area":17603,"polity_id":"polity_olmeccivilization"},"geometry":{"type":"Polygon","coordinates":[[[-94.0522,18.2862],[-94.5693,18.2862],[-94.6952,18.1576],[-94.9168,18.1576],[-95.3413,18.4791],[-95.4891,18.4791],[-95.5113,18.6076],[-95.3747,18.6719],[-95.471,18.8005],[-95.8407,18.8005],[-95.9548,18.6076],[-95.9325,18.4791],[-95.4559,18.2862],[-95.1057,17.9648],[-94.2295,17.579],[-93.6602,17.7076],[-93.6814,17.8362],[-92.7855,18.2219],[-92.6916,18.5434],[-93.4937,18.4791],[-93.9783,18.2862],[-94.0522,18.2862]]]}},{"type":"Feature","properties":{"name":"Scythia","color":"#a8b8a0","area":644921,"polity_id":"polity_scythia"},"geometry":{"type":"Polygon","coordinates":[[[37.7424,45.7161],[42.9823,47.0069],[45.0791,48.2588],[45.6099,48.7337],[45.7691,49.4635],[45.7691,50.2167],[45.2118,51.1916],[43.752,51.7865],[41.4163,52.2764],[39.1338,52.3737],[35.7099,52.2601],[33.0823,51.9994],[31.3837,51.6385],[30.0831,51.075],[29.3134,50.3015],[29.1011,49.8929],[29.2338,49.2388],[29.7381,48.611],[31.7553,47.3496],[32.3922,47.2236],[34.8456,46.1102],[35.2304,46.4406],[35.2802,46.2795],[35.0146,46.106],[35.1323,46.1259],[35.8271,46.6243],[36.7948,46.7144],[37.5434,47.0746],[39.1957,47.2688],[39.2707,47.0441],[38.4387,46.8131],[38.501,46.6637],[37.7665,46.6361],[37.9139,46.4065],[38.4923,46.0905],[38.1836,46.0948],[38.0796,45.9348],[38.0143,46.0478],[37.8409,45.7996],[37.7424,45.7161]]]}},{"type":"Feature","properties":{"name":"Carthage","color":"#c8b8a8","area":12267,"polity_id":"polity_carthage"},"geometry":{"type":"Polygon","coordinates":[[[10.851,35.7089],[10.4635,35.902],[10.5403,36.3528],[10.4625,36.4172],[11.0062,36.8037],[11.0063,36.9971],[10.4618,36.7393],[10.2284,36.8037],[10.3054,37.0615],[10.2276,37.0615],[10.227,37.2549],[9.9934,37.1904],[9.759,37.3193],[8.8259,37.0615],[9.2176,36.7393],[9.6828,36.9971],[9.9945,36.9326],[9.84,36.6749],[10.3075,36.2884],[10.308,36.0952],[10.1532,36.0308],[10.1536,35.902],[10.3085,35.902],[10.2314,35.7733],[10.3097,35.4514],[10.6192,35.3227],[10.7738,35.3227],[10.8511,35.4514],[11.083,35.3871],[11.0832,35.5802],[10.851,35.6445],[10.851,35.7089]]]}},{"type":"Feature","properties":{"name":"Twenty-sixth Dynasty of Egypt","color":"#7fb8a0","area":464287,"polity_id":"polity_twentysixthdynastyofegypt"},"geometry":{"type":"MultiPolygon","coordinates":[[[[32.3133,31.2076],[32.5322,31.0791],[32.7652,31.1434],[32.8317,31.0148],[33.2168,31.0791],[33.2929,31.0791],[33.5734,29.7294],[33.7824,29.4723],[33.769,29.2795],[33.9781,29.0224],[34.1614,28.3795],[34.4419,28.0581],[34.4378,27.9938],[34.3459,27.7367],[34.12,27.7367],[33.617,28.1224],[33.5538,28.3153],[33.403,28.3153],[33.1889,28.5081],[33.2139,28.8938],[32.8571,29.2152],[32.5261,29.9223],[32.4287,29.6009],[32.6387,29.3438],[32.6892,28.9581],[32.8361,28.8938],[33.1053,28.3795],[33.6089,27.9938],[33.5851,27.6081],[33.7992,27.4152],[33.9266,27.0295],[34.0731,26.9652],[34.0507,26.5794],[34.1972,26.5151],[34.4613,25.8722],[34.6076,25.8079],[35.1455,24.6506],[35.7889,24.072],[35.708,23.9435],[35.5588,23.9435],[35.5526,23.8149],[35.108,23.8792],[33.7564,23.6863],[33.6818,23.6863],[33.389,23.8149],[32.0409,23.6863],[31.6705,23.7506],[30.5372,23.3649],[30.4627,23.3649],[30.3952,23.5577],[30.104,23.7506],[30.1087,23.8792],[29.9595,23.8792],[29.6728,24.2006],[28.6412,24.5864],[28.2886,25.165],[28.2675,26.5151],[28.3426,26.5151],[28.3707,27.158],[28.4458,27.158],[28.3912,27.6081],[28.4665,27.6081],[28.5233,28.7652],[28.451,28.8295],[28.6054,28.8938],[28.6189,29.1509],[28.6945,29.1509],[29.017,30.822],[29.3971,30.822],[29.4851,31.0148],[29.6332,30.9506],[29.8696,31.0791],[29.8018,31.2076],[29.882,31.2719],[30.3388,31.2719],[30.2712,31.4005],[30.3517,31.4647],[30.8088,31.4647],[30.9656,31.529],[30.9746,31.6575],[31.2033,31.6575],[31.118,31.529],[31.2658,31.4647],[31.8752,31.4647],[31.7806,31.2076],[31.9374,31.2719],[31.9996,31.0791],[32.3039,31.0791],[32.2372,31.2076],[32.3133,31.2076]]],[[[34.3872,35.7089],[34.5421,35.7089],[34.5294,35.5802],[33.9571,35.2584],[34.0873,35.001],[33.6954,34.9366],[33.5234,34.7436],[33.1321,34.6793],[33.0436,34.5506],[32.3667,34.7436],[32.229,34.9366],[32.2458,35.1297],[32.5547,35.1297],[32.8752,35.2584],[32.8869,35.3871],[33.7374,35.3871],[34.3098,35.7089],[34.3872,35.7089]]]]}},{"type":"Feature","properties":{"name":"Janapada of Avanti","color":"#a8c8c8","area":5104,"polity_id":"polity_janapadaofavanti"},"geometry":{"type":"Polygon","coordinates":[[[75.4101,23.3649],[75.304,23.1077],[75.453,23.1077],[75.5708,22.8506],[75.8687,22.8506],[75.8843,22.9791],[76.198,23.1077],[76.23,23.3649],[75.948,23.4934],[75.9643,23.622],[75.666,23.622],[75.4846,23.3649],[75.4101,23.3649]]]}},{"type":"Feature","properties":{"name":"Janapada of Anga","color":"#a8a8c8","area":5578,"polity_id":"polity_janapadaofanga"},"geometry":{"type":"Polygon","coordinates":[[[86.8624,24.6506],[86.7467,24.3935],[87.1101,24.3292],[87.0899,24.2006],[87.3886,24.2006],[87.4088,24.3292],[87.7281,24.4578],[87.7698,24.7149],[87.4919,24.8435],[87.5989,25.0364],[87.2141,24.9721],[87.0223,24.7149],[86.8728,24.7149],[86.8624,24.6506]]]}},{"type":"Feature","properties":{"name":"Mahajanapadas","color":"#a8c8c8","area":80907,"polity_id":"polity_mahajanapadas"},"geometry":{"type":"MultiPolygon","coordinates":[[[[72.7713,33.4574],[72.8177,33.3288],[72.9711,33.3288],[72.9409,33.2002],[73.0942,33.2002],[73.0642,33.0716],[73.3706,33.0716],[73.4008,33.2002],[73.539,33.1359],[73.5846,33.3288],[73.738,33.3288],[73.7997,33.5859],[73.6462,33.5859],[73.6772,33.7146],[73.5236,33.7146],[73.5548,33.8432],[73.3398,33.9075],[73.2164,33.7146],[73.0782,33.7789],[73.032,33.5859],[72.8785,33.5859],[72.848,33.4574],[72.7713,33.4574]]],[[[73.9222,33.4574],[73.8761,33.2645],[74.0294,33.2645],[73.9988,33.1359],[74.1521,33.1359],[74.1216,33.0073],[74.3361,32.943],[74.4586,33.1359],[74.7961,33.2645],[74.8587,33.5217],[74.5831,33.6502],[74.6147,33.7789],[74.3074,33.7789],[74.276,33.6502],[74.0456,33.6502],[74.0912,33.5217],[73.9377,33.5217],[73.9222,33.4574]]],[[[76.8557,28.7652],[76.8065,28.5081],[76.9575,28.5081],[76.9331,28.3795],[77.084,28.3795],[77.0599,28.251],[77.3615,28.251],[77.5612,28.5081],[77.7121,28.5081],[77.762,28.7652],[77.6109,28.7652],[77.6362,28.8938],[77.4851,28.8938],[77.5105,29.0224],[77.2965,29.0867],[76.9313,28.7652],[76.8557,28.7652]]],[[[78.7188,28.251],[78.5947,27.9938],[78.7454,27.9938],[78.7213,27.8652],[78.8719,27.8652],[78.848,27.7367],[79.1492,27.7367],[79.1732,27.8652],[79.4989,27.9938],[79.5483,28.251],[79.2716,28.3795],[79.2968,28.5081],[78.995,28.5081],[78.7942,28.251],[78.7188,28.251]]],[[[75.7158,27.4795],[75.6826,27.2866],[75.833,27.2866],[75.9398,27.0295],[76.2404,27.0295],[76.2622,27.158],[76.5851,27.2866],[76.63,27.5438],[76.3517,27.6724],[76.3862,27.8652],[76.1602,27.8652],[75.8774,27.5438],[75.7269,27.5438],[75.7158,27.4795]]],[[[77.2732,27.3509],[77.2396,27.158],[77.39,27.158],[77.3678,27.0295],[77.5181,27.0295],[77.4961,26.9009],[77.6354,26.8366],[77.7966,26.9009],[77.8187,27.0295],[77.9691,27.0295],[77.9914,27.158],[78.1418,27.158],[78.1874,27.4152],[77.9095,27.5438],[77.9327,27.6724],[77.6316,27.6724],[77.6084,27.5438],[77.2846,27.4152],[77.2732,27.3509]]],[[[81.4737,27.2866],[81.3512,27.0295],[81.5015,27.0295],[81.6052,26.7723],[81.9057,26.7723],[81.9289,26.9009],[82.2531,27.0295],[82.3009,27.2866],[82.0243,27.4152],[82.0488,27.5438],[81.7477,27.5438],[81.5489,27.2866],[81.4737,27.2866]]],[[[85.3485,26.708],[85.3996,26.5794],[85.5498,26.5794],[85.5259,26.4508],[85.676,26.4508],[85.6524,26.3222],[85.9525,26.3222],[85.9762,26.4508],[86.3877,26.6437],[86.3126,26.6437],[86.3494,26.8366],[86.1991,26.8366],[86.2239,26.9652],[86.0736,26.9652],[86.0986,27.0938],[85.7979,27.0938],[85.5982,26.8366],[85.3606,26.7723],[85.3485,26.708]]],[[[83.6847,26.6437],[83.6613,26.5151],[83.8114,26.5151],[83.9154,26.258],[84.204,26.1937],[84.377,26.3222],[84.4119,26.5151],[84.562,26.5151],[84.6096,26.7723],[84.3332,26.9009],[84.3575,27.0295],[84.069,27.0938],[84.0326,26.9009],[83.8824,26.9009],[83.8585,26.7723],[83.6964,26.708],[83.6847,26.6437]]],[[[81.6962,26.0008],[81.6213,26.0008],[81.6105,25.9365],[81.6854,25.9365],[81.6533,25.7436],[81.8153,25.3579],[81.8902,25.3579],[82.1355,25.4864],[82.1565,25.615],[82.3063,25.615],[82.3491,25.8722],[82.071,26.0008],[82.093,26.1294],[81.793,26.1294],[81.7712,26.0008],[81.6962,26.0008]]],[[[81.1933,25.6793],[81.2144,25.8079],[81.5355,25.9365],[81.6854,25.9365],[81.6533,25.7436],[81.8153,25.3579],[81.7405,25.3579],[81.72,25.2293],[81.5805,25.2936],[81.5603,25.165],[81.261,25.165],[81.1519,25.4221],[81.0021,25.4221],[81.1184,25.6793],[81.1933,25.6793]]],[[[82.4561,25.615],[82.3393,25.3579],[82.489,25.3579],[82.5975,25.1007],[82.8968,25.1007],[82.9173,25.2293],[83.2375,25.3579],[83.28,25.615],[83.0019,25.7436],[83.0236,25.8722],[82.7238,25.8722],[82.531,25.615],[82.4561,25.615]]],[[[84.6281,25.615],[84.51,25.3579],[84.6597,25.3579],[84.767,25.1007],[85.0662,25.1007],[85.0874,25.2293],[85.4082,25.3579],[85.452,25.615],[85.1745,25.7436],[85.1969,25.8722],[84.8971,25.8722],[84.703,25.615],[84.6281,25.615]]],[[[86.8624,24.6506],[86.7467,24.3935],[87.1101,24.3292],[87.0899,24.2006],[87.3886,24.2006],[87.4088,24.3292],[87.7281,24.4578],[87.7698,24.7149],[87.4919,24.8435],[87.5989,25.0364],[87.2141,24.9721],[87.0223,24.7149],[86.8728,24.7149],[86.8624,24.6506]]],[[[75.4101,23.3649],[75.304,23.1077],[75.453,23.1077],[75.5708,22.8506],[75.8687,22.8506],[75.8843,22.9791],[76.198,23.1077],[76.23,23.3649],[75.948,23.4934],[75.9643,23.622],[75.666,23.622],[75.4846,23.3649],[75.4101,23.3649]]],[[[77.8263,19.8934],[77.8039,19.7005],[77.952,19.7005],[77.9296,19.5077],[78.3738,19.5077],[78.5294,19.5719],[78.5445,19.7005],[78.6926,19.7005],[78.7969,19.9577],[78.4415,20.0862],[78.4565,20.2148],[78.16,20.2148],[78.1451,20.0862],[77.8338,19.9577],[77.8263,19.8934]]]]}},{"type":"Feature","properties":{"name":"Janapada of Magadha","color":"#a8b8c8","area":5040,"polity_id":"polity_janapadaofmagadha"},"geometry":{"type":"Polygon","coordinates":[[[84.6281,25.615],[84.51,25.3579],[84.6597,25.3579],[84.767,25.1007],[85.0662,25.1007],[85.0874,25.2293],[85.4082,25.3579],[85.452,25.615],[85.1745,25.7436],[85.1969,25.8722],[84.8971,25.8722],[84.703,25.615],[84.6281,25.615]]]}},{"type":"Feature","properties":{"name":"Janapada of Malla","color":"#a8c8c8","area":5486,"polity_id":"polity_janapadaofmalla"},"geometry":{"type":"Polygon","coordinates":[[[83.6847,26.6437],[83.6613,26.5151],[83.8114,26.5151],[83.9154,26.258],[84.204,26.1937],[84.377,26.3222],[84.4119,26.5151],[84.562,26.5151],[84.6096,26.7723],[84.3332,26.9009],[84.3575,27.0295],[84.069,27.0938],[84.0326,26.9009],[83.8824,26.9009],[83.8585,26.7723],[83.6964,26.708],[83.6847,26.6437]]]}},{"type":"Feature","properties":{"name":"Janapada of Aśmaka","color":"#c8c8a8","area":5412,"polity_id":"polity_janapadaofasmaka"},"geometry":{"type":"Polygon","coordinates":[[[77.8263,19.8934],[77.8039,19.7005],[77.952,19.7005],[77.9296,19.5077],[78.3738,19.5077],[78.5294,19.5719],[78.5445,19.7005],[78.6926,19.7005],[78.7969,19.9577],[78.4415,20.0862],[78.4565,20.2148],[78.16,20.2148],[78.1451,20.0862],[77.8338,19.9577],[77.8263,19.8934]]]}},{"type":"Feature","properties":{"name":"Janapada of Vajji","color":"#c8a8a8","area":5163,"polity_id":"polity_janapadaofvajji"},"geometry":{"type":"Polygon","coordinates":[[[85.3485,26.708],[85.3996,26.5794],[85.5498,26.5794],[85.5259,26.4508],[85.676,26.4508],[85.6524,26.3222],[85.9525,26.3222],[85.9762,26.4508],[86.3877,26.6437],[86.3126,26.6437],[86.3494,26.8366],[86.1991,26.8366],[86.2239,26.9652],[86.0736,26.9652],[86.0986,27.0938],[85.7979,27.0938],[85.5982,26.8366],[85.3606,26.7723],[85.3485,26.708]]]}},{"type":"Feature","properties":{"name":"Janapada of Cedī","color":"#a8b8c8","area":4396,"polity_id":"polity_janapadaofcedi"},"geometry":{"type":"Polygon","coordinates":[[[81.1933,25.6793],[81.2144,25.8079],[81.5355,25.9365],[81.6854,25.9365],[81.6533,25.7436],[81.8153,25.3579],[81.7405,25.3579],[81.72,25.2293],[81.5805,25.2936],[81.5603,25.165],[81.261,25.165],[81.1519,25.4221],[81.0021,25.4221],[81.1184,25.6793],[81.1933,25.6793]]]}},{"type":"Feature","properties":{"name":"Janapada of Kuru","color":"#b8a8c8","area":5232,"polity_id":"polity_janapadaofkuru"},"geometry":{"type":"Polygon","coordinates":[[[76.8557,28.7652],[76.8065,28.5081],[76.9575,28.5081],[76.9331,28.3795],[77.084,28.3795],[77.0599,28.251],[77.3615,28.251],[77.5612,28.5081],[77.7121,28.5081],[77.762,28.7652],[77.6109,28.7652],[77.6362,28.8938],[77.4851,28.8938],[77.5105,29.0224],[77.2965,29.0867],[76.9313,28.7652],[76.8557,28.7652]]]}},{"type":"Feature","properties":{"name":"Janapada of Kosala","color":"#b8a8c8","area":4990,"polity_id":"polity_janapadaofkosala"},"geometry":{"type":"Polygon","coordinates":[[[81.4737,27.2866],[81.3512,27.0295],[81.5015,27.0295],[81.6052,26.7723],[81.9057,26.7723],[81.9289,26.9009],[82.2531,27.0295],[82.3009,27.2866],[82.0243,27.4152],[82.0488,27.5438],[81.7477,27.5438],[81.5489,27.2866],[81.4737,27.2866]]]}},{"type":"Feature","properties":{"name":"Janapada of Matsya","color":"#b8a8c8","area":5220,"polity_id":"polity_janapadaofmatsya"},"geometry":{"type":"Polygon","coordinates":[[[75.7158,27.4795],[75.6826,27.2866],[75.833,27.2866],[75.9398,27.0295],[76.2404,27.0295],[76.2622,27.158],[76.5851,27.2866],[76.63,27.5438],[76.3517,27.6724],[76.3862,27.8652],[76.1602,27.8652],[75.8774,27.5438],[75.7269,27.5438],[75.7158,27.4795]]]}},{"type":"Feature","properties":{"name":"Janapada of Surasena","color":"#c8c8a8","area":5199,"polity_id":"polity_janapadaofsurasena"},"geometry":{"type":"Polygon","coordinates":[[[77.2732,27.3509],[77.2396,27.158],[77.39,27.158],[77.3678,27.0295],[77.5181,27.0295],[77.4961,26.9009],[77.6354,26.8366],[77.7966,26.9009],[77.8187,27.0295],[77.9691,27.0295],[77.9914,27.158],[78.1418,27.158],[78.1874,27.4152],[77.9095,27.5438],[77.9327,27.6724],[77.6316,27.6724],[77.6084,27.5438],[77.2846,27.4152],[77.2732,27.3509]]]}},{"type":"Feature","properties":{"name":"Janapada of Pañcāla","color":"#a8a8c8","area":4959,"polity_id":"polity_janapadaofpancala"},"geometry":{"type":"Polygon","coordinates":[[[78.7188,28.251],[78.5947,27.9938],[78.7454,27.9938],[78.7213,27.8652],[78.8719,27.8652],[78.848,27.7367],[79.1492,27.7367],[79.1732,27.8652],[79.4989,27.9938],[79.5483,28.251],[79.2716,28.3795],[79.2968,28.5081],[78.995,28.5081],[78.7942,28.251],[78.7188,28.251]]]}},{"type":"Feature","properties":{"name":"Janapada of Vatsa","color":"#a8a8c8","area":4015,"polity_id":"polity_janapadaofvatsa"},"geometry":{"type":"Polygon","coordinates":[[[81.6962,26.0008],[81.6213,26.0008],[81.6105,25.9365],[81.6854,25.9365],[81.6533,25.7436],[81.8153,25.3579],[81.8902,25.3579],[82.1355,25.4864],[82.1565,25.615],[82.3063,25.615],[82.3491,25.8722],[82.071,26.0008],[82.093,26.1294],[81.793,26.1294],[81.7712,26.0008],[81.6962,26.0008]]]}},{"type":"Feature","properties":{"name":"Janapada of Gandhāra","color":"#c8a8a8","area":4988,"polity_id":"polity_janapadaofgandhara"},"geometry":{"type":"Polygon","coordinates":[[[73.9222,33.4574],[73.8761,33.2645],[74.0294,33.2645],[73.9988,33.1359],[74.1521,33.1359],[74.1216,33.0073],[74.3361,32.943],[74.4586,33.1359],[74.7961,33.2645],[74.8587,33.5217],[74.5831,33.6502],[74.6147,33.7789],[74.3074,33.7789],[74.276,33.6502],[74.0456,33.6502],[74.0912,33.5217],[73.9377,33.5217],[73.9222,33.4574]]]}},{"type":"Feature","properties":{"name":"Janapada of Kāśī","color":"#c8b8a8","area":5040,"polity_id":"polity_janapadaofkasi"},"geometry":{"type":"Polygon","coordinates":[[[82.4561,25.615],[82.3393,25.3579],[82.489,25.3579],[82.5975,25.1007],[82.8968,25.1007],[82.9173,25.2293],[83.2375,25.3579],[83.28,25.615],[83.0019,25.7436],[83.0236,25.8722],[82.7238,25.8722],[82.531,25.615],[82.4561,25.615]]]}},{"type":"Feature","properties":{"name":"Janapada of Kamboja","color":"#a8a8c8","area":5087,"polity_id":"polity_janapadaofkamboja"},"geometry":{"type":"Polygon","coordinates":[[[72.7713,33.4574],[72.8177,33.3288],[72.9711,33.3288],[72.9409,33.2002],[73.0942,33.2002],[73.0642,33.0716],[73.3706,33.0716],[73.4008,33.2002],[73.539,33.1359],[73.5846,33.3288],[73.738,33.3288],[73.7997,33.5859],[73.6462,33.5859],[73.6772,33.7146],[73.5236,33.7146],[73.5548,33.8432],[73.3398,33.9075],[73.2164,33.7146],[73.0782,33.7789],[73.032,33.5859],[72.8785,33.5859],[72.848,33.4574],[72.7713,33.4574]]]}},{"type":"Feature","properties":{"name":"Peloponnesian League","color":"#a8c8c8","area":15359,"polity_id":"polity_peloponnesianleague"},"geometry":{"type":"Polygon","coordinates":[[[23.4096,37.4483],[23.3425,37.6417],[23.1083,37.6417],[23.0373,37.7707],[23.0445,37.8998],[23.2008,37.8998],[23.2901,38.0933],[22.9771,38.0933],[22.9699,37.9643],[22.6572,37.9643],[22.2628,37.8998],[22.1165,38.0933],[21.9601,38.0933],[21.9534,37.9643],[21.331,38.0288],[21.3279,37.9643],[21.2436,37.8352],[21.6966,37.5128],[21.6031,37.1904],[21.681,37.1904],[21.7435,36.8682],[21.8992,36.8682],[21.9085,37.0615],[22.22,37.0615],[22.3563,36.6749],[22.5118,36.6749],[22.5994,36.8682],[22.8328,36.8682],[23.056,36.6749],[22.8532,37.2549],[22.7007,37.3193],[22.7076,37.4483],[22.5515,37.4483],[22.5686,37.7707],[22.803,37.7707],[22.7925,37.5773],[23.1011,37.5128],[23.1685,37.3193],[23.406,37.3838],[23.4096,37.4483]]]}},{"type":"Feature","properties":{"name":"Achaemenid Empire","color":"#e0c878","area":3707703,"polity_id":"polity_achaemenidempire"},"geometry":{"type":"MultiPolygon","coordinates":[[[[61.5368,43.4072],[62.042,43.2118],[62.5436,43.2769],[62.4853,43.0816],[64.0132,42.5612],[65.3012,41.2625],[65.2632,41.1328],[65.4635,41.0032],[65.4258,40.8736],[65.8869,40.5496],[66.1433,40.6144],[66.1058,40.4849],[66.3433,40.4849],[66.6978,40.6144],[66.7359,40.744],[67.4493,40.744],[68.3211,41.0032],[68.361,41.1328],[68.8578,41.1977],[68.8767,41.0032],[69.1339,40.8088],[69.1336,40.5496],[69.3118,40.6144],[69.2722,40.4849],[69.4305,40.4849],[69.6486,40.1612],[70.1425,40.2259],[70.0241,40.0964],[70.3214,39.7729],[70.4791,39.7729],[70.6383,39.5143],[71.5254,39.3203],[71.8822,38.9326],[72.0584,38.9972],[72.0014,38.8034],[72.0798,38.8034],[72.083,38.5451],[72.285,38.1578],[72.3273,37.1904],[72.4053,37.1904],[72.3701,37.0615],[72.5259,37.0615],[72.3957,36.8682],[72.5513,36.8682],[72.4044,36.6105],[72.6564,36.0952],[72.6061,35.902],[72.7443,35.8377],[72.6336,35.7089],[72.711,35.7089],[72.7505,35.2584],[72.8278,35.2584],[72.7119,34.4863],[72.418,34.229],[72.4639,34.1004],[72.0485,33.9718],[72.0027,33.7789],[71.8491,33.7789],[71.6971,33.4574],[71.3312,33.2002],[71.3786,33.0716],[71.2254,33.0716],[71.1819,32.8788],[70.9522,32.8788],[70.9576,32.5574],[70.5958,32.3002],[70.4569,32.3645],[70.2627,32.1717],[69.7146,32.1074],[69.6247,32.0431],[69.6742,31.9146],[69.2032,31.8503],[69.1768,31.7218],[67.9333,30.822],[67.7813,30.822],[66.8158,30.1151],[66.5011,30.0508],[66.2286,29.7937],[65.2004,29.5366],[64.6055,29.6009],[64.2921,29.5366],[64.1953,29.4081],[62.228,29.4081],[61.7285,29.6009],[59.8917,28.9581],[59.77,28.6367],[59.6282,28.701],[59.5255,28.5081],[59.5653,28.251],[59.4145,28.251],[59.3883,28.0581],[59.1536,27.9938],[59.0027,27.4152],[58.9274,27.4152],[58.9863,27.2866],[58.871,26.9652],[58.9304,26.8366],[59.1558,26.8366],[59.0419,26.5151],[59.1767,26.3865],[58.9819,26.0008],[59.4486,25.4864],[59.3596,25.3579],[59.0602,25.3579],[58.7817,25.5507],[57.958,25.5507],[57.7402,25.615],[57.6792,25.7436],[57.3795,25.7436],[57.1148,26.0651],[57.0524,26.8366],[56.7147,27.158],[56.1884,27.158],[56.0981,27.0295],[56.3236,27.0295],[56.3086,26.9009],[56.0612,26.708],[55.6034,26.6437],[55.439,26.5151],[55.2209,26.5794],[55.2351,26.708],[54.8316,26.4508],[54.4632,26.5151],[54.2589,26.708],[53.6581,26.708],[53.4606,26.9652],[52.737,27.2223],[52.4787,27.6081],[52.0486,27.8009],[51.4532,27.8652],[51.0662,28.4438],[51.0281,28.7652],[50.809,28.8295],[50.915,29.0867],[50.6203,29.1509],[50.6513,29.4081],[50.2363,29.7294],[50.0648,30.1794],[49.5859,29.9865],[49.0187,30.3079],[49.1106,30.4364],[49.1186,30.5007],[49.2705,30.5007],[49.2867,30.6292],[48.2528,31.4647],[48.1516,32.4288],[47.931,32.4931],[47.966,32.7502],[47.5596,33.1359],[46.6748,33.3931],[46.71,33.6502],[46.1485,34.0361],[46.1752,34.229],[45.9711,34.422],[45.5356,34.615],[45.5034,34.9366],[44.7436,35.5802],[44.6433,35.9664],[44.3607,36.1596],[44.379,36.2884],[44.1645,36.4172],[44.1146,36.6105],[43.0626,36.8682],[42.9251,36.9971],[42.3891,37.0615],[42.2602,37.2549],[41.6103,37.0615],[40.7623,37.126],[40.2698,36.9326],[40.0529,37.0615],[39.6635,37.0615],[39.4056,36.8682],[39.0865,36.8037],[38.4798,36.9326],[38.3711,37.3193],[38.2932,37.3193],[38.317,37.5128],[37.2873,37.3838],[36.7675,36.9326],[36.4562,36.9326],[36.2862,36.8037],[36.2084,36.8037],[36.1449,36.9326],[35.8336,36.9326],[35.4877,36.6105],[35.3323,36.6105],[35.1127,36.7393],[34.9504,36.6749],[34.8929,36.8682],[34.5816,36.8682],[34.2507,36.6749],[33.9791,36.2884],[33.9015,36.2884],[33.8365,36.4172],[33.442,36.3528],[33.3644,36.3528],[32.827,36.4172],[32.6657,36.3528],[32.5643,36.0952],[32.4867,36.0952],[32.4985,36.224],[32.0681,36.6105],[31.086,36.9326],[30.6191,36.9326],[30.4919,36.3528],[30.0261,36.3528],[29.938,36.224],[29.2397,36.224],[29.1249,36.7393],[28.7361,36.7393],[28.5905,36.8682],[28.3571,36.8682],[28.1869,36.6749],[28.0314,36.6749],[28.1383,37.0615],[28.0653,37.126],[27.598,37.126],[27.5392,37.3838],[27.2225,37.3193],[27.31,37.4483],[27.1634,37.5773],[27.2559,37.7707],[27.1777,37.7707],[27.2753,38.0288],[26.889,38.0933],[26.8203,38.2224],[26.4289,38.2224],[26.3837,38.6743],[26.5358,38.6097],[26.595,38.3515],[27.065,38.3515],[27.0798,38.5451],[26.8495,38.6097],[26.9579,38.9972],[26.8793,38.9972],[26.8945,39.1911],[26.7422,39.2557],[26.8466,39.5789],[26.1325,39.5143],[26.2516,40.0317],[26.2568,40.0964],[26.6731,40.3554],[26.7522,40.3554],[27.4698,40.4201],[27.5376,40.2906],[27.6958,40.2906],[27.7921,40.4849],[27.9505,40.4849],[27.9388,40.3554],[29.0463,40.3554],[28.9004,40.4849],[28.9127,40.6144],[29.4801,40.744],[29.493,40.8736],[29.2486,40.8088],[29.3668,41.1977],[30.4792,41.1977],[30.6242,41.068],[31.3461,41.1328],[31.3533,41.1977],[31.5917,41.1977],[31.6933,41.3922],[31.7007,41.4571],[32.0265,41.522],[32.0417,41.6518],[32.1934,41.5869],[32.6947,41.7816],[32.6308,41.9114],[32.8621,41.8465],[33.2771,41.9764],[34.474,41.9764],[34.944,41.9114],[35.3075,41.6518],[35.9538,41.7167],[36.095,41.5869],[36.1386,41.3274],[36.4477,41.2625],[36.5271,41.2625],[36.5091,41.1328],[37.3551,40.9384],[37.8732,40.6792],[38.8241,40.6792],[39.0019,40.8088],[39.3984,40.8088],[39.6165,40.6792],[40.4089,40.6792],[40.5776,40.744],[40.5981,40.8736],[40.46,41.0032],[40.5393,41.0032],[41.0473,41.1977],[41.1588,41.3922],[41.3071,41.3274],[41.4082,41.4571],[41.5674,41.4571],[41.6002,41.6518],[41.7817,41.7816],[41.7243,41.9114],[42.1231,41.9114],[42.4194,41.7816],[42.7613,41.9114],[43.2282,41.8465],[43.6625,42.0413],[43.7185,41.9114],[43.9458,41.8465],[43.8188,41.5869],[44.034,41.4571],[44.0435,41.068],[44.2469,40.8736],[44.4055,40.8736],[44.4502,40.6792],[44.9256,40.6792],[44.8908,40.4849],[45.0145,40.2906],[45.3984,40.2259],[45.5218,40.0317],[45.8262,39.967],[46.1632,39.6436],[46.8726,39.6436],[46.8494,39.5143],[47.0857,39.5143],[47.1091,39.6436],[47.4913,39.5789],[47.7516,39.7083],[48.3824,39.7083],[49.379,39.967],[49.1514,39.1911],[48.9155,39.1911],[48.801,38.9972],[48.7627,38.3515],[48.8411,38.3515],[48.8843,37.7062],[49.0851,37.5128],[49.9988,37.3838],[50.3209,36.9971],[50.5657,37.0615],[50.6323,36.9971],[50.532,36.8682],[50.8207,36.7393],[51.642,36.546],[52.1859,36.546],[53.0877,36.8037],[54.0333,36.8682],[54.0947,37.1904],[53.9105,37.4483],[53.9079,37.8352],[53.8298,37.8352],[53.9733,38.9326],[55.092,39.385],[56.4022,40.2906],[57.0657,41.068],[58.3048,42.1712],[58.6757,42.9515],[58.5064,43.2118],[58.5424,43.3421],[58.3995,43.4072],[58.4356,43.5375],[58.7135,43.6678],[59.1235,43.4072],[60.1262,43.5375],[60.9312,43.5375],[61.4564,43.4072],[61.5368,43.4072]]],[[[28.2502,36.4816],[28.1393,36.0308],[27.7426,35.902],[27.6925,36.2884],[28.1725,36.4816],[28.2502,36.4816]]],[[[27.19,36.8682],[27.0208,36.6749],[26.8653,36.6749],[26.9566,36.8682],[27.1946,36.9326],[27.19,36.8682]]],[[[26.0652,38.6097],[26.2173,38.5451],[26.1941,38.2224],[25.8764,38.1578],[25.8299,38.6097],[26.0699,38.6743],[26.0652,38.6097]]],[[[26.2801,39.385],[26.5849,39.2557],[26.6436,38.9972],[26.2459,38.9326],[26.0936,38.9972],[26.1032,39.1265],[25.7934,39.1911],[25.8816,39.3203],[26.2013,39.385],[26.2801,39.385]]],[[[40.46,41.0032],[40.3806,41.0032],[40.3909,41.068],[40.4703,41.068],[40.46,41.0032]]],[[[58.5245,42.6912],[58.5069,42.6262],[58.4268,42.6262],[58.4444,42.6912],[58.5245,42.6912]]],[[[62.161,43.3421],[62.1416,43.2769],[62.0613,43.2769],[62.0806,43.3421],[62.161,43.3421]]]]}},{"type":"Feature","properties":{"name":"Phoenicia","label":1,"area":21231,"color":"#7fb8c8"},"geometry":{"type":"Point","coordinates":[5.659903529411764,36.56608470588233]}},{"type":"Feature","properties":{"name":"Kingdom of Kush","label":1,"area":336379,"color":"#a08ad8"},"geometry":{"type":"Point","coordinates":[32.87224423076923,19.62137692307692]}},{"type":"Feature","properties":{"name":"Sabaeans","label":1,"area":63948,"color":"#a8a8c8"},"geometry":{"type":"Point","coordinates":[44.56960512820515,16.25372820512821]}},{"type":"Feature","properties":{"name":"Greek City-States","label":1,"area":166276,"color":"#b8c8a8"},"geometry":{"type":"Point","coordinates":[23.957322573839644,39.99609725738399]}},{"type":"Feature","properties":{"name":"Jin","label":1,"area":152347,"color":"#c8b8a8"},"geometry":{"type":"Point","coordinates":[114.05330980392158,36.860945098039224]}},{"type":"Feature","properties":{"name":"Chu","label":1,"area":353166,"color":"#a8b8c8"},"geometry":{"type":"Point","coordinates":[113.31082181818178,32.526083636363644]}},{"type":"Feature","properties":{"name":"Qin","label":1,"area":56478,"color":"#a8a8c8"},"geometry":{"type":"Point","coordinates":[110.10289565217393,35.398539130434784]}},{"type":"Feature","properties":{"name":"Etruscans","label":1,"area":55021,"color":"#b8a8c8"},"geometry":{"type":"Point","coordinates":[10.876592592592594,44.02691666666668]}},{"type":"Feature","properties":{"name":"Spring and Autumn States","label":1,"area":1008534,"color":"#a8b8c8"},"geometry":{"type":"Point","coordinates":[116.14879718004339,34.886487418655065]}},{"type":"Feature","properties":{"name":"Qi","label":1,"area":86900,"color":"#a8a8c8"},"geometry":{"type":"Point","coordinates":[119.63184565217392,37.4625652173913]}},{"type":"Feature","properties":{"name":"Song","label":1,"area":22944,"color":"#c8c8b8"},"geometry":{"type":"Point","coordinates":[116.08952272727274,34.7729090909091]}},{"type":"Feature","properties":{"name":"Teng","label":1,"area":4225,"color":"#a8b8c8"},"geometry":{"type":"Point","coordinates":[116.60383846153846,35.16431538461538]}},{"type":"Feature","properties":{"name":"Chen","label":1,"area":5199,"color":"#a8c8c8"},"geometry":{"type":"Point","coordinates":[114.64860909090909,34.52138181818182]}},{"type":"Feature","properties":{"name":"Wey","label":1,"area":6861,"color":"#c8b8a8"},"geometry":{"type":"Point","coordinates":[114.81722666666666,35.82056]}},{"type":"Feature","properties":{"name":"Cao","label":1,"area":3840,"color":"#c8a8a8"},"geometry":{"type":"Point","coordinates":[114.76248571428572,35.451457142857144]}},{"type":"Feature","properties":{"name":"Lu","label":1,"area":43470,"color":"#c8c8a8"},"geometry":{"type":"Point","coordinates":[117.73914444444446,35.57489444444444]}},{"type":"Feature","properties":{"name":"Zheng","label":1,"area":5553,"color":"#a8b8c8"},"geometry":{"type":"Point","coordinates":[114.01100000000001,35.16720833333333]}},{"type":"Feature","properties":{"name":"Cai","label":1,"area":3632,"color":"#c8b8a8"},"geometry":{"type":"Point","coordinates":[113.42982608695652,34.687678260869575]}},{"type":"Feature","properties":{"name":"Zhu","label":1,"area":6449,"color":"#c8a8b8"},"geometry":{"type":"Point","coordinates":[117.49193,35.32272999999999]}},{"type":"Feature","properties":{"name":"Yan","label":1,"area":49599,"color":"#a8a8c8"},"geometry":{"type":"Point","coordinates":[117.84775769230767,39.39773846153847]}},{"type":"Feature","properties":{"name":"Later Zhou","label":1,"area":9656,"color":"#a8a8c8"},"geometry":{"type":"Point","coordinates":[112.78876000000001,34.84227333333333]}},{"type":"Feature","properties":{"name":"Xu","label":1,"area":4786,"color":"#c8a8a8"},"geometry":{"type":"Point","coordinates":[117.31982222222223,34.71503333333333]}},{"type":"Feature","properties":{"name":"Wu","label":1,"area":193430,"color":"#b8a8c8"},"geometry":{"type":"Point","coordinates":[119.55749540229888,31.906694252873553]}},{"type":"Feature","properties":{"name":"Hadhramaut","label":1,"area":85919,"color":"#c8b8a8"},"geometry":{"type":"Point","coordinates":[48.66662142857143,15.90295357142857]}},{"type":"Feature","properties":{"name":"Olmec Civilization","label":1,"area":17603,"color":"#c8c8a8"},"geometry":{"type":"Point","coordinates":[-94.67765238095235,18.319876190476197]}},{"type":"Feature","properties":{"name":"Scythia","label":1,"area":644921,"color":"#a8b8a0"},"geometry":{"type":"Point","coordinates":[37.22113589743589,48.17665641025643]}},{"type":"Feature","properties":{"name":"Carthage","label":1,"area":12267,"color":"#c8b8a8"},"geometry":{"type":"Point","coordinates":[10.326658064516128,36.328045161290326]}},{"type":"Feature","properties":{"name":"Twenty-sixth Dynasty of Egypt","label":1,"area":464287,"color":"#7fb8a0"},"geometry":{"type":"Point","coordinates":[32.163186792452834,29.283601886792457]}},{"type":"Feature","properties":{"name":"Janapada of Avanti","label":1,"area":5104,"color":"#a8c8c8"},"geometry":{"type":"Point","coordinates":[75.74848333333334,23.236291666666663]}},{"type":"Feature","properties":{"name":"Janapada of Anga","label":1,"area":5578,"color":"#a8a8c8"},"geometry":{"type":"Point","coordinates":[87.25418461538463,24.5814]}},{"type":"Feature","properties":{"name":"Mahajanapadas","label":1,"area":80907,"color":"#a8c8c8"},"geometry":{"type":"Point","coordinates":[79.82353697478995,27.172704201680624]}},{"type":"Feature","properties":{"name":"Janapada of Magadha","label":1,"area":5040,"color":"#a8b8c8"},"geometry":{"type":"Point","coordinates":[84.96250833333333,25.48645]}},{"type":"Feature","properties":{"name":"Janapada of Malla","label":1,"area":5486,"color":"#a8c8c8"},"geometry":{"type":"Point","coordinates":[84.09168125000001,26.659787499999993]}},{"type":"Feature","properties":{"name":"Janapada of Aśmaka","label":1,"area":5412,"color":"#c8c8a8"},"geometry":{"type":"Point","coordinates":[78.24899285714287,19.842864285714285]}},{"type":"Feature","properties":{"name":"Janapada of Vajji","label":1,"area":5163,"color":"#c8a8a8"},"geometry":{"type":"Point","coordinates":[85.86013888888888,26.697283333333328]}},{"type":"Feature","properties":{"name":"Janapada of Cedī","label":1,"area":4396,"color":"#a8b8c8"},"geometry":{"type":"Point","coordinates":[81.44513571428571,25.514]}},{"type":"Feature","properties":{"name":"Janapada of Kuru","label":1,"area":5232,"color":"#b8a8c8"},"geometry":{"type":"Point","coordinates":[77.28524999999999,28.64068125]}},{"type":"Feature","properties":{"name":"Janapada of Kosala","label":1,"area":4990,"color":"#b8a8c8"},"geometry":{"type":"Point","coordinates":[81.80749166666668,27.15805]}},{"type":"Feature","properties":{"name":"Janapada of Matsya","label":1,"area":5220,"color":"#b8a8c8"},"geometry":{"type":"Point","coordinates":[76.10702307692308,27.43003846153846]}},{"type":"Feature","properties":{"name":"Janapada of Surasena","label":1,"area":5199,"color":"#c8c8a8"},"geometry":{"type":"Point","coordinates":[77.67733333333335,27.222338888888885]}},{"type":"Feature","properties":{"name":"Janapada of Pañcāla","label":1,"area":4959,"color":"#a8a8c8"},"geometry":{"type":"Point","coordinates":[79.01623571428571,28.085649999999998]}},{"type":"Feature","properties":{"name":"Janapada of Vatsa","label":1,"area":4015,"color":"#a8a8c8"},"geometry":{"type":"Point","coordinates":[81.90985333333333,25.812200000000004]}},{"type":"Feature","properties":{"name":"Janapada of Gandhāra","label":1,"area":4988,"color":"#c8a8a8"},"geometry":{"type":"Point","coordinates":[74.25914117647059,33.39308235294117]}},{"type":"Feature","properties":{"name":"Janapada of Kāśī","label":1,"area":5040,"color":"#c8b8a8"},"geometry":{"type":"Point","coordinates":[82.79115,25.48645]}},{"type":"Feature","properties":{"name":"Janapada of Kamboja","label":1,"area":5087,"color":"#a8a8c8"},"geometry":{"type":"Point","coordinates":[73.26758181818181,33.460304545454555]}},{"type":"Feature","properties":{"name":"Peloponnesian League","label":1,"area":15359,"color":"#a8c8c8"},"geometry":{"type":"Point","coordinates":[22.512653846153842,37.502966666666666]}},{"type":"Feature","properties":{"name":"Achaemenid Empire","label":1,"area":3707703,"color":"#e0c878"},"geometry":{"type":"Point","coordinates":[47.61400000000001,36.72937518796996]}}]}