{"type":"FeatureCollection","features":[{"type":"Feature","properties":{"name":"Kingdom of Kush","color":"#a08ad8","area":336379,"polity_id":"polity_kingdomofkush"},"geometry":{"type":"Polygon","coordinates":[[[33.8404,22.1434],[33.8832,23.172],[33.8087,23.172],[33.8225,23.4934],[33.679,23.622],[33.6818,23.6863],[33.389,23.8149],[32.0409,23.6863],[31.6705,23.7506],[30.5372,23.3649],[30.5349,23.3006],[30.742,22.8506],[30.7214,22.272],[30.5615,21.9505],[30.6358,21.9505],[30.6879,21.3077],[30.7621,21.3077],[30.7442,20.7934],[30.8184,20.7934],[30.8026,20.3434],[30.8768,20.3434],[31.147,17.6433],[31.2208,17.6433],[31.337,16.8076],[31.4771,16.6147],[31.3939,16.3576],[31.5364,16.229],[31.527,15.9718],[31.7337,15.5861],[32.0944,15.3933],[32.5334,15.329],[32.5286,15.2004],[33.8621,15.4575],[34.0981,15.8433],[34.6843,15.779],[34.5556,16.229],[34.7137,16.4861],[35.6713,16.4861],[36.0539,16.8076],[36.0033,17.3219],[35.5013,17.6433],[35.2998,18.0933],[34.939,18.2862],[34.8792,18.6076],[34.5974,18.9291],[34.4687,19.3791],[34.2575,19.6362],[33.8196,21.6291],[33.7453,21.6291],[33.8352,22.0148],[33.7635,22.0791],[33.8378,22.0791],[33.8404,22.1434]]]}},{"type":"Feature","properties":{"name":"Hadhramaut","color":"#c8b8a8","area":86171,"polity_id":"polity_hadhramaut"},"geometry":{"type":"MultiPolygon","coordinates":[[[[51.0739,15.4575],[50.8452,15.329],[50.7518,15.0075],[49.6302,14.6861],[48.5354,14.8147],[48.3223,14.9432],[47.521,15.0718],[47.5284,15.2004],[46.6533,15.329],[46.5798,15.329],[46.1494,15.5218],[46.3811,15.7147],[46.4697,15.9718],[46.4735,16.0361],[46.5547,16.1647],[46.6982,16.1004],[48.1169,16.4219],[49.5943,16.4861],[50.1184,16.6147],[50.4825,16.5504],[51.0806,16.679],[51.8867,16.6147],[51.9516,16.4861],[51.8605,16.229],[51.2417,15.779],[51.078,15.5218],[51.0739,15.4575]]],[[[46.702,16.1647],[46.6283,16.1647],[46.6322,16.229],[46.7058,16.229],[46.702,16.1647]]]]}},{"type":"Feature","properties":{"name":"Zapotec Civilization","color":"#c8a8b8","area":69768,"polity_id":"polity_zapoteccivilization"},"geometry":{"type":"MultiPolygon","coordinates":[[[[-95.589,17.3219],[-95.0726,17.3219],[-94.5988,17.129],[-94.3799,16.679],[-94.6346,16.4219],[-94.5412,16.2933],[-94.8456,16.3576],[-94.9536,16.1004],[-96.211,15.6504],[-96.7261,15.6504],[-97.0493,15.8433],[-97.7215,15.9076],[-98.0458,16.1004],[-98.0435,16.5504],[-97.7695,16.679],[-97.8958,17.0005],[-98.0326,16.9362],[-98.0231,17.3219],[-98.2253,17.6433],[-98.2474,17.7719],[-98.0593,17.9648],[-97.5424,17.9648],[-96.9078,17.7076],[-96.6125,17.7076],[-96.2849,17.5148],[-95.9898,17.5148],[-95.6627,17.3219],[-95.589,17.3219]]],[[[-94.7671,17.2576],[-94.8409,17.2576],[-94.8513,17.3219],[-94.7776,17.3219],[-94.7671,17.2576]]]]}},{"type":"Feature","properties":{"name":"Kingdom of Armenia","color":"#c8a0c8","area":218265,"polity_id":"polity_kingdomofarmenia"},"geometry":{"type":"Polygon","coordinates":[[[48.2247,39.7083],[48.6733,39.5789],[48.8065,39.4496],[48.7822,39.3203],[48.9275,39.2557],[48.7422,38.6743],[48.8206,38.6743],[48.8068,38.1578],[48.7954,38.0933],[48.326,38.0933],[47.2516,38.6743],[46.1209,38.4806],[45.8539,38.2869],[45.6349,37.8998],[45.2238,37.7707],[45.1737,37.4483],[45.2517,37.4483],[45.29,37.1904],[45.4458,37.1904],[45.2509,36.9326],[44.8031,37.0615],[44.7738,37.3838],[44.6374,37.5128],[43.9448,37.5773],[43.886,37.7062],[42.8801,37.7707],[42.5082,37.8998],[42.03,37.8352],[41.9702,37.9643],[41.6666,38.0288],[40.5716,38.0288],[40.547,38.416],[40.4686,38.416],[40.6576,39.1911],[40.5097,39.2557],[40.4784,39.5789],[39.848,39.5789],[39.7506,39.4496],[39.2085,39.5143],[38.9542,39.385],[38.7449,39.5789],[38.9298,39.7729],[38.7904,39.9023],[40.3982,40.0964],[40.9533,40.6144],[41.4495,40.744],[41.5348,41.2625],[41.6938,41.2625],[41.7046,41.3274],[42.2502,41.2625],[42.3631,41.4571],[42.6244,41.5869],[42.8633,41.5869],[43.3402,41.1328],[43.9756,41.1328],[44.2373,41.2625],[45.1117,41.2625],[45.3019,41.0032],[45.5953,40.8736],[45.4567,40.5496],[45.8844,40.2906],[46.2007,40.2906],[46.2561,40.1612],[46.4814,40.0964],[46.4578,39.967],[46.7736,39.967],[47.0656,39.8376],[47.1208,39.7083],[48.1459,39.7083],[48.2247,39.7083]]]}},{"type":"Feature","properties":{"name":"Early Cheras","color":"#c8b8a8","area":25181,"polity_id":"polity_earlycheras"},"geometry":{"type":"Polygon","coordinates":[[[75.9858,10.5999],[76.5525,8.9246],[77.1465,8.2572],[77.2492,8.3869],[77.3448,9.5807],[77.2334,9.7601],[77.4144,10.2065],[76.8499,10.4502],[76.8924,10.7567],[76.7068,10.907],[75.9854,10.6264],[75.9858,10.5999]]]}},{"type":"Feature","properties":{"name":"Early Pandyas","color":"#c8c8a8","area":32556,"polity_id":"polity_earlypandyas"},"geometry":{"type":"Polygon","coordinates":[[[79.2949,10.2653],[78.916,10.1266],[77.4407,10.1881],[77.2401,9.7739],[77.3636,9.5802],[77.2674,8.3937],[77.1585,8.2917],[77.2619,8.154],[77.5255,8.081],[77.8419,8.1738],[78.1759,8.5139],[78.2458,8.9144],[78.5409,9.1043],[79.1476,9.2575],[78.9141,9.4504],[78.9366,9.6729],[79.2665,9.9937],[79.2949,10.2653]]]}},{"type":"Feature","properties":{"name":"Anurādhapura","color":"#a8a8c8","area":73532,"polity_id":"polity_anuradhapura"},"geometry":{"type":"Polygon","coordinates":[[[81.259,8.6431],[80.987,8.9645],[80.9952,9.0931],[80.8532,9.1574],[80.8615,9.2859],[80.7195,9.3502],[80.7279,9.4788],[80.4398,9.5431],[80.5214,9.6717],[80.4526,9.7359],[79.8764,9.8645],[79.8636,9.6717],[80.0786,9.6074],[79.993,9.4145],[80.0495,9.1574],[79.8063,8.7716],[79.764,8.0645],[79.618,8.0645],[79.6069,7.8716],[79.7419,7.6787],[79.7594,6.6501],[79.9521,6.1358],[80.2311,5.8787],[80.6686,5.8787],[81.3375,6.1358],[81.8779,6.7144],[81.9167,7.4216],[81.7744,7.4859],[81.6544,7.9359],[81.4468,8.1288],[81.3971,8.5145],[81.255,8.5788],[81.259,8.6431]]]}},{"type":"Feature","properties":{"name":"Early Cholas","color":"#c8c8a8","area":28856,"polity_id":"polity_earlycholas"},"geometry":{"type":"Polygon","coordinates":[[[79.8348,11.3566],[78.9641,10.839],[77.8762,10.9386],[77.5908,11.1383],[77.0202,11.1694],[76.6815,10.9441],[76.9036,10.7691],[76.8467,10.4808],[77.3991,10.2148],[78.9246,10.1605],[79.3943,10.323],[79.8541,10.2709],[79.8677,11.1967],[79.8348,11.3566]]]}},{"type":"Feature","properties":{"name":"Kingdom of Sophene","color":"#a8c8c8","area":23761,"polity_id":"polity_kingdomofsophene"},"geometry":{"type":"Polygon","coordinates":[[[40.4934,38.0288],[40.5716,38.0288],[40.547,38.416],[40.4686,38.416],[40.6576,39.1911],[40.5097,39.2557],[40.4784,39.5789],[39.848,39.5789],[39.7506,39.4496],[39.2085,39.5143],[38.9542,39.385],[38.9274,39.1911],[38.7525,39.0618],[38.7263,38.868],[38.9619,38.868],[39.2496,38.6743],[39.2322,38.5451],[39.511,38.2869],[39.4155,38.1578],[39.4597,37.8998],[39.4958,37.5773],[40.1812,37.4483],[40.0506,37.6417],[40.0937,37.9643],[40.4152,38.0288],[40.4934,38.0288]]]}},{"type":"Feature","properties":{"name":"Mayan City-States","color":"#b8a8c8","area":198040,"polity_id":"polity_mayancitystates"},"geometry":{"type":"Polygon","coordinates":[[[-88.5037,17.7719],[-88.9466,17.7719],[-89.1044,17.8362],[-89.0509,17.9648],[-89.336,17.9005],[-90.2105,18.2862],[-91.6563,18.0933],[-91.6986,17.9005],[-91.9201,17.9005],[-91.9522,17.6433],[-92.4807,17.2576],[-92.4603,17.129],[-92.7149,16.8719],[-93.1488,15.8433],[-93.1209,15.6504],[-93.3232,15.5218],[-92.7546,15.1361],[-92.4741,14.6861],[-91.5042,13.9789],[-90.4689,13.9146],[-89.9913,13.5932],[-89.8666,13.7861],[-89.5657,13.7218],[-89.588,13.9146],[-89.3905,14.1075],[-89.0968,14.1075],[-89.1856,14.2361],[-88.8185,14.2361],[-88.9074,14.3646],[-88.6949,14.4289],[-88.629,15.0718],[-88.3773,15.3933],[-88.5122,15.8433],[-88.8247,15.9718],[-88.6403,16.229],[-88.493,16.229],[-88.2355,16.4861],[-88.209,16.8076],[-88.1353,16.8076],[-88.1785,17.579],[-88.3161,17.5148],[-88.4736,17.579],[-88.4936,17.7076],[-88.5037,17.7719]]]}},{"type":"Feature","properties":{"name":"Parthian Empire","color":"#8cc8a0","area":2702740,"polity_id":"polity_parthianempire"},"geometry":{"type":"MultiPolygon","coordinates":[[[[51.1317,25.4221],[51.1375,25.4864],[51.2124,25.4864],[51.2066,25.4221],[51.1317,25.4221]]],[[[50.6608,26.0008],[50.6487,25.8722],[50.4299,25.9365],[50.4602,26.258],[50.6852,26.258],[50.6668,26.0651],[50.6608,26.0008]]],[[[57.1139,40.2906],[57.2411,40.1612],[57.3512,40.2906],[58.332,40.4201],[58.5374,40.2906],[58.8537,40.2906],[58.9797,40.1612],[59.77,40.1612],[59.7683,39.8376],[60.0839,39.8376],[60.0518,39.7083],[60.6826,39.7083],[60.7131,39.5143],[60.9495,39.5143],[62.5018,40.0317],[62.8795,39.967],[64.0199,40.0964],[64.3894,40.2906],[65.235,40.4849],[65.2719,40.6144],[65.5888,40.6144],[65.8035,40.8088],[65.8828,40.8088],[65.5638,39.967],[65.2912,39.8376],[65.2031,39.5143],[65.2819,39.5143],[65.0655,38.9972],[65.1441,38.9972],[65.0767,38.7389],[65.1551,38.7389],[64.7511,35.7733],[64.8285,35.7733],[64.854,35.194],[65.092,34.8723],[64.5735,34.615],[64.3239,34.1647],[63.8726,33.8432],[63.4264,32.3645],[63.185,32.3002],[63.1608,32.1717],[62.8195,31.9789],[62.4212,31.4647],[61.9415,31.3362],[61.8746,30.9506],[61.3872,30.3079],[60.9562,29.9865],[61.0015,29.7937],[62.3037,29.4081],[64.1197,29.4081],[64.5298,29.6009],[65.1247,29.5366],[66.0771,29.7937],[66.4336,29.6652],[66.888,29.6652],[66.9949,29.4081],[67.1352,29.3438],[66.9313,28.5724],[67.0067,28.5724],[66.9655,28.3153],[67.0409,28.3153],[67.0457,27.8652],[67.121,27.8652],[67.0623,27.4795],[67.1745,27.2223],[67.1966,26.3222],[67.5021,25.8079],[67.1121,25.1007],[66.6398,24.9078],[66.6475,24.9721],[66.6203,25.3579],[66.3451,25.5507],[66.0215,25.3579],[64.8161,25.2936],[64.8006,25.165],[64.2845,25.2293],[64.225,25.3579],[63.6262,25.3579],[63.5362,25.2293],[62.5634,25.2293],[62.4739,25.1007],[62.182,25.165],[62.0179,25.0364],[61.7187,25.0364],[61.6582,25.165],[61.1274,25.1007],[60.9171,25.2293],[60.6178,25.2293],[60.6321,25.3579],[59.0602,25.3579],[58.7817,25.5507],[57.958,25.5507],[57.7402,25.615],[57.6792,25.7436],[57.3795,25.7436],[57.1757,25.9365],[57.0524,26.8366],[56.7147,27.158],[56.1884,27.158],[56.0981,27.0295],[56.3236,27.0295],[56.3086,26.9009],[56.0612,26.708],[55.6034,26.6437],[55.439,26.5151],[55.2889,26.5151],[55.3102,26.708],[55.5427,26.7723],[55.2423,26.7723],[54.8316,26.4508],[54.4632,26.5151],[54.2589,26.708],[53.6581,26.708],[53.4606,26.9652],[52.737,27.2223],[52.4787,27.6081],[52.0486,27.8009],[51.5967,27.8009],[51.3168,27.9938],[51.3313,28.1224],[51.0662,28.4438],[51.0281,28.7652],[50.809,28.8295],[50.915,29.0867],[50.6203,29.1509],[50.6513,29.4081],[50.2363,29.7294],[50.0648,30.1794],[49.5859,29.9865],[48.9428,30.3079],[48.9873,30.0508],[48.3654,29.9223],[48.4035,29.6009],[47.8662,29.5366],[47.8517,29.4081],[48.0786,29.4081],[48.2154,29.2795],[48.1937,29.0867],[48.4604,28.7652],[48.5627,28.3153],[48.9741,27.9295],[48.8722,27.6724],[49.2419,27.6081],[49.3596,27.2866],[50.135,26.7723],[50.116,26.5794],[50.2537,26.4508],[50.223,26.1294],[50.067,26.0651],[50.211,26.0008],[50.3255,25.615],[50.6076,25.4221],[50.6541,25.1007],[50.7289,25.1007],[50.769,25.5507],[50.9246,25.615],[50.9545,25.9365],[51.1229,26.1294],[51.4228,26.1294],[51.6979,25.8722],[51.575,25.3579],[51.7188,25.2936],[51.69,24.9721],[51.5236,24.7792],[51.4108,24.3292],[51.8535,24.2649],[51.907,24.0077],[52.2801,24.0077],[52.6003,24.2649],[53.112,24.1363],[54.0825,24.1363],[54.0995,24.3292],[54.3178,24.2649],[54.5591,24.4578],[54.7442,24.8435],[55.1427,25.1007],[55.4119,25.5507],[55.9696,25.8722],[56.1682,26.3222],[56.4754,26.3865],[56.5433,26.3222],[56.3854,25.5507],[56.4603,25.5507],[56.4208,25.165],[56.4957,25.165],[56.4016,24.9721],[56.5449,24.9078],[56.7881,24.3292],[57.4927,23.8792],[58.8115,23.622],[59.08,23.3006],[59.0682,23.172],[59.2801,23.0434],[59.2684,22.9148],[58.8961,22.9148],[58.9076,23.0434],[58.6096,23.0434],[58.3347,23.3006],[57.962,23.3006],[57.9736,23.4291],[57.8303,23.4934],[56.8095,23.7506],[56.8211,23.8792],[56.5402,24.072],[56.4894,24.3292],[56.2713,24.3935],[56.2895,24.5864],[56.09,24.8435],[55.8595,24.7792],[55.8412,24.5864],[55.623,24.6506],[54.8121,23.9435],[54.2732,23.7506],[51.881,23.6863],[51.8219,23.8792],[51.1658,24.072],[51.1016,24.2006],[51.2028,24.5221],[51.1335,24.5864],[51.2939,24.7149],[51.3274,25.1007],[51.4022,25.1007],[51.2698,25.2936],[51.3504,25.3579],[51.3232,25.8722],[51.1733,25.8722],[51.2302,25.6793],[50.982,25.4221],[50.9647,25.2293],[51.1201,25.2936],[50.9201,24.7149],[50.6158,24.6506],[50.3438,24.9721],[50.0317,25.6793],[49.6745,25.8722],[49.8784,26.4508],[49.2525,26.9652],[49.2651,27.0938],[49.0588,27.2866],[48.5515,27.4795],[48.4669,28.1224],[48.2474,28.1867],[48.2061,28.5081],[48.0551,28.5081],[48.1444,28.6367],[48.0003,28.701],[48.0143,28.8295],[47.8087,29.0224],[47.6505,28.9581],[47.6717,29.1509],[47.5347,29.2795],[47.6538,29.6652],[47.2897,29.7937],[46.9794,29.7294],[46.994,29.858],[46.8497,29.9223],[46.6151,29.858],[46.5906,30.3079],[45.7705,30.4364],[44.9546,31.2719],[44.5814,31.3362],[44.459,31.5933],[43.1526,32.8145],[42.7085,32.943],[42.3636,33.2645],[42.0645,33.3288],[41.7881,33.5859],[41.4886,33.6502],[41.2116,33.9075],[40.6267,34.1647],[40.5497,34.1647],[40.4792,34.8723],[40.263,35.001],[40.2784,35.1297],[40.0621,35.2584],[39.9383,35.5158],[39.4971,35.7089],[39.7527,35.902],[40.8089,36.2884],[41.2829,36.3528],[41.5413,36.546],[41.6711,36.3528],[42.629,36.546],[42.6227,37.0615],[42.7647,37.5128],[42.774,37.5773],[42.852,37.5773],[42.8801,37.7707],[43.886,37.7062],[43.9448,37.5773],[44.6374,37.5128],[44.7738,37.3838],[44.8031,37.0615],[45.2509,36.9326],[45.4458,37.1904],[45.29,37.1904],[45.2517,37.4483],[45.1737,37.4483],[45.2238,37.7707],[45.6349,37.8998],[45.8539,38.2869],[46.1209,38.4806],[47.2516,38.6743],[48.326,38.0933],[48.8736,38.0933],[48.8285,37.8352],[49.0851,37.5128],[49.8541,37.4483],[50.3209,36.9971],[50.5657,37.0615],[50.6323,36.9971],[50.532,36.8682],[51.2647,36.6105],[52.1859,36.546],[53.0877,36.8037],[54.0333,36.8682],[54.0947,37.1904],[53.9105,37.4483],[53.9079,37.8352],[53.8298,37.8352],[53.9868,38.9972],[53.5176,39.385],[53.1375,39.4496],[53.5449,39.5143],[53.4985,40.0317],[52.7226,40.0964],[52.7135,40.4201],[52.7927,40.4201],[52.893,40.8736],[52.9723,40.8736],[52.9433,40.744],[53.3397,40.744],[53.4482,40.8736],[53.4044,40.6792],[54.5437,40.8088],[56.6548,40.3554],[56.9868,40.4201],[56.9558,40.2906],[57.0348,40.2906],[57.1139,40.2906]]],[[[65.3511,40.6144],[65.3697,40.6792],[65.449,40.6792],[65.4304,40.6144],[65.3511,40.6144]]]]}},{"type":"Feature","properties":{"name":"Satavahana Dynasty","color":"#a8c8c8","area":890001,"polity_id":"polity_satavahanadynasty"},"geometry":{"type":"Polygon","coordinates":[[[80.4448,24.2006],[80.7071,23.9435],[80.8563,23.9435],[81.3646,23.3006],[82.6195,22.6577],[83.3453,21.9505],[83.5187,21.5648],[83.3701,21.5648],[83.1564,21.0505],[82.663,20.6648],[82.4589,20.2148],[82.3107,20.2148],[82.2048,19.9577],[82.0488,19.8934],[82.0012,19.5077],[82.0753,19.5077],[82.0278,19.1219],[82.1017,19.1219],[81.9065,18.7362],[81.7586,18.7362],[81.222,17.9648],[80.357,17.5148],[79.5314,16.7433],[79.3134,16.1004],[79.0583,15.779],[78.7085,14.4932],[78.2678,14.4932],[77.5035,14.1718],[77.2098,14.1718],[76.893,13.9146],[76.4413,13.7861],[76.1148,13.4003],[75.9735,13.4646],[75.3036,15.0075],[74.9668,15.329],[74.7523,15.3933],[74.311,15.3933],[74.1028,15.5218],[73.8023,15.4575],[73.4171,16.0361],[73.3279,16.6147],[73.2542,16.6147],[73.2534,17.3219],[72.9589,18.0291],[72.8748,19.3148],[72.7337,19.3791],[72.7614,19.6362],[72.6339,19.8291],[72.8373,20.3434],[72.8994,20.922],[72.5629,21.2434],[72.7533,21.6291],[72.7603,21.6934],[73.2132,21.7577],[73.5536,22.1434],[74.0292,22.4005],[74.5902,23.3649],[76.0225,24.072],[76.7115,24.2006],[77.2963,24.6506],[77.847,24.8435],[78.2209,24.8435],[78.3144,24.9721],[78.3892,24.9721],[78.576,24.7149],[79.3796,24.5864],[80.3701,24.2006],[80.4448,24.2006]]]}},{"type":"Feature","properties":{"name":"Xiongnu","color":"#b8a8c8","area":2998759,"polity_id":"polity_xiongnu"},"geometry":{"type":"MultiPolygon","coordinates":[[[[101.1119,51.5803],[101.8752,51.5803],[101.8294,51.5134],[102.1227,51.4465],[102.077,51.3797],[102.2008,51.3128],[102.1101,51.1792],[102.3526,50.9122],[102.2634,50.7788],[102.3477,50.7788],[102.3834,50.5789],[102.7602,50.5122],[102.7162,50.4457],[102.8844,50.4457],[102.8404,50.3791],[103.1767,50.3791],[103.1328,50.3125],[103.3008,50.3125],[103.257,50.246],[104.1809,50.246],[105.0324,50.5122],[106.4172,50.4457],[106.3716,50.3791],[106.7919,50.3791],[106.7463,50.3125],[107.2816,50.113],[107.2363,50.0465],[107.8235,50.0465],[107.8167,49.9136],[107.9842,49.9136],[108.0555,49.6479],[108.3453,49.5816],[108.3398,49.4489],[108.5903,49.4489],[108.5459,49.3826],[108.6294,49.3826],[108.449,48.9851],[108.6156,48.9851],[108.6119,48.8527],[108.8148,48.6542],[108.729,48.522],[108.8523,48.4559],[108.7671,48.3238],[108.85,48.3238],[108.7653,48.1917],[108.8482,48.1917],[108.5148,47.9278],[108.5975,47.9278],[108.5144,47.7959],[108.597,47.7959],[108.4317,47.6641],[108.391,47.4665],[108.5559,47.4665],[108.5982,47.269],[108.7628,47.269],[108.9712,46.9401],[108.8905,46.8086],[109.3025,46.6772],[109.3881,46.4145],[109.5519,46.4145],[109.8457,45.9554],[109.7667,45.8243],[110.1856,45.3004],[110.1074,45.1696],[110.5266,44.6466],[110.4492,44.516],[110.6995,44.2548],[110.6226,44.1243],[110.7034,44.1243],[110.6268,43.9938],[110.7118,43.8634],[109.9658,42.5612],[109.3332,42.4312],[107.8132,42.4312],[106.8631,42.3012],[105.4247,41.8465],[104.7459,41.4571],[104.0236,40.8088],[103.6308,40.1612],[103.4073,39.5143],[103.132,39.2557],[102.1734,38.868],[101.6301,39.0618],[101.5586,39.2557],[101.1652,39.2557],[100.6869,39.0618],[100.4138,38.6097],[100.3354,38.6097],[100.3048,38.3515],[100.1994,38.2869],[99.8618,38.416],[99.3786,39.1265],[99.0919,39.1911],[99.1198,39.2557],[98.9578,39.0618],[98.3841,39.1911],[98.1173,38.9326],[97.9602,38.9326],[97.8574,39.0618],[97.4916,39.1265],[97.4677,39.2557],[96.7629,39.4496],[96.681,39.2557],[96.7596,39.2557],[96.6785,39.0618],[96.7571,39.0618],[96.6767,38.868],[96.7552,38.868],[96.6493,38.6097],[96.414,38.6097],[96.3097,38.7389],[95.6823,38.9326],[95.3185,39.385],[94.9769,39.3203],[94.5061,39.5143],[93.9547,39.5143],[93.0882,39.3203],[92.2484,39.385],[91.1233,39.1265],[88.7458,38.868],[87.6617,38.4806],[86.4401,38.3515],[86.0814,38.2224],[85.8129,37.8998],[85.3562,37.7062],[85.1134,37.4483],[81.0312,36.6105],[80.3713,36.9971],[79.3982,37.126],[79.1454,37.3193],[78.4244,37.5128],[78.3857,37.6417],[78.0931,37.7062],[77.8014,38.0288],[77.8415,38.1578],[77.667,38.3515],[77.5104,38.3515],[77.4144,38.5451],[77.2576,38.5451],[77.0253,38.8034],[74.6733,39.3203],[75.2491,41.068],[77.3504,41.3922],[77.3738,41.4571],[77.8749,41.522],[78.9205,41.9764],[80.0832,42.3012],[80.1631,42.3012],[80.2138,42.4312],[80.2872,42.8213],[80.4734,42.8864],[80.4711,43.0816],[80.6317,43.0816],[80.7907,43.2769],[80.6825,43.4072],[80.7354,43.5375],[80.3572,43.9938],[80.3832,44.4507],[80.3023,44.4507],[80.4103,44.7119],[79.9779,44.8426],[80.005,44.908],[79.518,44.908],[79.5449,44.9734],[78.6504,45.1696],[78.5692,45.1696],[78.3504,45.4313],[77.9965,45.5623],[78.0218,45.8243],[77.8305,45.9554],[77.8016,46.2833],[78.9748,46.3489],[79.0856,46.6115],[79.8007,46.9401],[85.3244,48.1917],[85.7855,48.4559],[86.3993,48.522],[86.5487,48.6542],[86.8476,48.5881],[86.9145,48.7204],[87.6667,49.0513],[87.6523,49.1838],[87.819,49.1838],[88.2445,49.5152],[88.7459,49.5152],[89.6065,49.7143],[89.5119,49.8471],[89.5853,49.98],[89.8368,49.98],[90.1162,50.1795],[90.7797,50.3125],[91.0627,50.5122],[91.3151,50.5122],[91.8924,50.7788],[92.7713,50.9789],[93.2717,51.246],[94.7081,51.6472],[98.5854,52.1163],[98.932,52.2505],[98.8864,52.1833],[99.2667,52.1163],[99.2212,52.0492],[99.3914,52.0492],[99.3459,51.9822],[99.6862,51.9822],[99.6407,51.9151],[100.1053,51.8481],[100.0599,51.7811],[100.7394,51.7811],[100.6938,51.7142],[100.9485,51.7142],[100.9029,51.6472],[101.0726,51.6472],[101.027,51.5803],[101.1119,51.5803]]],[[[77.8287,46.3489],[77.8016,46.2833],[77.7198,46.2833],[77.7468,46.3489],[77.8287,46.3489]]]]}},{"type":"Feature","properties":{"name":"Han Dynasty","color":"#c8c8b8","area":3705655,"polity_id":"polity_handynasty"},"geometry":{"type":"MultiPolygon","coordinates":[[[[110.1686,18.4148],[109.9469,18.4148],[109.8406,18.2219],[109.2497,18.2219],[109.1233,18.3505],[108.7646,18.4148],[108.6382,18.5434],[108.7043,19.3791],[109.2028,19.7005],[109.2464,19.9577],[110.1574,20.0862],[110.591,20.022],[110.613,20.1505],[110.9095,20.1505],[111.0874,19.8934],[111.0319,19.5719],[110.8839,19.5719],[110.8507,19.3791],[110.6806,19.2505],[110.5078,18.6719],[110.3599,18.6719],[110.1794,18.4791],[110.1686,18.4148]]],[[[119.0304,41.3922],[121.0213,41.2625],[123.167,41.9114],[123.1268,41.8465],[123.4055,41.7816],[123.3654,41.7167],[123.6044,41.7167],[123.5643,41.6518],[124.0417,41.522],[124.0018,41.4571],[124.2802,41.3922],[124.2404,41.3274],[124.4789,41.3274],[124.4392,41.2625],[124.7174,41.1977],[124.6778,41.1328],[124.9955,41.1328],[125.4331,41.3274],[126.1084,41.2625],[126.187,41.1328],[126.7421,41.0032],[126.6228,40.6792],[126.4251,40.6144],[126.2693,40.3554],[126.4317,40.0964],[126.7095,40.0317],[126.8323,39.8376],[126.7283,39.385],[126.9645,39.385],[126.8541,39.1911],[127.0229,38.9326],[126.9374,38.3515],[126.3477,37.8352],[126.2695,37.8352],[125.8449,37.7707],[125.8347,37.8998],[125.6783,37.8998],[125.3871,37.6417],[125.231,37.6417],[125.2981,37.7707],[125.2093,37.8998],[124.8967,37.8998],[125.0767,38.0933],[124.7637,38.0933],[124.8664,38.2869],[124.7881,38.2869],[124.9614,38.6097],[125.1533,38.6743],[125.1885,38.7389],[125.0316,38.7389],[125.39,39.385],[125.3057,39.5143],[124.8697,39.5789],[124.8646,39.7083],[124.5124,39.6436],[124.3446,39.9023],[124.034,39.7729],[123.5974,39.8376],[122.936,39.6436],[122.1704,39.2557],[121.9519,38.9972],[121.7162,38.9972],[121.4217,38.7389],[121.0293,38.7389],[121.2007,39.0618],[121.5151,39.0618],[121.6901,39.385],[121.2965,39.385],[121.2096,39.5143],[121.2807,39.6436],[121.4383,39.6436],[121.5033,39.9023],[121.7765,39.967],[122.2306,40.4849],[122.1061,40.6792],[121.827,40.744],[121.8237,40.8736],[121.1098,40.8736],[120.9967,40.6792],[120.6473,40.4849],[120.5003,40.2259],[119.3804,39.7729],[119.2153,39.3203],[118.9894,39.1911],[118.4498,39.0618],[118.0569,39.0618],[118.0457,39.1911],[117.776,39.1265],[117.5764,38.7389],[117.6549,38.7389],[117.6025,38.4806],[117.7592,38.4806],[117.7727,38.3515],[118.0536,38.2869],[118.0674,38.1578],[118.583,38.0933],[118.6476,38.2224],[118.8042,38.2224],[118.7718,38.1578],[119.4571,37.9643],[119.3928,37.8352],[119.2366,37.8352],[118.984,37.3193],[119.14,37.3193],[119.1557,37.1904],[119.7011,37.1904],[119.8266,37.4483],[120.2022,37.5773],[120.1881,37.7062],[120.7538,37.8998],[121.112,37.8352],[121.171,37.6417],[121.4833,37.6417],[121.4969,37.5128],[122.1535,37.5773],[122.1211,37.5128],[122.7129,37.4483],[122.4742,37.126],[122.5664,36.9971],[122.3939,36.8037],[121.9121,36.9326],[121.2121,36.6105],[120.9789,36.6105],[120.9648,36.4172],[120.7318,36.4172],[120.6585,36.0952],[120.3185,36.0308],[119.9865,35.6445],[119.6187,35.5158],[119.2276,34.8079],[119.459,34.8079],[119.4309,34.7436],[119.7113,34.6793],[119.7323,34.5506],[120.3418,34.3577],[120.4894,34.1647],[120.5505,33.5859],[120.9263,33.2002],[120.9192,32.6216],[121.4026,32.4931],[121.5033,32.1717],[121.9613,31.9789],[121.9368,31.7218],[121.8356,31.6575],[121.3005,31.8503],[120.9191,31.8503],[121.4544,31.6575],[121.4811,31.529],[121.6335,31.529],[121.5843,31.4005],[121.7366,31.4005],[121.9953,31.0791],[121.8993,30.822],[121.5192,30.822],[121.1972,30.565],[121.0453,30.565],[120.6798,30.1794],[120.8088,30.1151],[121.1047,30.3079],[121.4841,30.3079],[121.6202,30.0508],[122.0298,29.9223],[121.8645,29.6652],[122.016,29.6652],[121.9384,29.2152],[121.7116,29.2152],[121.7446,29.5366],[121.5713,29.4723],[121.647,29.4723],[121.5389,29.1509],[121.7443,29.0867],[121.7143,28.7652],[121.5218,28.6367],[121.6521,28.5724],[121.6459,28.3153],[121.3794,28.1867],[121.1533,28.1867],[121.1934,28.3153],[121.118,28.3153],[121.0382,28.0581],[120.8677,27.9938],[120.7146,27.7367],[120.6573,27.5438],[120.7325,27.5438],[120.545,27.158],[120.3947,27.158],[120.2467,26.9009],[120.0964,26.9009],[120.0606,26.7723],[120.2108,26.7723],[120.1577,26.5794],[119.8399,26.5151],[119.9381,26.3222],[119.587,26.1294],[119.7784,26.0008],[119.5299,25.615],[119.9044,25.615],[119.8721,25.4864],[119.6157,25.3579],[119.2731,25.4864],[119.3911,25.3579],[119.3442,25.165],[119.0295,25.1007],[119.0737,24.9721],[118.8191,24.8435],[118.7597,24.5864],[118.1474,24.5221],[118.0757,24.2006],[117.7213,23.9435],[117.6938,23.8149],[117.47,23.8149],[117.1788,23.4934],[116.8939,23.5577],[116.7796,23.3649],[116.815,23.172],[116.5914,23.172],[116.54,22.9148],[115.6956,22.7863],[115.6706,22.6577],[115.3729,22.6577],[115.1744,22.7863],[114.9016,22.5291],[114.7527,22.5291],[114.6408,22.722],[114.5311,22.1434],[114.3704,22.0791],[113.9986,22.0791],[113.9963,22.4648],[113.7852,22.5291],[113.7474,22.722],[113.5985,22.722],[113.6987,22.4648],[113.6387,22.1434],[113.4156,22.1434],[113.3175,22.0148],[113.1063,22.0791],[113.071,21.8863],[112.7736,21.8863],[112.4415,21.6934],[111.8585,21.7577],[111.6641,21.5005],[110.9842,21.4363],[110.7389,21.3077],[110.7164,21.1791],[110.4194,21.1791],[110.4825,21.1148],[110.3638,20.8577],[110.6163,20.6005],[110.4869,20.2791],[109.8829,20.2148],[109.9268,20.472],[109.7895,20.5362],[109.7702,20.8577],[109.696,20.8577],[109.8701,21.4363],[109.807,21.5005],[109.1162,21.372],[109.0864,21.6291],[108.6517,21.6934],[108.5552,21.5648],[107.7903,21.4363],[107.4174,20.9862],[106.9613,20.922],[106.8337,20.6005],[106.6854,20.6005],[106.5369,20.1505],[105.9655,19.8291],[105.7339,18.8648],[106.0513,18.5434],[106.0305,18.4148],[106.1783,18.4148],[106.2949,18.2219],[106.5696,18.0933],[106.5712,17.6433],[106.7721,17.5148],[106.7517,17.3862],[107.0264,17.2576],[106.7649,17.0005],[106.5337,16.9362],[105.1438,18.4148],[105.1851,18.6719],[105.0373,18.6719],[105.1423,18.8648],[105.0152,18.9934],[105.014,19.4434],[104.94,19.4434],[104.9921,19.7648],[104.8648,19.8934],[104.9806,20.1505],[104.4396,20.472],[104.6191,20.6648],[104.9053,20.6005],[104.873,20.8577],[105.0956,20.8577],[104.8513,21.1791],[104.9785,21.5005],[104.9255,21.6291],[105.0956,21.7577],[105.128,21.9505],[104.874,22.2077],[105.2491,22.6577],[105.1746,22.6577],[105.2198,22.9148],[105.1166,23.172],[104.9561,23.1077],[104.9046,23.2363],[103.4256,23.3006],[102.8521,23.4291],[102.4742,23.8149],[102.3249,23.8149],[102.0855,24.1363],[101.8109,24.2649],[101.4623,25.165],[101.3981,25.9365],[101.1965,26.3865],[101.0896,27.5438],[101.0143,27.5438],[101.0499,27.9938],[100.9153,28.0581],[101.0395,28.251],[100.9641,28.251],[101.0302,28.5081],[100.9547,28.5081],[101.022,28.7652],[100.8811,29.0867],[100.9509,29.3438],[100.8753,29.3438],[100.9643,29.6652],[100.8886,29.6652],[100.9612,29.9223],[100.8854,29.9223],[100.9778,30.2436],[100.9019,30.2436],[101.0153,30.6292],[100.9393,30.6292],[101.0553,31.0148],[100.9792,31.0148],[101.6869,32.7502],[102.5516,33.2645],[103.0341,33.3288],[103.332,33.5217],[103.4928,33.9718],[103.3554,34.229],[103.5267,34.4863],[103.4496,34.4863],[103.7353,35.4514],[103.63,35.5802],[103.6488,36.224],[103.467,36.3528],[103.5182,36.4816],[103.3886,36.546],[103.4402,36.6749],[103.3107,36.7393],[103.3627,36.8682],[103.2078,37.0615],[102.871,37.1904],[102.611,37.126],[102.5856,37.2549],[102.1705,37.3838],[102.172,37.5773],[102.0425,37.6417],[102.0961,37.7707],[101.8333,37.5128],[101.6257,37.5773],[101.6007,37.7062],[101.3148,37.7707],[101.2901,37.8998],[100.7963,38.0288],[100.7988,38.2224],[100.6423,38.2224],[100.3864,38.5451],[100.4138,38.6097],[100.6869,39.0618],[101.1652,39.2557],[101.5586,39.2557],[101.6301,39.0618],[102.1734,38.868],[103.132,39.2557],[103.4073,39.5143],[104.2672,39.8376],[104.5828,39.8376],[104.5704,39.6436],[104.6978,39.5789],[103.9386,39.1265],[103.6079,38.7389],[104.2935,38.868],[104.3926,38.7389],[104.9914,38.6743],[104.9625,38.6097],[106.0898,38.6743],[107.0617,39.5789],[107.3292,39.6436],[107.4416,39.385],[107.6778,39.385],[108.0544,39.8376],[108.387,40.0317],[109.7358,40.3554],[110.5604,40.4201],[111.9057,40.4201],[111.8717,40.3554],[112.821,40.3554],[112.7869,40.2906],[113.4883,40.4201],[114.5614,40.3554],[114.9744,40.6792],[114.7721,40.744],[114.8077,40.8088],[115.9924,41.7816],[117.3379,42.1712],[117.7373,42.1712],[117.7014,41.9764],[117.8226,41.9114],[117.7079,41.7167],[117.7913,41.5869],[118.0719,41.522],[118.034,41.4571],[118.4699,41.522],[118.4319,41.4571],[118.6706,41.4571],[118.6327,41.3922],[118.9509,41.3922],[119.0304,41.3922]]],[[[122.1209,30.1794],[122.2726,30.1794],[122.2798,29.9865],[121.9766,29.9865],[122.045,30.1794],[122.1209,30.1794]]],[[[80.2138,42.4312],[80.1631,42.3012],[80.0832,42.3012],[80.1338,42.4312],[80.2138,42.4312]]]]}},{"type":"Feature","properties":{"name":"Wusun","color":"#a8a8c8","area":185850,"polity_id":"polity_wusun"},"geometry":{"type":"Polygon","coordinates":[[[78.5692,45.1696],[78.3504,45.4313],[77.9965,45.5623],[78.0218,45.8243],[77.8305,45.9554],[77.8016,46.2833],[77.7198,46.2833],[77.6101,46.4145],[77.3644,46.4145],[77.3914,46.4802],[75.5069,46.4802],[75.5332,46.5459],[74.8814,46.3489],[74.7526,46.0209],[74.3186,45.9554],[74.117,45.4313],[74.2547,45.3659],[74.1301,45.0388],[73.9429,44.9734],[74.0241,44.9734],[73.9746,44.8426],[74.0875,44.7119],[74.4433,44.5813],[74.5627,44.2548],[74.9983,44.1243],[74.7948,43.7982],[75.205,43.6027],[75.1076,43.3421],[75.188,43.3421],[75.1396,43.2118],[75.252,43.0816],[75.6293,43.0165],[75.8776,42.8213],[75.7015,42.5612],[75.8139,42.4312],[76.1578,42.4962],[76.1423,42.2362],[76.2784,42.1712],[76.1276,41.9764],[76.1604,41.8465],[76.7983,41.8465],[76.6153,41.7816],[76.6247,41.5869],[76.8635,41.5869],[76.8168,41.4571],[77.3738,41.4571],[77.8749,41.522],[78.9205,41.9764],[80.0832,42.3012],[80.1338,42.4312],[80.2138,42.4312],[80.2872,42.8213],[80.4734,42.8864],[80.4711,43.0816],[80.6317,43.0816],[80.7907,43.2769],[80.6825,43.4072],[80.7354,43.5375],[80.3572,43.9938],[80.3832,44.4507],[80.3023,44.4507],[80.4103,44.7119],[79.9779,44.8426],[80.005,44.908],[79.518,44.908],[79.5449,44.9734],[78.6504,45.1696],[78.5692,45.1696]],[[77.3168,42.1712],[76.9973,42.1712],[76.5098,42.3662],[76.5263,42.6262],[78.6586,42.7563],[78.5835,42.5612],[78.0358,42.1712],[77.2927,42.1063],[77.3168,42.1712]]]}},{"type":"Feature","properties":{"name":"Nabataeans","color":"#a8a8c8","area":90971,"polity_id":"polity_nabataeans"},"geometry":{"type":"MultiPolygon","coordinates":[[[[37.0704,26.8366],[37.0746,26.9009],[37.1498,26.9009],[37.1455,26.8366],[37.0704,26.8366]]],[[[38.0558,26.9652],[38.0603,27.0295],[38.1354,27.0295],[38.131,26.9652],[38.0558,26.9652]]],[[[37.8392,27.0938],[37.8437,27.158],[37.9189,27.158],[37.9144,27.0938],[37.8392,27.0938]]],[[[35.9997,28.7652],[36.0565,28.5081],[36.2028,28.4438],[36.4015,28.0581],[36.5522,28.0581],[36.6892,27.8652],[37.1275,27.6724],[37.26,27.4152],[37.4812,27.3509],[37.4722,27.2223],[37.7685,27.158],[38.0514,26.9009],[38.2061,26.9652],[38.2679,26.7723],[38.4932,26.7723],[38.4093,26.6437],[38.6964,26.4508],[38.692,26.3865],[38.4669,26.3865],[38.2291,26.1937],[38.1541,26.1937],[38.1625,26.3222],[37.9502,26.5151],[37.6542,26.5794],[37.1541,26.9652],[36.9995,26.9009],[37.0167,27.158],[36.5076,27.4152],[36.3702,27.6081],[35.7057,27.8009],[35.4001,27.7367],[35.4087,27.8652],[35.0492,28.1224],[34.5927,28.0581],[34.6054,28.251],[34.8535,28.5724],[34.9129,29.4081],[34.7523,29.2795],[34.7114,28.701],[34.5472,28.5081],[34.5173,28.0581],[34.3583,27.9295],[34.3459,27.7367],[33.9022,27.8652],[33.5538,28.3153],[33.403,28.3153],[33.1889,28.5081],[33.2139,28.8938],[32.8571,29.2152],[32.5975,29.858],[32.6019,29.9223],[33.1506,30.1794],[34.3029,30.3722],[34.3886,30.5007],[35.5931,30.3722],[35.8418,30.6292],[36.1457,30.6292],[36.1403,30.565],[35.8658,29.9865],[35.9242,28.7652],[35.9997,28.7652]]]]}},{"type":"Feature","properties":{"name":"Indo-Scythians","color":"#8ab8c8","area":452360,"polity_id":"polity_indoscythians"},"geometry":{"type":"MultiPolygon","coordinates":[[[[76.1274,32.7502],[76.0811,32.5574],[76.5398,32.236],[76.4794,31.9789],[76.1618,31.5933],[75.3339,30.9506],[74.4429,30.6935],[73.8351,30.6935],[73.8084,30.565],[74.3731,29.9865],[74.309,29.6652],[74.4605,29.6652],[74.7635,29.2795],[75.0535,29.2152],[75.092,29.0224],[75.6596,28.8295],[75.6987,28.6367],[76.2662,28.4438],[76.3177,28.3153],[76.7463,28.1867],[76.798,28.0581],[77.389,27.9938],[77.4407,27.8652],[77.9963,27.6081],[78.1759,27.3509],[78.2474,26.9009],[78.2364,26.8366],[77.7857,26.8366],[77.6888,26.708],[77.2382,26.708],[77.1096,26.8366],[75.9721,26.7723],[73.179,26.1937],[71.9047,25.6793],[71.2351,25.165],[71.0855,25.165],[70.5701,24.6506],[70.5788,25.2936],[70.4378,25.3579],[70.3405,25.7436],[70.1907,25.7436],[70.179,26.1937],[69.7097,26.5794],[69.7286,26.708],[69.5128,26.7723],[69.5611,27.0938],[70.0071,27.5438],[70.2199,27.9295],[70.6394,28.1867],[71.0182,28.6367],[71.1692,28.6367],[72.0287,29.2152],[72.3279,29.6009],[72.4529,30.2436],[72.377,30.2436],[72.4414,31.6575],[72.9931,32.4288],[73.1606,32.4931],[73.5854,33.0073],[73.662,33.0073],[73.9836,33.0716],[74.183,32.943],[74.3514,33.0073],[75.4694,32.8788],[75.8824,32.6859],[76.0508,32.7502],[76.1274,32.7502]]],[[[65.8345,31.7861],[66.1022,31.5933],[66.4833,31.5933],[66.4491,31.0148],[66.5252,31.0148],[66.3425,30.4364],[66.4184,30.4364],[66.3156,29.858],[65.1247,29.5366],[64.5298,29.6009],[64.1197,29.4081],[62.3037,29.4081],[61.0015,29.7937],[60.9562,29.9865],[61.3872,30.3079],[61.8746,30.9506],[61.9415,31.3362],[62.4212,31.4647],[62.8195,31.9789],[63.1608,32.1717],[63.185,32.3002],[63.4264,32.3645],[63.5548,32.236],[64.3826,32.1717],[65.0202,31.9146],[65.7582,31.7861],[65.8345,31.7861]]],[[[74.1982,33.0073],[74.2134,33.0716],[74.29,33.0716],[74.2748,33.0073],[74.1982,33.0073]]]]}},{"type":"Feature","properties":{"name":"Indo-Greeks","color":"#b8c8a8","area":74057,"polity_id":"polity_indogreeks"},"geometry":{"type":"MultiPolygon","coordinates":[[[[53.6611,31.4647],[53.7373,31.4647],[53.7278,31.4005],[53.6516,31.4005],[53.6611,31.4647]]],[[[53.5374,31.6575],[53.6136,31.6575],[53.604,31.5933],[53.5278,31.5933],[53.5374,31.6575]]],[[[76.0965,32.6216],[76.2646,32.3645],[76.5398,32.236],[76.4794,31.9789],[76.1618,31.5933],[75.3339,30.9506],[74.4429,30.6935],[73.8351,30.6935],[73.1646,30.7578],[72.7485,30.9506],[72.5606,31.1434],[72.5876,31.2719],[72.449,31.3362],[72.4414,31.6575],[72.5734,31.9146],[73.5854,33.0073],[73.662,33.0073],[73.9836,33.0716],[74.183,32.943],[74.3514,33.0073],[75.4694,32.8788],[76.1119,32.6859],[76.0965,32.6216]]],[[[74.2134,33.0716],[74.29,33.0716],[74.2748,33.0073],[74.1982,33.0073],[74.2134,33.0716]]],[[[56.982,35.6445],[57.0594,35.6445],[57.0471,35.5802],[56.9697,35.5802],[56.982,35.6445]]],[[[65.6748,36.4172],[65.7525,36.4172],[65.7373,36.3528],[65.6597,36.3528],[65.6748,36.4172]]],[[[47.4873,38.2224],[47.4763,38.1578],[47.3981,38.1578],[47.409,38.2224],[47.4873,38.2224]]],[[[47.4311,38.3515],[47.4201,38.2869],[47.3418,38.2869],[47.3528,38.3515],[47.4311,38.3515]]]]}},{"type":"Feature","properties":{"name":"Himyarite Kingdom","color":"#d8a8a0","area":334765,"polity_id":"polity_himyaritekingdom"},"geometry":{"type":"Polygon","coordinates":[[[39.72,24.9078],[39.5076,25.1007],[39.4613,25.5507],[39.3157,25.615],[39.0498,26.1294],[38.7671,26.3865],[38.4669,26.3865],[38.2291,26.1937],[38.2249,26.1294],[38.579,25.8079],[38.8227,24.9078],[38.8975,24.9078],[38.8638,24.3292],[38.7001,24.072],[38.2418,23.8792],[38.6011,23.622],[38.8688,23.0434],[38.8589,22.8506],[39.1402,22.5291],[39.0271,21.7577],[39.1693,21.6291],[39.147,21.1791],[39.3506,20.7934],[39.4957,20.7291],[39.4893,20.6005],[39.8439,20.2791],[40.1404,20.2791],[40.5616,19.8291],[40.851,19.7005],[40.8408,19.5077],[40.9854,19.4434],[41.0421,19.1219],[41.2501,18.8648],[41.2361,18.6076],[41.4508,18.4791],[41.7849,17.8362],[42.2802,17.4505],[42.3363,17.129],[42.4837,17.129],[42.4767,17.0005],[42.824,16.6147],[42.7824,15.8433],[42.7088,15.8433],[42.7458,15.1361],[42.8896,15.0718],[42.9534,14.8789],[43.0566,13.9789],[43.2648,13.7218],[43.2356,13.0789],[43.447,12.886],[43.4386,12.6932],[44.3886,12.6289],[44.6143,12.7575],[45.0541,12.7575],[45.7411,13.336],[46.0346,13.336],[46.111,13.4003],[46.0471,13.5932],[46.2003,13.7218],[46.1631,14.4289],[45.9462,14.4932],[45.8163,14.8147],[45.5992,14.8789],[46.3412,15.0075],[46.5761,15.2647],[46.5798,15.329],[46.1494,15.5218],[46.3811,15.7147],[46.4697,15.9718],[46.1753,15.9718],[46.0206,15.8433],[45.579,15.8433],[45.3656,15.9718],[45.2147,15.9076],[45.2257,16.1004],[45.0121,16.229],[45.0195,16.3576],[44.5372,16.9362],[44.6222,17.129],[44.4747,17.129],[44.3385,17.3219],[44.4198,17.4505],[44.081,17.9648],[44.0923,18.1576],[43.8858,18.4148],[43.9047,18.7362],[43.6277,19.0577],[43.6389,19.2505],[43.4984,19.3791],[43.5096,19.5719],[43.3095,19.9577],[42.9572,20.2791],[42.8089,20.2791],[42.5302,20.6005],[42.3819,20.6005],[42.3147,20.7291],[42.1629,20.6648],[41.8163,21.1148],[41.5228,21.1791],[41.3846,21.372],[41.0909,21.4363],[40.8816,21.6934],[40.1585,22.0791],[40.0942,22.272],[39.8777,22.4005],[39.8338,22.9791],[39.9083,22.9791],[39.9292,23.3649],[40.2828,24.3292],[39.7948,24.9078],[39.72,24.9078]]]}},{"type":"Feature","properties":{"name":"Byeonhan","color":"#a8c8c8","area":13603,"polity_id":"polity_byeonhan"},"geometry":{"type":"Polygon","coordinates":[[[128.9155,35.0653],[128.8846,35.001],[129.1471,35.0653],[129.3177,35.2584],[129.349,35.3227],[129.0711,35.3871],[129.0108,35.5802],[128.6239,35.5802],[128.6096,35.7089],[128.2225,35.7089],[128.2083,35.8377],[127.93,35.902],[127.5557,35.4514],[127.6331,35.4514],[127.4484,35.0653],[127.5723,35.001],[127.451,34.7436],[127.545,34.615],[127.6221,34.615],[127.7595,34.7436],[128.0679,34.7436],[128.0821,34.9366],[128.3136,34.9366],[128.3297,34.8079],[128.6849,34.7436],[128.8074,35.001],[128.4986,35.001],[128.6375,35.1297],[128.8692,35.1297],[128.8383,35.0653],[128.9155,35.0653]]]}},{"type":"Feature","properties":{"name":"Dongye","color":"#b8a8c8","area":29016,"polity_id":"polity_dongye"},"geometry":{"type":"Polygon","coordinates":[[[128.6181,38.416],[128.3638,38.8034],[127.9234,38.9972],[127.9182,39.1265],[127.4832,39.1911],[127.5527,39.4496],[127.5901,39.5143],[126.9645,39.385],[126.8541,39.1911],[127.0229,38.9326],[126.9374,38.3515],[127.6071,38.2869],[127.4762,37.8998],[127.6325,37.8998],[127.6172,37.5773],[127.8275,37.3838],[127.8156,37.0615],[127.9944,36.8037],[128.6954,37.2549],[129.207,37.1904],[129.353,37.3193],[129.3872,37.3838],[129.2563,37.5773],[129.1002,37.5773],[128.5824,38.3515],[128.6181,38.416]]]}},{"type":"Feature","properties":{"name":"Jinhan","color":"#b8c8a8","area":23506,"polity_id":"polity_jinhan"},"geometry":{"type":"Polygon","coordinates":[[[129.5524,35.5802],[129.6669,35.9664],[129.5765,36.0952],[129.4214,36.0952],[129.495,36.546],[129.4173,36.546],[129.5167,36.7393],[129.439,36.7393],[129.5393,36.9326],[129.4069,37.126],[129.431,37.3193],[129.353,37.3193],[129.207,37.1904],[128.6954,37.2549],[127.9944,36.8037],[127.8959,36.6105],[128.0187,36.546],[127.9667,36.2884],[128.0897,36.224],[127.8526,35.902],[127.93,35.902],[128.2083,35.8377],[128.2225,35.7089],[128.6096,35.7089],[128.6239,35.5802],[129.0108,35.5802],[129.0711,35.3871],[129.349,35.3227],[129.4434,35.5158],[129.5208,35.5158],[129.5524,35.5802]]]}},{"type":"Feature","properties":{"name":"Mahan","color":"#c8a8a8","area":49677,"polity_id":"polity_mahan"},"geometry":{"type":"Polygon","coordinates":[[[127.515,34.5506],[127.2243,34.422],[127.1297,34.5506],[127.2968,34.7436],[127.2196,34.7436],[127.0229,34.4863],[126.6262,34.2933],[126.4246,34.3577],[126.4837,34.4863],[126.3476,34.3577],[126.1166,34.3577],[126.4784,34.8079],[126.1998,34.8723],[126.3812,35.2584],[126.3039,35.2584],[126.5192,35.7089],[126.7678,35.902],[126.6128,35.902],[126.6757,36.0308],[126.5206,36.0308],[126.4286,36.1596],[126.4516,36.6749],[126.2638,36.6105],[126.0498,36.8037],[126.6805,37.126],[126.6027,37.126],[126.7023,37.3193],[126.5352,37.4483],[126.6025,37.5773],[126.2903,37.5773],[126.3137,37.7707],[126.3477,37.8352],[126.9374,38.3515],[127.6071,38.2869],[127.4762,37.8998],[127.6325,37.8998],[127.6172,37.5773],[127.8275,37.3838],[127.8156,37.0615],[127.9944,36.8037],[127.8959,36.6105],[128.0187,36.546],[127.9667,36.2884],[128.0897,36.224],[127.8526,35.902],[127.93,35.902],[127.5557,35.4514],[127.6331,35.4514],[127.4484,35.0653],[127.5723,35.001],[127.451,34.7436],[127.545,34.615],[127.515,34.5506]]]}},{"type":"Feature","properties":{"name":"Kingdom of Osroene","color":"#c8c8b8","area":50117,"polity_id":"polity_kingdomofosroene"},"geometry":{"type":"Polygon","coordinates":[[[41.2829,36.3528],[40.8089,36.2884],[39.7527,35.902],[39.4971,35.7089],[38.428,35.8377],[38.1329,35.9664],[38.1762,36.9971],[37.958,37.126],[37.9891,37.3838],[38.4272,37.7707],[38.7397,37.7707],[38.7315,37.7062],[39.122,37.7062],[39.4597,37.8998],[39.4958,37.5773],[40.1812,37.4483],[41.1778,37.3193],[41.2124,36.9971],[41.5413,36.546],[41.2829,36.3528]]]}},{"type":"Feature","properties":{"name":"Caucasian Iberia","color":"#a8c8c8","area":35797,"polity_id":"polity_caucasianiberia"},"geometry":{"type":"Polygon","coordinates":[[[44.8247,42.6912],[44.6897,42.8213],[43.7832,42.6912],[43.7399,42.8864],[43.2027,43.0165],[42.9178,43.2118],[42.5041,43.1467],[42.4922,43.0816],[42.5725,43.0816],[42.6052,42.8213],[42.7536,42.7563],[42.7181,42.5612],[42.9346,42.4312],[42.6244,41.5869],[42.8633,41.5869],[43.3402,41.1328],[43.9756,41.1328],[44.2373,41.2625],[44.3523,41.4571],[44.7743,41.5869],[45.0745,41.9114],[45.3138,41.9114],[45.5363,42.2362],[45.6961,42.2362],[45.7089,42.3012],[45.6802,42.5612],[45.44,42.5612],[45.158,42.7563],[44.8374,42.7563],[44.8247,42.6912]]]}},{"type":"Feature","properties":{"name":"Caucasian Albania","color":"#a8b8c8","area":50113,"polity_id":"polity_caucasianalbania"},"geometry":{"type":"Polygon","coordinates":[[[47.5092,41.3274],[47.3502,41.3274],[46.8164,41.8465],[46.4306,41.9114],[46.2297,42.1063],[45.6834,42.1712],[45.6961,42.2362],[45.5363,42.2362],[45.3138,41.9114],[45.0745,41.9114],[44.7743,41.5869],[44.3523,41.4571],[44.2373,41.2625],[45.1117,41.2625],[45.3019,41.0032],[45.5953,40.8736],[45.4567,40.5496],[45.8844,40.2906],[46.2007,40.2906],[46.2561,40.1612],[46.4814,40.0964],[46.4578,39.967],[46.7736,39.967],[47.0656,39.8376],[47.1208,39.7083],[48.1459,39.7083],[48.158,39.7729],[48.1903,40.3554],[48.1112,40.3554],[48.2001,40.8088],[48.3846,40.9384],[48.3443,41.1328],[47.9602,41.1977],[47.9863,41.3274],[47.4963,41.2625],[47.5092,41.3274]]]}},{"type":"Feature","properties":{"name":"Kingdom of Gordyene","color":"#c8a8a8","area":14347,"polity_id":"polity_kingdomofgordyene"},"geometry":{"type":"Polygon","coordinates":[[[42.852,37.5773],[42.774,37.5773],[42.7647,37.5128],[41.9844,37.5128],[41.1778,37.3193],[40.1812,37.4483],[40.0506,37.6417],[40.0937,37.9643],[40.4152,38.0288],[41.6666,38.0288],[41.9702,37.9643],[42.03,37.8352],[42.5082,37.8998],[42.8801,37.7707],[42.8614,37.6417],[42.852,37.5773]]]}},{"type":"Feature","properties":{"name":"Kingdom of Commagene","color":"#b8c8a8","area":9769,"polity_id":"polity_kingdomofcommagene"},"geometry":{"type":"Polygon","coordinates":[[[38.7315,37.7062],[39.122,37.7062],[39.4597,37.8998],[39.4155,38.1578],[39.511,38.2869],[39.2322,38.5451],[39.2496,38.6743],[38.9619,38.868],[38.7263,38.868],[38.3614,38.4806],[38.3198,38.1578],[38.4599,38.0288],[38.4272,37.7707],[38.7397,37.7707],[38.7315,37.7062]]]}},{"type":"Feature","properties":{"name":"Lazica","color":"#a8a8c8","area":18165,"polity_id":"polity_lazica"},"geometry":{"type":"MultiPolygon","coordinates":[[[[41.6938,41.2625],[41.6143,41.2625],[41.6251,41.3274],[41.7046,41.3274],[41.6938,41.2625]]],[[[42.4922,43.0816],[42.5725,43.0816],[42.6052,42.8213],[42.7536,42.7563],[42.7181,42.5612],[42.9346,42.4312],[42.6244,41.5869],[42.3631,41.4571],[42.2502,41.2625],[41.7046,41.3274],[42.0097,41.7167],[41.9976,42.5612],[41.7804,42.6912],[41.8034,42.8213],[41.6661,42.9515],[41.2075,43.0816],[41.0007,43.2769],[40.5988,43.2769],[40.161,43.5375],[40.1722,43.6027],[41.0466,43.5375],[41.9536,43.2118],[42.528,43.2769],[42.5964,43.2118],[42.5041,43.1467],[42.4922,43.0816]]]]}},{"type":"Feature","properties":{"name":"Kingdom of Adiabene","color":"#c8b8a8","area":13459,"polity_id":"polity_kingdomofadiabene"},"geometry":{"type":"Polygon","coordinates":[[[42.6227,37.0615],[42.629,36.546],[41.6711,36.3528],[41.5413,36.546],[41.2124,36.9971],[41.1778,37.3193],[41.9844,37.5128],[42.7647,37.5128],[42.6227,37.0615]]]}},{"type":"Feature","properties":{"name":"Teotihuacan","color":"#c8a8b8","area":5674,"polity_id":"polity_teotihuacan"},"geometry":{"type":"Polygon","coordinates":[[[-98.8683,19.1862],[-98.5142,18.8648],[-98.2923,18.8648],[-98.2024,19.1862],[-98.0544,19.1862],[-98.0154,19.3791],[-98.4207,19.5719],[-98.4443,19.7005],[-98.7405,19.7005],[-98.7169,19.5719],[-98.8768,19.6362],[-98.8413,19.4434],[-98.9894,19.4434],[-98.8566,19.1219],[-98.8683,19.1862]]]}},{"type":"Feature","properties":{"name":"Kingdom of Axum","color":"#c8a8a8","area":97004,"polity_id":"polity_kingdomofaxum"},"geometry":{"type":"MultiPolygon","coordinates":[[[[40.819,14.8147],[41.3947,14.5575],[41.6648,14.0432],[42.3784,13.5932],[42.4374,13.2718],[42.2174,13.2718],[41.9184,13.1432],[41.9129,13.0146],[41.4702,12.9503],[41.3182,12.8217],[38.9723,12.8217],[38.3957,13.0789],[38.2617,13.4003],[38.1149,13.4003],[38.1959,13.5932],[37.9992,14.1718],[38.1678,14.6861],[38.6257,15.0718],[38.5579,15.2004],[38.7756,15.1361],[38.9344,15.3933],[39.1521,15.329],[39.6055,15.5861],[39.7344,15.2004],[39.8079,15.2004],[39.8231,15.5218],[39.9702,15.5218],[40.3105,14.9432],[40.6811,15.0075],[40.822,14.8789],[40.819,14.8147]]],[[[38.3995,14.9432],[38.326,14.9432],[38.3288,15.0075],[38.4023,15.0075],[38.3995,14.9432]]]]}},{"type":"Feature","properties":{"name":"Goguryeo","color":"#c8a8b8","area":94663,"polity_id":"polity_goguryeo"},"geometry":{"type":"Polygon","coordinates":[[[129.74,41.7167],[130.3221,42.2362],[130.7728,42.4312],[130.9048,42.6262],[130.7446,42.6262],[130.9219,42.8864],[130.7615,42.8864],[130.7705,43.0165],[130.61,43.0165],[130.6546,43.0816],[126.9919,42.8864],[125.6614,42.6912],[125.1729,42.4312],[125.0929,42.4312],[124.6072,42.1712],[123.167,41.9114],[123.1268,41.8465],[123.4055,41.7816],[123.3654,41.7167],[123.6044,41.7167],[123.5643,41.6518],[124.0417,41.522],[124.0018,41.4571],[124.2802,41.3922],[124.2404,41.3274],[124.4789,41.3274],[124.4392,41.2625],[124.7174,41.1977],[124.6778,41.1328],[124.9955,41.1328],[125.4331,41.3274],[126.1084,41.2625],[126.187,41.1328],[126.7421,41.0032],[126.6228,40.6792],[127.0589,40.8736],[127.3762,40.8736],[127.4565,41.0032],[128.132,41.068],[128.493,41.2625],[129.0876,41.1977],[129.7269,41.3274],[129.7686,41.3922],[129.6932,41.522],[129.7774,41.6518],[129.6977,41.6518],[129.74,41.7167]]]}},{"type":"Feature","properties":{"name":"Dong-okjeo","color":"#c8a8a8","area":31981,"polity_id":"polity_dongokjeo"},"geometry":{"type":"Polygon","coordinates":[[[128.1714,39.967],[128.9194,40.4201],[129.0777,40.4201],[129.2378,40.6792],[129.7558,40.8736],[129.8822,41.1977],[129.8064,41.3274],[129.7269,41.3274],[129.0876,41.1977],[128.493,41.2625],[128.132,41.068],[127.4565,41.0032],[127.3762,40.8736],[127.0589,40.8736],[126.6228,40.6792],[126.4251,40.6144],[126.2693,40.3554],[126.4317,40.0964],[126.7095,40.0317],[126.8323,39.8376],[126.7283,39.385],[126.9645,39.385],[127.5901,39.5143],[127.6276,39.5789],[127.5833,39.7729],[128.0925,39.967],[128.1714,39.967]]]}},{"type":"Feature","properties":{"name":"Roman Empire","color":"#d88c8c","area":4208150,"polity_id":"polity_romanempire"},"geometry":{"type":"MultiPolygon","coordinates":[[[[2.6104,34.422],[2.5334,34.422],[2.5313,34.4863],[2.6083,34.4863],[2.6104,34.422]]],[[[14.5702,35.902],[14.5682,35.7733],[14.3368,35.8377],[14.3396,36.0308],[14.5712,35.9664],[14.5702,35.902]]],[[[6.799,51.4465],[7.0647,50.9789],[7.3195,50.9122],[7.2398,50.7121],[7.324,50.7121],[7.3286,50.5122],[7.7612,49.9136],[8.1746,50.246],[8.5125,50.113],[8.5163,49.8471],[8.4326,49.8471],[8.5202,49.5816],[8.353,49.5816],[8.277,49.1175],[8.1115,49.0513],[8.1971,48.9189],[7.868,48.7204],[7.8705,48.5881],[7.7071,48.4559],[7.5594,47.5982],[8.5486,47.6641],[8.5466,47.7959],[8.8771,47.7959],[8.9565,48.0597],[9.1206,48.1917],[9.7819,48.3899],[9.864,48.522],[10.4451,48.522],[10.9435,48.7865],[11.1929,48.7865],[11.8612,49.1838],[12.6091,48.9851],[12.9383,48.7204],[13.5189,48.6542],[14.2576,48.2578],[14.6719,48.2578],[14.8411,48.3899],[15.4985,48.1917],[16.6632,48.3238],[16.904,48.1257],[17.0723,48.1917],[17.0669,48.0597],[17.6346,47.7959],[18.626,47.7959],[18.798,47.9278],[18.9565,47.7959],[18.9496,47.6641],[19.2692,47.4665],[19.1729,47.2032],[18.9226,47.1374],[18.9981,47.0058],[18.8337,47.0058],[18.8239,46.8086],[18.906,46.8086],[18.8961,46.6115],[19.0501,46.4145],[18.9518,46.0865],[18.8701,46.0865],[18.9486,46.0209],[18.854,45.7588],[19.0106,45.6278],[18.9259,45.5623],[18.9976,45.3659],[20.2183,45.3659],[20.3697,45.1696],[20.6097,45.1042],[20.5208,44.9734],[20.6715,44.7773],[21.4097,44.908],[21.6403,44.7119],[21.8835,44.7119],[22.0324,44.516],[22.1943,44.516],[22.3699,44.7119],[22.6941,44.7119],[22.7658,44.5813],[22.5182,44.516],[22.509,44.3854],[22.9754,44.1243],[22.8758,43.8634],[23.526,43.9286],[23.9244,43.8634],[24.0754,43.733],[24.8062,43.7982],[25.5205,43.6678],[26.3682,44.1243],[27.7481,44.1896],[27.9297,44.3854],[27.8488,44.3854],[27.8687,44.5813],[27.7067,44.5813],[27.7266,44.7773],[27.8888,44.7773],[27.9224,45.1042],[27.7666,45.1696],[27.7867,45.3659],[28.0376,45.4313],[28.0513,45.5623],[28.2888,45.4968],[28.275,45.3659],[28.4307,45.3004],[29.1774,45.4313],[29.2881,45.6933],[29.8152,46.0209],[30.1069,46.4145],[30.9751,46.8086],[31.0821,47.0058],[31.5668,46.9401],[31.5329,46.6772],[30.8766,46.6772],[30.2977,45.9554],[30.045,45.8898],[29.8589,45.6933],[29.6143,45.6933],[29.5845,45.4313],[29.6659,45.4313],[29.5253,44.908],[29.0241,44.7773],[29.0456,44.9734],[28.802,44.9734],[28.8407,44.5813],[28.5769,44.3854],[28.5356,43.9938],[28.6163,43.9938],[28.4811,43.4723],[28.1592,43.4723],[28.2264,43.3421],[27.8982,43.2769],[27.8049,43.1467],[27.8466,42.7563],[27.5135,42.6262],[27.4949,42.4312],[27.796,42.2362],[27.7835,42.1063],[28.0043,41.9114],[27.9794,41.6518],[28.2183,41.6518],[28.2792,41.4571],[28.5053,41.3274],[28.9759,41.2625],[28.9631,41.1328],[30.4792,41.1977],[30.6242,41.068],[31.1801,41.068],[31.5342,41.3922],[32.0265,41.522],[32.0417,41.6518],[32.1934,41.5869],[32.6947,41.7816],[32.6308,41.9114],[34.7845,41.9114],[34.8817,42.0413],[35.1212,42.0413],[35.157,41.7167],[35.9538,41.7167],[36.2092,41.2625],[36.7748,41.3274],[37.0651,41.1328],[37.2332,41.1977],[37.2147,41.068],[37.7706,41.068],[37.8312,40.9384],[38.1581,41.0032],[38.2977,40.8736],[38.7834,40.9384],[39.0509,41.1328],[39.7355,40.9384],[40.3703,40.9384],[40.3909,41.068],[40.5393,41.0032],[41.0473,41.1977],[41.1588,41.3922],[41.3071,41.3274],[41.4082,41.4571],[41.5674,41.4571],[41.8153,41.9764],[41.7355,41.9764],[41.7579,42.1063],[41.5982,42.1063],[41.7006,42.2362],[41.4833,42.3662],[41.6087,42.6262],[41.3338,42.8864],[41.1733,42.8864],[41.1158,43.0165],[40.8173,43.1467],[40.4157,43.1467],[40.2192,43.4072],[39.9778,43.4072],[40.0805,43.5375],[40.161,43.5375],[40.5988,43.2769],[41.0007,43.2769],[41.2075,43.0816],[41.6661,42.9515],[41.8034,42.8213],[41.7804,42.6912],[41.9976,42.5612],[42.0097,41.7167],[41.7046,41.3274],[41.6251,41.3274],[41.6143,41.2625],[41.5348,41.2625],[41.4495,40.744],[40.9533,40.6144],[40.3982,40.0964],[38.7904,39.9023],[38.9298,39.7729],[38.7449,39.5789],[38.9542,39.385],[38.7263,38.868],[38.3614,38.4806],[38.3198,38.1578],[38.4599,38.0288],[38.4272,37.7707],[37.9891,37.3838],[37.958,37.126],[38.1762,36.9971],[38.1329,35.9664],[38.428,35.8377],[39.4971,35.7089],[39.9383,35.5158],[40.0621,35.2584],[40.2784,35.1297],[40.263,35.001],[40.4792,34.8723],[40.5497,34.1647],[40.4728,34.1647],[40.3115,34.1004],[40.4033,34.229],[40.2569,34.2933],[39.1238,34.4863],[37.9902,33.9718],[37.7395,33.7789],[37.7261,33.6502],[37.5726,33.6502],[37.0732,33.2645],[37.0542,33.0716],[36.901,33.0716],[36.7168,32.7502],[36.7507,32.3002],[36.5155,32.236],[36.6564,32.1074],[36.4919,31.9789],[36.4629,31.6575],[36.3866,31.6575],[36.4231,31.2076],[36.2709,31.2076],[36.4009,30.9506],[36.151,30.6935],[36.1457,30.6292],[35.8418,30.6292],[35.5931,30.3722],[34.3886,30.5007],[34.3029,30.3722],[33.1506,30.1794],[32.6019,29.9223],[32.5261,29.9223],[32.4287,29.6009],[32.6387,29.3438],[32.6892,28.9581],[32.8361,28.8938],[33.1053,28.3795],[33.6089,27.9938],[33.5851,27.6081],[33.7992,27.4152],[33.9266,27.0295],[34.0731,26.9652],[34.0507,26.5794],[34.1972,26.5151],[34.4613,25.8722],[34.6076,25.8079],[35.1455,24.6506],[35.8604,24.0077],[35.8541,23.8792],[35.5588,23.9435],[35.5526,23.8149],[35.108,23.8792],[33.7564,23.6863],[33.6818,23.6863],[33.389,23.8149],[32.0409,23.6863],[31.6705,23.7506],[30.5372,23.3649],[30.4627,23.3649],[30.3952,23.5577],[30.104,23.7506],[30.1087,23.8792],[29.9595,23.8792],[29.6728,24.2006],[28.5688,24.6506],[28.2886,25.165],[28.2437,25.9365],[28.3453,26.5794],[28.2702,26.5794],[28.1537,27.3509],[27.9367,27.5438],[27.7109,27.5438],[27.792,27.6724],[27.4299,27.9938],[27.2763,27.9295],[27.285,28.1224],[27.1401,28.251],[25.5863,28.9581],[25.3735,29.2795],[25.1465,29.2795],[25.0008,29.4081],[24.8467,29.3438],[24.7792,29.5366],[24.3304,29.6652],[23.9622,29.9223],[23.5101,29.9865],[22.916,30.3079],[22.7618,30.2436],[22.7667,30.3722],[21.9388,30.565],[20.9516,30.565],[18.7346,29.9865],[17.905,30.1794],[16.7012,30.6935],[15.4896,30.9506],[15.1845,30.8863],[15.1873,31.0791],[14.5844,31.529],[14.5861,31.6575],[14.2843,31.9146],[13.6002,32.1717],[13.0657,32.1717],[13.0667,32.3002],[11.7679,32.3002],[11.7684,32.4288],[11.539,32.4288],[11.4629,32.5574],[11.3099,32.4931],[11.1572,32.6859],[10.3916,33.0073],[10.0086,33.0073],[10.0848,33.1359],[9.625,33.1359],[9.5475,33.3288],[9.6236,33.4574],[9.3159,33.5859],[9.2376,33.8432],[9.0834,33.9075],[9.0826,34.0361],[8.9288,34.0361],[8.9278,34.1647],[8.311,34.2933],[8.0808,34.229],[8.0016,34.422],[7.6149,34.5506],[7.1535,34.4863],[6.9203,34.615],[6.459,34.5506],[6.1484,34.6793],[5.3774,34.6793],[5.149,34.5506],[4.4539,34.615],[3.8427,34.422],[3.4557,34.4863],[2.9205,34.3577],[2.4499,34.615],[1.2938,34.615],[0.685,34.422],[0.4513,34.4863],[0.3026,34.3577],[-1.2374,34.3577],[-1.3051,34.1647],[-1.5391,34.229],[-1.6097,34.1004],[-1.693,34.229],[-3.7635,34.1004],[-4.1405,33.9718],[-4.2099,33.8432],[-4.3674,33.9075],[-5.0394,33.5859],[-5.2737,33.6502],[-5.7989,33.4574],[-6.0332,33.5217],[-6.6344,33.3288],[-6.7025,33.2002],[-6.9368,33.2645],[-7.5281,32.943],[-8.0641,32.943],[-8.0732,33.0716],[-8.475,33.3288],[-7.1299,33.8432],[-7.062,33.9718],[-6.9038,33.9075],[-6.6139,34.1647],[-6.6997,34.2933],[-6.4732,34.3577],[-6.4821,34.4863],[-6.3324,34.5506],[-6.2775,34.8723],[-6.2003,34.8723],[-6.2909,35.0653],[-6.132,35.001],[-6.1455,35.194],[-5.9999,35.3227],[-5.8766,35.7733],[-5.3389,35.8377],[-5.2398,35.5158],[-4.7548,35.194],[-3.1324,35.194],[-2.9816,35.2584],[-2.9926,35.4514],[-2.8379,35.4514],[-2.8198,35.1297],[-2.6617,35.0653],[-1.8896,35.0653],[-1.5906,35.2584],[-1.3587,35.2584],[-1.1365,35.4514],[-1.2235,35.6445],[-1.0655,35.5802],[-0.9171,35.7089],[-0.53,35.7089],[-0.4587,35.8377],[0.0835,35.8377],[0.3761,36.224],[0.6837,36.2884],[0.678,36.4172],[0.9138,36.3528],[1.2162,36.546],[1.5296,36.4816],[2.3769,36.6749],[2.6902,36.6105],[2.8411,36.7393],[3.2299,36.7393],[3.459,36.8682],[3.85,36.8037],[4.2352,36.9326],[4.8595,36.8682],[5.0978,36.6749],[5.5643,36.6749],[5.6391,36.8037],[6.1058,36.8037],[6.103,36.9326],[6.3339,37.0615],[6.8047,36.8682],[7.1937,36.8682],[7.3463,37.0615],[7.6587,36.9971],[7.7383,36.8682],[8.5164,36.8682],[8.9032,37.126],[9.0595,37.0615],[9.3696,37.2549],[9.759,37.3193],[9.9934,37.1904],[10.227,37.2549],[10.2276,37.0615],[10.3054,37.0615],[10.2284,36.8037],[10.4618,36.7393],[11.0063,36.9971],[11.0062,36.8037],[10.4625,36.4172],[10.5403,36.3528],[10.4635,35.902],[10.6962,35.7089],[10.851,35.7733],[10.9284,35.5802],[11.0832,35.5802],[11.083,35.3871],[11.0057,35.3871],[11.0828,35.001],[10.8512,34.9366],[10.8512,34.8079],[10.543,34.5506],[10.0045,34.2933],[10.0817,34.229],[10.0058,33.9075],[10.2368,33.7146],[10.544,33.7146],[10.6977,33.5217],[11.0815,33.5859],[11.1578,33.2002],[11.4644,33.2002],[12.229,32.8145],[12.6121,32.8788],[12.5347,32.7502],[12.8408,32.7502],[12.8418,32.8788],[13.3017,32.943],[13.4537,32.8145],[13.7605,32.8788],[13.7591,32.7502],[14.0652,32.7502],[14.4444,32.4931],[14.6747,32.5574],[14.7493,32.4288],[15.0551,32.4288],[15.2823,32.3002],[15.4246,31.6575],[15.576,31.5933],[15.649,31.4005],[16.1786,31.2076],[16.8635,31.2076],[17.8468,30.9506],[18.2223,30.7578],[18.5925,30.3722],[18.8961,30.3722],[18.9686,30.2436],[19.655,30.3722],[19.9643,30.565],[19.9682,30.6935],[20.2021,30.8863],[20.1341,31.1434],[20.2143,31.2719],[19.9961,31.5933],[20.0891,32.1074],[20.017,32.236],[20.2461,32.236],[20.3313,32.4931],[20.482,32.4288],[20.563,32.5574],[20.7159,32.5574],[20.6441,32.6859],[20.8712,32.6216],[21.108,32.8145],[21.4117,32.7502],[21.8787,32.943],[23.0894,32.6216],[23.0808,32.4288],[23.2308,32.3645],[23.1486,32.236],[23.2985,32.1717],[23.6803,32.1717],[24.1294,31.9789],[24.8925,31.9789],[25.1117,31.7861],[25.102,31.5933],[25.248,31.4647],[26.8477,31.4647],[27.2975,31.3362],[27.5149,31.1434],[28.4964,31.0148],[28.865,30.822],[29.3971,30.822],[29.4851,31.0148],[29.6332,30.9506],[29.8696,31.0791],[29.8018,31.2076],[29.882,31.2719],[30.3388,31.2719],[30.2712,31.4005],[30.3517,31.4647],[30.8088,31.4647],[30.9656,31.529],[30.9746,31.6575],[31.2033,31.6575],[31.118,31.529],[31.2658,31.4647],[31.8752,31.4647],[31.7806,31.2076],[31.9374,31.2719],[31.9996,31.0791],[32.3039,31.0791],[32.2372,31.2076],[32.3894,31.2076],[32.5322,31.0791],[32.7652,31.1434],[32.8317,31.0148],[33.9826,31.1434],[34.2972,31.2719],[34.3076,31.4005],[34.5466,31.529],[34.5519,31.5933],[35.0038,31.529],[35.3416,31.9146],[35.2114,32.1717],[34.7477,32.1074],[34.7532,32.1717],[34.8631,32.5574],[35.0218,32.6216],[35.0563,33.0073],[35.2154,33.0716],[35.3984,33.3931],[35.3458,33.6502],[35.4993,33.6502],[35.447,33.9075],[35.6838,33.9718],[35.6445,34.3577],[35.7921,34.2933],[36.0488,34.5506],[36.0682,34.7436],[35.927,34.8723],[35.9597,35.194],[35.8825,35.194],[35.9929,35.5158],[35.8449,35.5802],[35.9901,36.224],[35.8417,36.2884],[36.2649,36.6105],[36.2862,36.8037],[36.1449,36.9326],[35.8336,36.9326],[35.4877,36.6105],[35.1127,36.7393],[34.9504,36.6749],[34.8929,36.8682],[34.5816,36.8682],[34.2507,36.6749],[33.9791,36.2884],[33.2744,36.224],[32.7134,36.0308],[32.5583,36.0308],[32.4985,36.224],[32.0681,36.6105],[31.086,36.9326],[30.6191,36.9326],[30.4919,36.3528],[30.0261,36.3528],[29.938,36.224],[29.2397,36.224],[29.1249,36.7393],[28.7361,36.7393],[28.5905,36.8682],[28.3571,36.8682],[28.1869,36.6749],[28.0314,36.6749],[28.1383,37.0615],[28.0653,37.126],[27.598,37.126],[27.5392,37.3838],[27.2225,37.3193],[27.31,37.4483],[27.1634,37.5773],[27.2559,37.7707],[27.1777,37.7707],[27.2753,38.0288],[26.889,38.0933],[26.8203,38.2224],[26.4289,38.2224],[26.3837,38.6743],[26.5358,38.6097],[26.595,38.3515],[27.065,38.3515],[27.0798,38.5451],[26.8495,38.6097],[26.9579,38.9972],[26.8793,38.9972],[26.8945,39.1911],[26.7422,39.2557],[26.8466,39.5789],[26.1325,39.5143],[26.2723,40.2906],[26.6047,40.4849],[26.6839,40.4849],[26.6731,40.3554],[27.4698,40.4201],[27.5376,40.2906],[27.6958,40.2906],[27.7921,40.4849],[27.9505,40.4849],[27.9388,40.3554],[29.0463,40.3554],[28.9004,40.4849],[28.9127,40.6144],[29.4801,40.744],[29.493,40.8736],[29.2486,40.8088],[29.1028,40.9384],[29.1156,41.068],[28.6329,41.0032],[28.1688,41.1328],[28.0773,41.0032],[27.5275,41.068],[27.0172,40.6792],[26.9214,40.4849],[26.6264,40.744],[26.1403,40.6144],[26.0822,40.8736],[25.3785,41.0032],[24.3466,41.0032],[24.0106,40.744],[23.698,40.8088],[23.6846,40.6144],[23.8386,40.5496],[23.7374,40.2259],[23.2673,40.2906],[22.8842,40.4849],[22.8925,40.6144],[22.6549,40.6144],[22.5595,40.3554],[22.5437,40.0964],[22.7017,40.0964],[22.6109,39.9023],[23.1352,39.4496],[22.8163,39.385],[22.7973,39.0618],[23.1155,39.1265],[23.1078,38.9972],[23.3435,38.9972],[23.4928,38.868],[23.3318,38.8034],[23.0254,38.9326],[22.9356,38.7389],[23.1672,38.6743],[23.3126,38.4806],[23.6261,38.4806],[23.5634,38.7389],[24.0302,38.6743],[24.1789,38.5451],[24.1587,38.2224],[24.0021,38.2224],[23.9786,37.8352],[23.4428,38.0288],[23.2082,38.0288],[23.2008,37.8998],[23.0445,37.8998],[23.1083,37.6417],[23.3425,37.6417],[23.4024,37.3193],[23.1685,37.3193],[23.1756,37.4483],[22.9486,37.5773],[22.7144,37.5773],[22.7007,37.3193],[22.8532,37.2549],[23.056,36.6749],[22.8328,36.8682],[22.5994,36.8682],[22.5118,36.6749],[22.3563,36.6749],[22.22,37.0615],[21.9085,37.0615],[21.8992,36.8682],[21.7435,36.8682],[21.681,37.1904],[21.6031,37.1904],[21.6966,37.5128],[21.2436,37.8352],[21.4156,38.1578],[21.7286,38.1578],[21.7384,38.3515],[21.1933,38.416],[20.9737,38.7389],[20.7414,38.8034],[20.911,39.0618],[20.2972,39.385],[20.155,39.7083],[19.9125,39.5789],[19.7578,39.6436],[19.7637,39.7729],[20.0003,39.7729],[20.0094,39.967],[19.6295,40.2906],[19.4714,40.2906],[19.4863,40.6144],[19.2487,40.6144],[19.2545,40.744],[19.4985,40.8736],[19.4376,41.2625],[19.5233,41.3922],[19.4438,41.3922],[19.5297,41.522],[19.4501,41.522],[19.5424,41.7816],[18.852,42.3662],[18.1435,42.6262],[17.9915,42.8213],[17.5933,42.8864],[17.5079,42.7563],[17.5157,42.9515],[17.3552,42.9515],[17.3654,43.2118],[17.1219,43.1467],[17.0513,43.4072],[16.7272,43.3421],[16.7342,43.5375],[16.5754,43.6027],[15.9271,43.4723],[16.0117,43.6027],[15.8566,43.7982],[15.6954,43.7982],[15.6186,43.9286],[15.3747,43.8634],[15.4591,43.9938],[15.2187,44.0591],[15.1466,44.3854],[14.9089,44.5813],[14.9187,44.9734],[14.5158,45.1042],[14.6031,45.3659],[14.1962,45.3659],[14.1894,45.0388],[13.9457,45.0388],[13.9432,44.908],[13.7809,44.908],[13.7056,45.235],[13.5441,45.3004],[13.5473,45.4968],[13.7102,45.4968],[13.7149,45.7588],[13.3896,45.8243],[13.1448,45.8243],[13.0605,45.6278],[12.8168,45.6933],[12.6522,45.5623],[12.1628,45.4968],[12.16,45.1696],[12.4026,45.0388],[12.3999,44.7773],[12.1572,44.8426],[12.1537,44.4507],[12.313,44.1896],[12.8734,43.7982],[13.0356,43.8634],[13.0338,43.733],[13.3551,43.6678],[13.6726,43.4072],[13.7471,43.0816],[13.9854,42.9515],[13.9014,42.7563],[14.0565,42.4962],[14.3709,42.2362],[14.5308,42.2362],[14.6077,42.1063],[14.769,42.1712],[14.7659,42.0413],[14.924,41.9764],[15.165,42.0413],[15.2414,41.9114],[16.1189,41.9114],[16.1149,41.7816],[15.8738,41.7167],[15.9439,41.3922],[17.2027,41.0032],[17.5107,40.744],[17.9812,40.6144],[18.4381,40.1612],[18.3489,39.9023],[18.1122,39.9023],[17.8131,40.3554],[17.4175,40.3554],[17.3452,40.5496],[17.0285,40.5496],[16.868,40.4849],[16.945,40.4201],[16.8617,40.2906],[16.6245,40.2906],[16.6975,40.0964],[16.4567,39.967],[16.4473,39.6436],[16.9162,39.5143],[17.0697,39.385],[17.1383,39.0618],[16.5024,38.8034],[16.4919,38.416],[15.9328,37.9643],[15.6982,37.9643],[15.6243,38.1578],[15.3895,38.1578],[15.0665,37.6417],[15.0592,37.2549],[15.2139,37.1904],[15.0498,36.7393],[14.661,36.7393],[14.2779,37.126],[13.5784,37.2549],[13.192,37.5773],[12.4905,37.7062],[12.4919,37.8998],[12.6498,38.0933],[13.0404,38.0288],[13.1199,38.1578],[13.3547,38.1578],[13.6652,37.9643],[14.0562,37.9643],[15.8621,38.2869],[15.9497,38.6743],[16.2652,38.7389],[16.2703,38.9326],[16.1165,39.0618],[15.8989,39.7729],[15.6655,39.9023],[15.7478,40.0317],[15.4319,40.0317],[15.1995,40.2259],[15.0414,40.2259],[14.8934,40.6792],[14.4179,40.6792],[14.4219,40.8736],[14.1046,40.8736],[13.9506,41.1328],[13.7918,41.1328],[13.7145,41.2625],[13,41.3274],[12.9222,41.4571],[12.6046,41.522],[12.1305,41.9114],[12.1317,42.0413],[11.8128,42.1063],[11.6548,42.3662],[11.4945,42.3012],[11.4152,42.4312],[11.2552,42.4312],[11.176,42.6262],[11.0158,42.6262],[11.0163,42.8213],[10.5353,43.0816],[10.2123,43.9938],[9.8895,43.9938],[9.9697,44.1243],[9.7274,44.1243],[9.1591,44.4507],[8.4315,44.3854],[8.0339,43.9286],[7.1502,43.733],[6.9931,43.5375],[6.6726,43.4723],[6.5176,43.2118],[6.2782,43.1467],[5.7962,43.1467],[5.6319,43.2769],[5.3908,43.2769],[5.3869,43.4072],[5.0631,43.4723],[4.1778,43.4723],[4.173,43.6027],[3.8509,43.6027],[3.6171,43.4072],[3.14,43.2769],[2.9849,43.1467],[3.0099,42.5612],[3.1781,42.3662],[3.1168,41.9114],[2.5725,41.5869],[2.3336,41.5869],[2.1066,41.3274],[1.2384,41.1977],[0.6958,40.9384],[0.7093,40.6792],[0.2478,40.4201],[0.1825,40.1612],[-0.1265,40.0317],[-0.3454,39.7083],[-0.3137,39.1265],[0.0994,38.7389],[-0.6609,38.2869],[-0.8035,38.0288],[-0.7048,37.6417],[-1.7087,37.4483],[-1.6235,37.3193],[-1.8574,37.3193],[-2.0616,36.8037],[-2.5321,36.8682],[-2.6801,36.7393],[-4.4686,36.7393],[-4.6888,36.546],[-5.2282,36.4816],[-5.2879,36.224],[-5.6623,36.0308],[-5.8311,36.224],[-6.0638,36.224],[-6.3301,36.6749],[-6.3495,36.9326],[-6.588,36.9971],[-6.8418,37.2549],[-7.4653,37.2549],[-7.4548,37.126],[-7.6779,36.9971],[-8.0672,36.9971],[-8.3117,37.126],[-8.7011,37.126],[-9.0014,36.9971],[-8.8969,37.5773],[-8.8188,37.5773],[-8.8227,38.4806],[-9.2085,38.416],[-9.233,38.6743],[-9.3837,38.6097],[-9.5531,38.7389],[-9.572,38.9326],[-9.4275,39.0618],[-9.387,39.4496],[-9.1572,39.5143],[-9.1039,39.7729],[-9.025,39.7729],[-8.9252,40.3554],[-8.8461,40.3554],[-8.8723,40.6144],[-8.727,40.744],[-8.9561,42.1712],[-8.6574,42.3662],[-9.0787,42.5612],[-9.1003,42.7563],[-9.2752,42.8864],[-9.3046,43.1467],[-9.1587,43.2769],[-8.8517,43.4072],[-8.369,43.4072],[-8.3904,43.6027],[-8.2436,43.733],[-7.2765,43.733],[-7.3435,43.6027],[-7.1757,43.5375],[-5.7328,43.6027],[-4.9904,43.4072],[-3.4672,43.4723],[-3.2959,43.3421],[-1.6876,43.3421],[-1.3884,43.6678],[-1.3488,44.2548],[-1.268,44.2548],[-1.2863,44.516],[-1.2054,44.516],[-1.2519,45.1696],[-1.1706,45.1696],[-1.1894,45.4313],[-1.0312,45.4968],[-1.0453,45.6933],[-1.2131,45.7588],[-1.1411,45.8898],[-1.2227,45.8898],[-1.2518,46.2833],[-1.666,46.3489],[-2.0144,46.6115],[-2.0249,46.7429],[-2.1944,46.8086],[-2.1391,47.1374],[-2.2322,47.269],[-2.5616,47.269],[-2.5784,47.4665],[-2.8258,47.4665],[-2.8373,47.5982],[-3.1555,47.4665],[-3.3443,47.73],[-3.7572,47.73],[-3.9349,47.8619],[-4.4244,47.7959],[-4.6921,47.9938],[-4.7054,48.1257],[-4.5464,48.1917],[-4.6426,48.3238],[-4.8913,48.3238],[-4.9117,48.522],[-4.5999,48.7204],[-3.8518,48.7204],[-3.4551,48.9189],[-3.1222,48.9189],[-2.7594,48.5881],[-2.5219,48.7204],[-1.6022,48.6542],[-1.7183,49.0513],[-1.635,49.0513],[-1.6517,49.25],[-1.9133,49.3826],[-2.0316,49.7807],[-1.3618,49.7807],[-1.2508,49.4489],[0.007,49.3826],[-0.0124,49.6479],[0.2241,49.8471],[1.0528,49.98],[1.455,50.246],[1.4247,50.7121],[1.6562,51.0457],[2.5778,51.1792],[2.7394,51.3128],[3.4097,51.4465],[3.3993,51.6472],[3.7387,51.6472],[3.6471,51.7811],[3.9805,51.9151],[4.056,52.1163],[4.2325,51.9822],[4.9076,52.1163],[5.934,51.9822],[6.7142,51.4465],[6.799,51.4465]],[[22.4399,38.2869],[22.4329,38.1578],[22.5895,38.1578],[22.6572,37.9643],[22.9699,37.9643],[22.9061,38.2224],[22.746,38.1578],[22.8351,38.3515],[22.5147,38.2224],[22.6036,38.416],[22.2902,38.416],[22.3616,38.2869],[22.4399,38.2869]]],[[[20.7171,38.2869],[20.7954,38.2869],[20.7865,38.0933],[20.3199,38.1578],[20.3285,38.3515],[20.7201,38.3515],[20.7171,38.2869]]],[[[1.6518,39.1265],[1.6575,38.9972],[1.4305,38.8034],[1.1921,38.868],[1.2587,39.1265],[1.5732,39.1265],[1.6518,39.1265]]],[[[20.0701,39.5789],[20.0731,39.6436],[20.1519,39.6436],[20.1489,39.5789],[20.0701,39.5789]]],[[[3.1954,39.9023],[3.5158,39.7729],[3.2958,39.3203],[2.8237,39.3203],[2.6586,39.5143],[2.3461,39.4496],[2.3381,39.6436],[2.5667,39.8376],[3.193,39.967],[3.1954,39.9023]]],[[[4.2151,40.0964],[4.3024,39.8376],[3.9869,39.8376],[3.7456,39.967],[3.7411,40.0964],[4.1361,40.0964],[4.2151,40.0964]]],[[[9.4227,41.1977],[9.6616,41.068],[9.7424,40.744],[9.8217,40.744],[9.8232,40.3554],[9.6653,40.2906],[9.745,40.1612],[9.6709,39.1911],[9.1204,39.1911],[8.9659,38.868],[8.4155,38.9326],[8.3301,39.5143],[8.4089,39.5143],[8.4834,39.9023],[8.3248,39.967],[8.4,40.2906],[8.3209,40.2906],[8.3187,40.4849],[8.1595,40.5496],[8.1546,40.9384],[8.552,40.8736],[9.0248,41.2625],[9.3432,41.1977],[9.4227,41.1977]]],[[[9.4927,42.8864],[9.5776,41.9764],[9.4978,41.9764],[9.4989,41.7816],[9.2624,41.3922],[9.1038,41.3274],[8.7839,41.522],[8.7821,41.7167],[8.6227,41.7167],[8.7005,41.9114],[8.5388,42.1063],[8.5346,42.4962],[8.7727,42.6912],[9.1728,42.7563],[9.2511,43.0165],[9.4923,42.9515],[9.4927,42.8864]]],[[[10.4551,42.8213],[10.4552,42.6912],[10.1346,42.7563],[10.1343,42.8864],[10.4551,42.8864],[10.4551,42.8213]]],[[[14.5098,44.8426],[14.5024,44.516],[14.3404,44.516],[14.2692,44.9734],[14.5113,44.908],[14.5098,44.8426]]],[[[19.0041,45.4968],[19.0074,45.5623],[19.0889,45.5623],[19.0856,45.4968],[19.0041,45.4968]]],[[[19.0837,47.0716],[19.0871,47.1374],[19.1694,47.1374],[19.166,47.0716],[19.0837,47.0716]]],[[[16.9895,48.1917],[16.9066,48.1917],[16.9093,48.2578],[16.9921,48.2578],[16.9895,48.1917]]],[[[16.9093,48.2578],[16.8264,48.2578],[16.829,48.3238],[16.9119,48.3238],[16.9093,48.2578]]],[[[10.0301,48.522],[9.9471,48.522],[9.9467,48.5881],[10.0297,48.5881],[10.0301,48.522]]],[[[1.3559,52.99],[1.7168,52.7208],[1.739,52.3847],[1.425,51.9822],[1.1698,51.9822],[1.1837,51.7811],[0.8439,51.7811],[0.863,51.5134],[0.5239,51.5134],[1.3806,51.3797],[1.3939,51.1792],[0.9804,51.0457],[0.9052,50.9122],[0.4929,50.7788],[-1.3678,50.8455],[-1.1092,50.7788],[-1.1766,50.5789],[-1.5134,50.5789],[-1.525,50.7121],[-2.0306,50.7121],[-2.1028,50.5789],[-3.1262,50.7121],[-3.4566,50.6455],[-3.5847,50.246],[-4.0887,50.246],[-4.1866,50.3791],[-4.3548,50.3791],[-4.9287,50.246],[-5.1511,49.98],[-5.7456,50.0465],[-5.7686,50.246],[-5.2796,50.3791],[-5.1338,50.5789],[-4.8812,50.5789],[-4.8191,50.7788],[-4.6578,50.8455],[-4.6799,51.0457],[-4.4264,51.0457],[-4.2017,51.3128],[-3.0946,51.246],[-2.9585,51.5803],[-2.6323,51.7142],[-2.737,51.9151],[-2.5801,52.0492],[-2.5279,52.3847],[-3.0537,52.5191],[-3.1601,52.7208],[-3.0816,52.7881],[-3.2599,52.8554],[-3.2741,52.99],[-3.6955,52.9227],[-3.7102,53.0574],[-4.0686,53.1922],[-4.0839,53.3271],[-3.3247,53.4621],[-2.1925,53.3271],[-2.0337,53.4621],[-1.6831,53.3946],[-1.4438,53.5971],[-0.1627,53.7323],[0.2953,53.3946],[0.3165,53.1248],[0.0698,52.99],[0.1662,52.8554],[0.3375,52.8554],[0.4933,53.0574],[1.2702,52.99],[1.3559,52.99]]],[[[6.1934,51.8481],[6.1913,51.9151],[6.2763,51.9151],[6.2784,51.8481],[6.1934,51.8481]]],[[[34.5294,35.5802],[33.9571,35.2584],[34.0873,35.001],[33.6954,34.9366],[33.5234,34.7436],[33.1321,34.6793],[33.0436,34.5506],[32.3667,34.7436],[32.229,34.9366],[32.2458,35.1297],[32.5547,35.1297],[32.8752,35.2584],[32.8869,35.3871],[33.7374,35.3871],[34.3098,35.7089],[34.5357,35.6445],[34.5294,35.5802]]],[[[24.2202,35.2584],[23.6792,35.2584],[23.6154,35.5158],[24.1569,35.5158],[24.1499,35.3871],[24.301,35.3227],[25.6923,35.3227],[25.6806,35.1297],[26.2253,35.194],[26.1401,35.0653],[24.8237,35.001],[24.7574,35.194],[24.2974,35.2584],[24.2202,35.2584]]],[[[28.2406,36.3528],[28.1393,36.0308],[27.9843,36.0308],[27.8975,35.902],[27.6696,35.9664],[27.7748,36.3528],[28.0171,36.4816],[28.2454,36.4172],[28.2406,36.3528]]],[[[23.1134,36.2884],[23.1068,36.1596],[22.874,36.1596],[22.8872,36.4172],[23.1168,36.3528],[23.1134,36.2884]]],[[[27.1076,36.8037],[27.0208,36.6749],[26.8653,36.6749],[27.0389,36.9326],[27.1946,36.9326],[27.1854,36.8037],[27.1076,36.8037]]],[[[25.5644,36.9971],[25.3308,36.9971],[25.339,37.126],[25.5685,37.0615],[25.5644,36.9971]]],[[[25.2902,37.5773],[25.0519,37.5128],[24.9862,37.7062],[25.2944,37.6417],[25.2902,37.5773]]],[[[26.2268,37.5773],[25.9882,37.5128],[26.0796,37.7062],[26.3139,37.7062],[26.3049,37.5773],[26.2268,37.5773]]],[[[24.3535,37.5773],[24.2716,37.5128],[24.2013,37.6417],[24.4395,37.7062],[24.4316,37.5773],[24.3535,37.5773]]],[[[20.931,37.8352],[20.9221,37.6417],[20.6127,37.7062],[20.6213,37.8998],[20.934,37.8998],[20.931,37.8352]]],[[[24.9205,37.8998],[25.0727,37.8352],[24.9862,37.7062],[24.6819,37.8352],[24.6942,38.0288],[24.9247,37.9643],[24.9205,37.8998]]],[[[26.2173,38.5451],[26.1941,38.2224],[25.8764,38.1578],[25.8299,38.6097],[26.0699,38.6743],[26.1389,38.5451],[26.2173,38.5451]]],[[[23.5634,38.7389],[23.4849,38.7389],[23.4888,38.8034],[23.5673,38.8034],[23.5634,38.7389]]],[[[24.6749,38.9326],[24.662,38.7389],[24.3565,38.868],[24.365,38.9972],[24.5964,38.9326],[24.6749,38.9326]]],[[[26.3538,39.3203],[26.5849,39.2557],[26.6436,38.9972],[26.2459,38.9326],[26.0936,38.9972],[26.1032,39.1265],[25.7934,39.1911],[26.0439,39.385],[26.3588,39.385],[26.3538,39.3203]]],[[[25.4619,40.0317],[25.4473,39.8376],[24.9739,39.8376],[25.067,40.0317],[25.3829,40.0317],[25.4619,40.0317]]],[[[34.2808,45.8243],[34.6167,45.8898],[34.5978,45.7588],[34.7419,45.6278],[34.9864,45.6278],[35.0199,45.3004],[36.4231,45.4313],[36.3726,45.1042],[35.8753,45.0388],[35.7324,45.1696],[35.4073,45.1696],[35.2971,44.9734],[34.3763,44.7773],[33.9256,44.4507],[33.521,44.4507],[33.4665,44.6466],[33.5476,44.6466],[33.6101,45.1042],[32.9224,45.4313],[34.2715,45.7588],[34.2808,45.8243]]],[[[38.9661,46.0209],[38.862,45.8898],[38.6987,45.8898],[38.3879,45.4968],[38.1173,44.8426],[37.9338,44.7119],[37.5285,44.7119],[37.256,45.0388],[36.7789,45.1042],[36.7487,45.4313],[36.9116,45.4313],[36.9723,45.3004],[37.7044,45.3004],[37.747,45.5623],[37.5947,45.6278],[37.7577,45.6278],[37.8931,45.9554],[38.3346,46.1521],[38.3679,46.3489],[37.8986,46.4802],[37.8386,46.6115],[38.4946,46.6115],[38.622,46.8743],[38.7863,46.8743],[38.8915,47.0058],[39.2203,47.0058],[39.1969,47.3348],[38.3502,47.2032],[38.4902,47.5323],[39.2445,47.5982],[39.7153,47.4665],[39.7374,47.1374],[39.5492,47.0058],[39.5959,46.8086],[39.4317,46.8086],[38.9774,46.0865],[38.9661,46.0209]]],[[[34.7422,32.0431],[34.813,31.9789],[34.5733,31.8503],[34.6334,31.6575],[34.5572,31.6575],[34.5519,31.5933],[35.0038,31.529],[35.3416,31.9146],[35.2114,32.1717],[34.7477,32.1074],[34.7422,32.0431]]]]}},{"type":"Feature","properties":{"name":"Indo-Parthians","color":"#c8c8a8","area":483771,"polity_id":"polity_indoparthians"},"geometry":{"type":"Polygon","coordinates":[[[73.6005,33.0716],[73.5239,33.0716],[73.5236,33.7146],[73.3555,33.9718],[73.3892,34.422],[72.8501,34.422],[72.5876,34.2933],[71.5561,34.1647],[71.0945,34.1647],[70.7265,33.9075],[69.9876,34.0361],[69.8811,33.9075],[69.4821,33.8432],[69.0599,33.3288],[68.3556,33.2645],[67.7096,32.7502],[67.656,32.4931],[67.0674,31.8503],[66.9545,31.2719],[66.5252,31.0148],[66.3425,30.4364],[66.4184,30.4364],[66.3156,29.858],[66.0771,29.7937],[66.4336,29.6652],[66.888,29.6652],[66.9949,29.4081],[67.1352,29.3438],[66.9313,28.5724],[67.0067,28.5724],[66.9655,28.3153],[67.0409,28.3153],[67.0457,27.8652],[67.121,27.8652],[67.0623,27.4795],[67.1745,27.2223],[67.1966,26.3222],[67.5021,25.8079],[67.1121,25.1007],[66.6398,24.9078],[66.632,24.8435],[67.1477,24.7792],[67.3261,24.3935],[67.2891,24.072],[67.4384,24.072],[67.4911,23.8792],[67.6331,23.8149],[68.1554,23.8149],[68.1265,23.5577],[68.3502,23.5577],[68.3359,23.4291],[68.5525,23.3649],[68.6058,23.172],[68.9502,22.9148],[69.0247,22.9148],[69.0387,23.0434],[69.4999,23.172],[70.0653,23.5577],[70.4242,24.072],[70.4475,24.2649],[70.6048,24.3292],[70.5701,24.6506],[70.5788,25.2936],[70.4378,25.3579],[70.3405,25.7436],[70.1907,25.7436],[70.179,26.1937],[69.7097,26.5794],[69.7286,26.708],[69.5128,26.7723],[69.5611,27.0938],[70.0071,27.5438],[70.2199,27.9295],[70.6394,28.1867],[71.0182,28.6367],[71.1692,28.6367],[72.0287,29.2152],[72.3279,29.6009],[72.4529,30.2436],[72.377,30.2436],[72.4414,31.6575],[72.9931,32.4288],[73.1606,32.4931],[73.5854,33.0073],[73.6005,33.0716]]]}},{"type":"Feature","properties":{"name":"Kushan Empire","color":"#a8a8c8","area":639279,"polity_id":"polity_kushanempire"},"geometry":{"type":"Polygon","coordinates":[[[71.9995,41.3274],[71.8405,41.3274],[71.6298,41.6518],[70.0157,41.5869],[69.5798,41.7167],[68.978,41.3274],[68.2233,41.4571],[68.0251,41.5869],[67.5473,41.5869],[66.891,41.2625],[66.6525,41.2625],[65.9621,40.8088],[65.8828,40.8088],[65.5638,39.967],[65.2912,39.8376],[65.2031,39.5143],[65.2819,39.5143],[65.0655,38.9972],[65.1441,38.9972],[65.0767,38.7389],[65.1551,38.7389],[64.7511,35.7733],[64.8285,35.7733],[64.854,35.194],[65.092,34.8723],[64.5735,34.615],[64.3239,34.1647],[63.8726,33.8432],[63.4264,32.3645],[63.5548,32.236],[64.3826,32.1717],[65.0202,31.9146],[65.7582,31.7861],[65.8345,31.7861],[66.1022,31.5933],[66.4833,31.5933],[66.4491,31.0148],[66.5252,31.0148],[66.9545,31.2719],[67.0674,31.8503],[67.656,32.4931],[67.7096,32.7502],[68.3556,33.2645],[69.0599,33.3288],[69.4821,33.8432],[69.8811,33.9075],[69.9876,34.0361],[70.7265,33.9075],[71.0945,34.1647],[71.4792,34.1647],[71.4945,34.229],[71.9431,34.8079],[71.6048,35.001],[71.672,35.5802],[71.2441,36.0308],[71.2493,36.3528],[71.6612,36.7393],[71.825,37.0615],[72.3982,37.4483],[72.6625,37.8352],[73.4942,38.5451],[73.7479,39.1265],[73.6303,39.2557],[73.6903,39.4496],[73.3953,39.5143],[73.5731,39.5789],[73.8,40.2906],[73.5257,40.4201],[73.4889,40.5496],[73.3305,40.5496],[73.2938,40.6792],[73.1353,40.6792],[73.0407,40.8736],[72.7234,40.8736],[72.47,41.068],[72.2318,41.068],[72.1371,41.2625],[71.9781,41.2625],[71.9995,41.3274]]]}},{"type":"Feature","properties":{"name":"Western Satraps","color":"#a8a8c8","area":326864,"polity_id":"polity_westernsatraps"},"geometry":{"type":"Polygon","coordinates":[[[78.3331,26.0651],[78.3005,26.7723],[78.2254,26.7723],[78.2364,26.8366],[77.7857,26.8366],[77.6888,26.708],[77.2382,26.708],[77.1096,26.8366],[75.9721,26.7723],[73.179,26.1937],[71.9047,25.6793],[71.2351,25.165],[71.0855,25.165],[70.5701,24.6506],[70.6048,24.3292],[70.4475,24.2649],[70.4242,24.072],[70.0653,23.5577],[69.4999,23.172],[69.0387,23.0434],[69.0247,22.9148],[69.0992,22.9148],[69.4506,22.722],[70.3653,22.9148],[70.2625,22.6577],[69.8695,22.4648],[69.4974,22.4648],[69.4093,22.3363],[68.9765,22.4648],[68.9495,22.2077],[69.3487,21.7577],[69.4974,21.7577],[69.9032,21.372],[69.8899,21.2434],[70.2955,20.8577],[70.7206,20.6648],[71.3208,20.7291],[71.4085,20.8577],[72.1848,21.1791],[72.3214,21.7577],[72.1728,21.7577],[72.1125,21.8863],[72.3425,21.9505],[72.378,22.272],[72.5267,22.272],[72.4912,21.9505],[72.5655,21.9505],[72.5444,21.7577],[72.686,21.6934],[72.7603,21.6934],[73.2132,21.7577],[73.5536,22.1434],[74.0292,22.4005],[74.5902,23.3649],[76.0225,24.072],[76.7115,24.2006],[77.2963,24.6506],[77.847,24.8435],[78.2209,24.8435],[78.3144,24.9721],[78.3239,25.0364],[78.3228,26.0008],[78.3331,26.0651]]]}},{"type":"Feature","properties":{"name":"Southern Xiongnu","color":"#a8c8c8","area":186875,"polity_id":"polity_southernxiongnu"},"geometry":{"type":"Polygon","coordinates":[[[114.8077,40.8088],[114.6054,40.8736],[114.5975,41.0032],[114.2006,41.0032],[114.2364,41.068],[113.9982,41.068],[114.034,41.1328],[113.5574,41.1328],[113.5931,41.1977],[110.2111,41.2625],[110.1217,41.3922],[109.9626,41.3922],[109.9975,41.4571],[109.7588,41.4571],[109.5358,41.7816],[109.9658,42.5612],[109.3332,42.4312],[107.8132,42.4312],[106.8631,42.3012],[105.4247,41.8465],[104.7459,41.4571],[104.0236,40.8088],[103.6308,40.1612],[103.4073,39.5143],[104.2672,39.8376],[104.5828,39.8376],[104.5704,39.6436],[104.6978,39.5789],[103.9386,39.1265],[103.6079,38.7389],[104.2935,38.868],[104.3926,38.7389],[104.9914,38.6743],[104.9625,38.6097],[106.0898,38.6743],[107.0617,39.5789],[107.3292,39.6436],[107.4416,39.385],[107.6778,39.385],[108.0544,39.8376],[108.387,40.0317],[109.7358,40.3554],[110.5604,40.4201],[111.9057,40.4201],[111.8717,40.3554],[112.821,40.3554],[112.7869,40.2906],[113.4883,40.4201],[114.5614,40.3554],[114.9744,40.6792],[114.7721,40.744],[114.8077,40.8088]]]}},{"type":"Feature","properties":{"name":"Xianbei","color":"#b8a8c8","area":998133,"polity_id":"polity_xianbei"},"geometry":{"type":"Polygon","coordinates":[[[116.581,49.98],[116.0434,50.0465],[115.5261,49.9136],[115.575,49.98],[115.3235,49.98],[115.3724,50.0465],[114.9671,50.1795],[115.0163,50.246],[114.7643,50.246],[114.8136,50.3125],[114.1413,50.3125],[113.3114,49.98],[112.86,49.5816],[111.3468,49.4489],[110.8765,49.25],[109.7087,49.25],[109.7534,49.3163],[109.3362,49.3163],[109.3808,49.3826],[108.6294,49.3826],[108.449,48.9851],[108.6156,48.9851],[108.6119,48.8527],[108.8148,48.6542],[108.729,48.522],[108.8523,48.4559],[108.7671,48.3238],[108.85,48.3238],[108.7653,48.1917],[108.8482,48.1917],[108.5148,47.9278],[108.5975,47.9278],[108.5144,47.7959],[108.597,47.7959],[108.4317,47.6641],[108.391,47.4665],[108.5559,47.4665],[108.5982,47.269],[108.7628,47.269],[108.9712,46.9401],[108.8905,46.8086],[109.3025,46.6772],[109.3881,46.4145],[109.5519,46.4145],[109.8457,45.9554],[109.7667,45.8243],[110.1856,45.3004],[110.1074,45.1696],[110.5266,44.6466],[110.4492,44.516],[110.6995,44.2548],[110.6226,44.1243],[110.7034,44.1243],[110.6268,43.9938],[110.7118,43.8634],[109.9658,42.5612],[109.5358,41.7816],[109.7588,41.4571],[109.9975,41.4571],[109.9626,41.3922],[110.1217,41.3922],[110.2111,41.2625],[113.5931,41.1977],[113.5574,41.1328],[114.034,41.1328],[113.9982,41.068],[114.2364,41.068],[114.2006,41.0032],[114.5975,41.0032],[114.6054,40.8736],[114.8077,40.8088],[115.9924,41.7816],[117.3379,42.1712],[117.7373,42.1712],[117.7014,41.9764],[117.8226,41.9114],[117.7079,41.7167],[117.7913,41.5869],[118.0719,41.522],[118.034,41.4571],[118.4699,41.522],[118.4319,41.4571],[118.6706,41.4571],[118.6327,41.3922],[119.0304,41.3922],[121.0213,41.2625],[123.167,41.9114],[124.6072,42.1712],[125.0929,42.4312],[125.0129,42.4312],[124.7885,42.9515],[124.5099,43.0165],[124.5998,43.2769],[124.4817,43.3421],[124.9278,44.2548],[124.8101,44.3201],[124.8983,44.4507],[124.7805,44.516],[124.8248,44.5813],[124.7438,44.5813],[124.8402,44.8426],[124.6858,44.9734],[124.7304,45.0388],[124.5679,45.0388],[124.5028,45.3004],[124.3401,45.3004],[124.2388,45.6278],[124.1572,45.6278],[124.1658,45.7588],[124.0842,45.7588],[124.2563,45.8898],[123.8568,46.0209],[123.9114,46.2177],[123.7934,46.2833],[123.8848,46.4145],[123.5869,46.8086],[123.5261,47.0716],[123.2437,47.1374],[123.2548,47.269],[122.8431,47.269],[122.8898,47.3348],[122.3597,47.4006],[122.4065,47.4665],[121.7935,47.5323],[121.7688,47.73],[121.6037,47.73],[121.4736,48.1257],[121.3908,48.1257],[121.4861,48.2578],[121.2983,48.4559],[121.2773,48.6542],[121.1111,48.6542],[120.9542,49.1175],[120.7875,49.1175],[120.7356,49.3826],[119.9832,49.7143],[120.0336,49.7807],[119.6987,49.7807],[119.7492,49.8471],[118.8952,50.0465],[118.3253,49.8471],[117.9599,49.5816],[117.5419,49.5816],[117.5909,49.6479],[116.5317,49.9136],[116.581,49.98]]]}},{"type":"Feature","properties":{"name":"Kingdom of Kush","label":1,"area":336379,"color":"#a08ad8"},"geometry":{"type":"Point","coordinates":[32.87224423076923,19.62137692307692]}},{"type":"Feature","properties":{"name":"Hadhramaut","label":1,"area":86171,"color":"#c8b8a8"},"geometry":{"type":"Point","coordinates":[48.67491333333333,15.82826]}},{"type":"Feature","properties":{"name":"Zapotec Civilization","label":1,"area":69768,"color":"#c8a8b8"},"geometry":{"type":"Point","coordinates":[-96.3516935483871,16.952761290322584]}},{"type":"Feature","properties":{"name":"Kingdom of Armenia","label":1,"area":218265,"color":"#c8a0c8"},"geometry":{"type":"Point","coordinates":[44.13336376811595,39.29828260869562]}},{"type":"Feature","properties":{"name":"Early Cheras","label":1,"area":25181,"color":"#c8b8a8"},"geometry":{"type":"Point","coordinates":[76.8510090909091,9.859654545454545]}},{"type":"Feature","properties":{"name":"Early Pandyas","label":1,"area":32556,"color":"#c8c8a8"},"geometry":{"type":"Point","coordinates":[78.14928823529411,9.172670588235293]}},{"type":"Feature","properties":{"name":"Anurādhapura","label":1,"area":73532,"color":"#a8a8c8"},"geometry":{"type":"Point","coordinates":[80.608946875,8.329659375000002]}},{"type":"Feature","properties":{"name":"Early Cholas","label":1,"area":28856,"color":"#c8c8a8"},"geometry":{"type":"Point","coordinates":[78.24289999999999,10.753984615384617]}},{"type":"Feature","properties":{"name":"Kingdom of Sophene","label":1,"area":23761,"color":"#a8c8c8"},"geometry":{"type":"Point","coordinates":[39.758408,38.60225200000001]}},{"type":"Feature","properties":{"name":"Mayan City-States","label":1,"area":198040,"color":"#b8a8c8"},"geometry":{"type":"Point","coordinates":[-89.98728604651161,16.064537209302326]}},{"type":"Feature","properties":{"name":"Parthian Empire","label":1,"area":2702740,"color":"#8cc8a0"},"geometry":{"type":"Point","coordinates":[54.291308498583575,30.490138810198317]}},{"type":"Feature","properties":{"name":"Satavahana Dynasty","label":1,"area":890001,"color":"#a8c8c8"},"geometry":{"type":"Point","coordinates":[77.67634925373135,19.586323880597]}},{"type":"Feature","properties":{"name":"Xiongnu","label":1,"area":2998759,"color":"#b8a8c8"},"geometry":{"type":"Point","coordinates":[95.50241467889907,45.184823853211014]}},{"type":"Feature","properties":{"name":"Han Dynasty","label":1,"area":3705655,"color":"#c8c8b8"},"geometry":{"type":"Point","coordinates":[114.05361526548674,31.558701548672612]}},{"type":"Feature","properties":{"name":"Wusun","label":1,"area":185850,"color":"#a8a8c8"},"geometry":{"type":"Point","coordinates":[77.22959999999998,43.802826666666654]}},{"type":"Feature","properties":{"name":"Nabataeans","label":1,"area":90971,"color":"#a8a8c8"},"geometry":{"type":"Point","coordinates":[36.23977222222223,27.924104166666663]}},{"type":"Feature","properties":{"name":"Indo-Scythians","label":1,"area":452360,"color":"#8ab8c8"},"geometry":{"type":"Point","coordinates":[71.33603749999999,29.69640000000001]}},{"type":"Feature","properties":{"name":"Indo-Greeks","label":1,"area":74057,"color":"#b8c8a8"},"geometry":{"type":"Point","coordinates":[64.62523600000002,33.62363000000001]}},{"type":"Feature","properties":{"name":"Himyarite Kingdom","label":1,"area":334765,"color":"#d8a8a0"},"geometry":{"type":"Point","coordinates":[42.31275636363635,19.05764090909091]}},{"type":"Feature","properties":{"name":"Byeonhan","label":1,"area":13603,"color":"#a8c8c8"},"geometry":{"type":"Point","coordinates":[128.36688,35.153299999999994]}},{"type":"Feature","properties":{"name":"Dongye","label":1,"area":29016,"color":"#b8a8c8"},"geometry":{"type":"Point","coordinates":[128.03121599999997,38.197024]}},{"type":"Feature","properties":{"name":"Jinhan","label":1,"area":23506,"color":"#b8c8a8"},"geometry":{"type":"Point","coordinates":[128.91750666666667,36.2628]}},{"type":"Feature","properties":{"name":"Mahan","label":1,"area":49677,"color":"#c8a8a8"},"geometry":{"type":"Point","coordinates":[127.01927115384615,36.04258846153845]}},{"type":"Feature","properties":{"name":"Kingdom of Osroene","label":1,"area":50117,"color":"#c8c8b8"},"geometry":{"type":"Point","coordinates":[39.47970526315789,36.9634052631579]}},{"type":"Feature","properties":{"name":"Caucasian Iberia","label":1,"area":35797,"color":"#a8c8c8"},"geometry":{"type":"Point","coordinates":[44.01210000000001,42.3508827586207]}},{"type":"Feature","properties":{"name":"Caucasian Albania","label":1,"area":50113,"color":"#a8b8c8"},"geometry":{"type":"Point","coordinates":[46.56249428571428,40.97597428571428]}},{"type":"Feature","properties":{"name":"Kingdom of Gordyene","label":1,"area":14347,"color":"#c8a8a8"},"geometry":{"type":"Point","coordinates":[41.747339999999994,37.71487333333334]}},{"type":"Feature","properties":{"name":"Kingdom of Commagene","label":1,"area":9769,"color":"#b8c8a8"},"geometry":{"type":"Point","coordinates":[38.908407142857136,38.20863571428571]}},{"type":"Feature","properties":{"name":"Lazica","label":1,"area":18165,"color":"#a8a8c8"},"geometry":{"type":"Point","coordinates":[41.8856,42.532727586206896]}},{"type":"Feature","properties":{"name":"Kingdom of Adiabene","label":1,"area":13459,"color":"#c8b8a8"},"geometry":{"type":"Point","coordinates":[41.950425,36.9810375]}},{"type":"Feature","properties":{"name":"Teotihuacan","label":1,"area":5674,"color":"#c8a8b8"},"geometry":{"type":"Point","coordinates":[-98.55953571428573,19.346928571428574]}},{"type":"Feature","properties":{"name":"Kingdom of Axum","label":1,"area":97004,"color":"#c8a8a8"},"geometry":{"type":"Point","coordinates":[39.82046764705882,14.36842352941176]}},{"type":"Feature","properties":{"name":"Goguryeo","label":1,"area":94663,"color":"#c8a8b8"},"geometry":{"type":"Point","coordinates":[126.9825391304348,41.75523043478261]}},{"type":"Feature","properties":{"name":"Dong-okjeo","label":1,"area":31981,"color":"#c8a8a8"},"geometry":{"type":"Point","coordinates":[127.92533846153847,40.45034230769231]}},{"type":"Feature","properties":{"name":"Roman Empire","label":1,"area":4208150,"color":"#d88c8c"},"geometry":{"type":"Point","coordinates":[17.6868183716075,39.81633110647174]}},{"type":"Feature","properties":{"name":"Indo-Parthians","label":1,"area":483771,"color":"#c8c8a8"},"geometry":{"type":"Point","coordinates":[69.29356309523811,28.34400595238095]}},{"type":"Feature","properties":{"name":"Kushan Empire","label":1,"area":639279,"color":"#a8a8c8"},"geometry":{"type":"Point","coordinates":[69.03507692307691,37.16464871794871]}},{"type":"Feature","properties":{"name":"Western Satraps","label":1,"area":326864,"color":"#a8a8c8"},"geometry":{"type":"Point","coordinates":[72.89944032258067,23.472741935483864]}},{"type":"Feature","properties":{"name":"Southern Xiongnu","label":1,"area":186875,"color":"#a8c8c8"},"geometry":{"type":"Point","coordinates":[109.1421431372549,40.473123529411765]}},{"type":"Feature","properties":{"name":"Xianbei","label":1,"area":998133,"color":"#b8a8c8"},"geometry":{"type":"Point","coordinates":[116.50304896551727,45.99537448275861]}}]}